parentRegionId,parentRegion_DescEN,parentRegion_DescFR,refAreaType,refAreaCode,isM49,ISO3CD_Code,refAreaDesc,bookNameEng,bookNameFre,capitalCity_Code,capitalCity_DescEN,capitalCity_DescFR,nationalCurrency_Code,nationalCurrency_DescEN,nationalCurrency_DescFR,activeStatus,classType,publicStatus,exportPartner1_Code,exportPartner1_DescEN,exportPartner1_DescFR,importPartner1_Code,importPartner1_DescEN,importPartner1_DescFR,exportPartner2_Code,exportPartner2_DescEN,exportPartner2_DescFR,importPartner2_Code,importPartner2_DescEN,importPartner2_DescFR,exportPartner3_Code,exportPartner3_DescEN,exportPartner3_DescFR,importParnter3_Code,importParnter3_DescEN,importParnter3_DescFR,tradeSystem_Code,tradeSystem_DescEN,tradeSystem_DescFR,tourismArrivalsSeriesType_Code,tourismArrivalsSeriesType_DescEN,tourismArrivalsSeriesType_DescFR
,,,,-999,N,,Extra-EU-28,Extra-EU-28,Extra-UE-28,,,,,,,,,,,,,,,,,,,,,,,,,,,,,,,,,
,,,,-909,N,,Non Petroleum Exports of Asia Middle East,Non Petroleum Exports of Asia Middle East,Exp. non pétrolières de Moyen-Orient d'Asie,,,,,,,,,,,,,,,,,,,,,,,,,,,,,,,,,
,,,,-793,N,,Regional programmes,Regional programmes and other,Programmes régionaux et autres,,,,,,,,,,,,,,,,,,,,,,,,,,,,,,,,,
,,,,-777,N,,World excluding intra-EU27 trade,World exc. intra-EU27,Monde excl. intra-UE27,,,,,,,,,,,,,,,,,,,,,,,,,,,,,,,,,
,,,,-579,N,,"Global/ interregional, programme support, management & administration",Other ,Autres,,,,,,,,,,,,,,,,,,,,,,,,,,,,,,,,,
,,,,-378,N,,Interregional,Interregional,Interrégional,,,,,,,,,,,,,,,,,,,,,,,,,,,,,,,,,
,,,,-198,N,,Development Assistance Committee (DAC),[use code 593],[use code 593],,,,,,,,,,,,,,,,,,,,,,,,,,,,,,,,,
,,,,-190,Y,,Total countries/areas,Total,Total,,,,,,,,,,,,,,,,,,,,,,,,,,,,,,,,,
,,,,-147,Y,,Asia and the Pacific,Asia and the Pacific,Asie et le Pacifique,,,,,,,,,,,,,,,,,,,,,,,,,,,,,,,,,
,,,Other,0,Y,,Total,Total,Total,,,,,,,N,1,Y,,,,,,,,,,,,,,,,,,,,,,,,
,,,Region,1,Y,,World,"Total, all countries or areas","Total, tous pays ou zones",,,,,,,Y,0,Y,,,,,,,,,,,,,,,,,,,,,,,,
1,World,Monde,Region,2,Y,,Africa,Africa,Afrique,,,,,,,Y,1,Y,,,,,,,,,,,,,,,,,,,,,,,,
19,Americas,Amériques,Region,3,Y,,North America,North America,Amérique du Nord,,,,,,,Y,1.5,Y,,,,,,,,,,,,,,,,,,,,,,,,
34,Southern Asia,Asie méridionale,Area,4,Y,AFG,Afghanistan,Afghanistan,Afghanistan,20002,Kabul,Kaboul,AFN,Afghani (AFN),afghani (AFN),Y,2,Y,586,Pakistan,Pakistan,364,Iran (Islamic Rep.),Iran (Rép. islamique),356,India,Inde,586,Pakistan,Pakistan,364,Iran (Islamic Rep.),Iran (Rép. islamique),156,China,Chine,G,The general trade system. See the technical notes for an explanation of the trade systems.,Le système du commerce général. Voir les Notes techniques pour une explication des Systèmes de commerce.,,,
419,Latin America & Caribbean,Amérique latine et Caraïbes,Region,5,Y,,South America,South America,Amérique du Sud,,,,,,,Y,2,Y,,,,,,,,,,,,,,,,,,,,,,,,
1,World,Monde,Region,6,Y,,Asia [former],Asia [former],Asie [anc.],,,,,,,N,1,Y,,,,,,,,,,,,,,,,,,,,,,,,
1,World,Monde,Region,7,Y,,Europe [former],Europe [former],Europe [anc.],,,,,,,N,1,Y,,,,,,,,,,,,,,,,,,,,,,,,
39,Southern Europe,Europe méridionale,Area,8,Y,ALB,Albania,Albania,Albanie,20005,Tirana,Tirana,ALL,Lek (ALL),lek (ALL),Y,2,Y,380,Italy,Italie,380,Italy,Italie,688,Serbia,Serbie,792,Turkey,Turquie,724,Spain,Espagne,276,Germany,Allemagne,G,The general trade system. See the technical notes for an explanation of the trade systems.,Le système du commerce général. Voir les Notes techniques pour une explication des Systèmes de commerce.,TF,Arrivals of non-resident tourists at national borders.,Arrivées de touristes non résidents aux frontières nationales.
1,World,Monde,Region,9,Y,,Oceania,Oceania,Océanie,,,,,,,Y,1,Y,,,,,,,,,,,,,,,,,,,,,,,,
1,World,Monde,Region,10,Y,ATA,Antarctica,Antarctica,Antarctique,,,,,,,Y,1,Y,,,,,,,,,,,,,,,,,,,,,,,,
202,Sub-Saharan Africa,Afrique subsaharienne,Region,11,Y,,Western Africa,Western Africa,Afrique occidentale,,,,,,,Y,2,Y,,,,,,,,,,,,,,,,,,,,,,,,
15,Northern Africa,Afrique septentrionale,Area,12,Y,DZA,Algeria,Algeria,Algérie,20006,Algiers,Alger,DZD,Algerian Dinar (DZD),dinar algérien (DZD),Y,2,Y,380,Italy,Italie,156,China,Chine,250,France,France,250,France,France,724,Spain,Espagne,380,Italy,Italie,S,The special trade system. See the technical notes for an explanation of the trade systems.,Le système du commerce spécial. Voir les Notes techniques pour une explication des Systèmes de commerce.,VF,Arrivals of non-resident visitors at national borders.,Arrivées de visiteurs non résidents aux frontières nationales.
419,Latin America & Caribbean,Amérique latine et Caraïbes,Region,13,Y,,Central America,Central America,Amérique centrale,,,,,,,Y,2,Y,,,,,,,,,,,,,,,,,,,,,,,,
202,Sub-Saharan Africa,Afrique subsaharienne,Region,14,Y,,Eastern Africa,Eastern Africa,Afrique orientale,,,,,,,Y,2,Y,,,,,,,,,,,,,,,,,,,,,,,,
2,Africa,Afrique,Region,15,Y,,Northern Africa,Northern Africa,Afrique septentrionale,,,,,,,Y,2,Y,,,,,,,,,,,,,,,,,,,,,,,,
61,Polynesia,Polynésie,Area,16,Y,ASM,American Samoa,American Samoa,Samoa américaines,20047,Pago Pago,Pago Pago,USD,US Dollar (USD),dollar des É.-U. (USD),Y,2,Y,,,,,,,,,,,,,,,,,,,S,The special trade system. See the technical notes for an explanation of the trade systems.,Le système du commerce spécial. Voir les Notes techniques pour une explication des Systèmes de commerce.,TF,Arrivals of non-resident tourists at national borders.,Arrivées de touristes non résidents aux frontières nationales.
202,Sub-Saharan Africa,Afrique subsaharienne,Region,17,Y,,Middle Africa,Middle Africa,Afrique centrale,,,,,,,Y,2,Y,,,,,,,,,,,,,,,,,,,,,,,,
202,Sub-Saharan Africa,Afrique subsaharienne,Region,18,Y,,Southern Africa,Southern Africa,Afrique australe,,,,,,,Y,2,Y,,,,,,,,,,,,,,,,,,,,,,,,
1,World,Monde,Region,19,Y,,Americas,Americas,Amériques,,,,,,,Y,1,Y,,,,,,,,,,,,,,,,,,,,,,,,
39,Southern Europe,Europe méridionale,Area,20,Y,AND,Andorra,Andorra,Andorre,20048,Andorra la Vella,Andorre-la-Vieille,EUR,Euro (EUR),euro (EUR),Y,2,Y,724,Spain,Espagne,724,Spain,Espagne,250,France,France,250,France,France,144,Sri Lanka,Sri Lanka,276,Germany,Allemagne,S,The special trade system. See the technical notes for an explanation of the trade systems.,Le système du commerce spécial. Voir les Notes techniques pour une explication des Systèmes de commerce.,TF,Arrivals of non-resident tourists at national borders.,Arrivées de touristes non résidents aux frontières nationales.
19,Americas,Amériques,Region,21,Y,,Northern America,Northern America,Amérique septentrionale,,,,,,,Y,2,Y,,,,,,,,,,,,,,,,,,,,,,,,
,,,Area,22,Y,,Andorra (France),Andorra (French),Andorre (Français),,,,EUR,Euro (EUR),euro (EUR),N,3,N,,,,,,,,,,,,,,,,,,,,,,,,
,,,Area,23,Y,,Andorra (Spain),Andorra (Spanish),Andorre (Espagnole),,,,EUR,Euro (EUR),euro (EUR),N,3,N,,,,,,,,,,,,,,,,,,,,,,,,
17,Middle Africa,Afrique centrale,Area,24,Y,AGO,Angola,Angola,Angola,20049,Luanda,Luanda,AOA,Kwanza (AOA),kwanza (AOA),Y,2,Y,156,China,Chine,156,China,Chine,356,India,Inde,620,Portugal,Portugal,840,United States,États-Unis,840,United States,États-Unis,S,The special trade system. See the technical notes for an explanation of the trade systems.,Le système du commerce spécial. Voir les Notes techniques pour une explication des Systèmes de commerce.,TF,Arrivals of non-resident tourists at national borders.,Arrivées de touristes non résidents aux frontières nationales.
,,,Group,25,Y,,South America (Tropical),South America (Tropical),Amérique du Sud (Tropica),,,,,,,N,1,N,,,,,,,,,,,,,,,,,,,,,,,,
,,,Group,26,Y,,South America (Temperate),South America (Temperate),Amérique du Sud (Temporé),,,,,,,N,1,N,,,,,,,,,,,,,,,,,,,,,,,,
,,,Region,27,Y,,"Antarctica, others","Antarctica, Others","Antarctique, Autres",,,,,,,N,3,N,,,,,,,,,,,,,,,,,,,,,,,,
29,Caribbean,Caraïbes,Area,28,Y,ATG,Antigua and Barbuda,Antigua and Barbuda,Antigua-et-Barbuda,20052,Saint John's,Saint-Johns,XCD,E. Caribbean Dollar (XCD),dollar des Caraïb. (XCD),Y,2,Y,724,Spain,Espagne,840,United States,États-Unis,826,United Kingdom,Royaume-Uni,899,Areas nes,Zones nsa,60,Bermuda,Bermudes,826,United Kingdom,Royaume-Uni,G,The general trade system. See the technical notes for an explanation of the trade systems.,Le système du commerce général. Voir les Notes techniques pour une explication des Systèmes de commerce.,TF,Arrivals of non-resident tourists at national borders.,Arrivées de touristes non résidents aux frontières nationales.
419,Latin America & Caribbean,Amérique latine et Caraïbes,Region,29,Y,,Caribbean,Caribbean,Caraïbes,,,,,,,Y,2,Y,,,,,,,,,,,,,,,,,,,,,,,,
142,Asia,Asie,Region,30,Y,,Eastern Asia,Eastern Asia,Asie orientale,,,,,,,Y,2,Y,,,,,,,,,,,,,,,,,,,,,,,,
145,Western Asia,Asie occidentale,Area,31,Y,AZE,Azerbaijan,Azerbaijan,Azerbaïdjan,20053,Baku,Bakou,AZN,Azerbaijan manat (AZN),manat azerbaïdjanais (AZN),Y,2,Y,380,Italy,Italie,643,Russian Federation,Fédération de Russie,792,Turkey,Turquie,792,Turkey,Turquie,376,Israel,Israël,156,China,Chine,G,The general trade system. See the technical notes for an explanation of the trade systems.,Le système du commerce général. Voir les Notes techniques pour une explication des Systèmes de commerce.,TF,Arrivals of non-resident tourists at national borders.,Arrivées de touristes non résidents aux frontières nationales.
5,South America,Amérique du Sud,Area,32,Y,ARG,Argentina,Argentina,Argentine,20058,Buenos Aires,Buenos Aires,ARS,Argentine Peso (ARS),peso argentin (ARS),Y,2,Y,76,Brazil,Brésil,76,Brazil,Brésil,840,United States,États-Unis,156,China,Chine,156,China,Chine,840,United States,États-Unis,S,The special trade system. See the technical notes for an explanation of the trade systems.,Le système du commerce spécial. Voir les Notes techniques pour une explication des Systèmes de commerce.,TF,Arrivals of non-resident tourists at national borders.,Arrivées de touristes non résidents aux frontières nationales.
6,Asia [former],Asie [anc.],Region,33,Y,,Southern Asia [former],Southern Asia [former],Asie méridionale [anc.],,,,,,,N,2,Y,,,,,,,,,,,,,,,,,,,,,,,,
142,Asia,Asie,Region,34,Y,,Southern Asia,Southern Asia,Asie méridionale,,,,,,,Y,2,Y,,,,,,,,,,,,,,,,,,,,,,,,
142,Asia,Asie,Region,35,Y,,South-eastern Asia,South-eastern Asia,Asie du Sud-Est,,,,,,,Y,2,Y,,,,,,,,,,,,,,,,,,,,,,,,
53,Oceania,Océanie,Area,36,Y,AUS,Australia,Australia,Australie,206175,Canberra,Canberra,AUD,Australian Dollar (AUD),dollar australien (AUD),Y,2,Y,156,China,Chine,156,China,Chine,899,Areas nes,Zones nsa,840,United States,États-Unis,392,Japan,Japon,392,Japan,Japon,G,The general trade system. See the technical notes for an explanation of the trade systems.,Le système du commerce général. Voir les Notes techniques pour une explication des Systèmes de commerce.,VF,Arrivals of non-resident visitors at national borders.,Arrivées de visiteurs non résidents aux frontières nationales.
6,Asia [former],Asie [anc.],Region,37,Y,,Western Asia [former],Western Asia [former],Asie occidentale [anc.],,,,,,,N,2,Y,,,,,,,,,,,,,,,,,,,,,,,,
7,Europe [former],Europe [anc.],Region,38,Y,,Western Europe [former],Western Europe [former],Europe occidentale [anc.],,,,,,,N,2,Y,,,,,,,,,,,,,,,,,,,,,,,,
150,Europe,Europe,Region,39,Y,,Southern Europe,Southern Europe,Europe méridionale,,,,,,,Y,2,Y,,,,,,,,,,,,,,,,,,,,,,,,
155,Western Europe,Europe occidentale,Area,40,Y,AUT,Austria,Austria,Autriche,20107,Vienna,Vienne,EUR,Euro (EUR),euro (EUR),Y,2,Y,276,Germany,Allemagne,276,Germany,Allemagne,840,United States,États-Unis,380,Italy,Italie,380,Italy,Italie,156,China,Chine,S,The special trade system. See the technical notes for an explanation of the trade systems.,Le système du commerce spécial. Voir les Notes techniques pour une explication des Systèmes de commerce.,TCE,Arrivals of non-resident tourists in all types of tourism accommodation establishments.,Arrivées de touristes non résidents dans tous les types d'établissements d'hébergement touristique.
7,Europe [former],Europe [anc.],Region,41,Y,,Eastern Europe [former],Eastern Europe [former],Europe orientale [anc.],,,,,,,N,2,Y,,,,,,,,,,,,,,,,,,,,,,,,
7,Europe [former],Europe [anc.],Region,42,Y,,Northern Europe [former],Northern Europe [former],Europe septentrionale [anc.],,,,,,,N,2,Y,,,,,,,,,,,,,,,,,,,,,,,,
,,,Group,43,Y,,Europe (exc. Transition Economies),Europe (exc. Transition Economies),...,,,,,,,N,1,Y,,,,,,,,,,,,,,,,,,,,,,,,
29,Caribbean,Caraïbes,Area,44,Y,BHS,Bahamas,Bahamas,Bahamas,20108,Nassau,Nassau,BSD,Bahamian Dollar (BSD),dollar des Bahamas (BSD),Y,2,Y,840,United States,États-Unis,840,United States,États-Unis,616,Poland,Pologne,410,Rep. of Korea,République de Corée,558,Nicaragua,Nicaragua,170,Colombia,Colombie,G,The general trade system. See the technical notes for an explanation of the trade systems.,Le système du commerce général. Voir les Notes techniques pour une explication des Systèmes de commerce.,TF,Arrivals of non-resident tourists at national borders.,Arrivées de touristes non résidents aux frontières nationales.
,,,Region,45,Y,,Melanesia [former],Melanesia [former],Mélanésie [anc.],,,,,,,N,2,Y,,,,,,,,,,,,,,,,,,,,,,,,
,,,Region,46,Y,,Micronesia-Polynesia [former],Micronesia-Polynesia [former],Micronésie-Polynésie [anc.],,,,,,,N,1.5,Y,,,,,,,,,,,,,,,,,,,,,,,,
46,Micronesia-Polynesia [former],Micronésie-Polynésie [anc.],Region,47,Y,,Micronesia [former],Micronesia [former],Micronésie [anc.],,,,,,,N,2,Y,,,,,,,,,,,,,,,,,,,,,,,,
145,Western Asia,Asie occidentale,Area,48,Y,BHR,Bahrain,Bahrain,Bahreïn,20109,Manama,Manama,BHD,Bahraini Dinar (BHD),dinar de Bahreïn (BHD),Y,2,Y,682,Saudi Arabia,Arabie saoudite,899,Areas nes,Zones nsa,784,United Arab Emirates,Émirats arabes unis,156,China,Chine,840,United States,États-Unis,840,United States,États-Unis,G,The general trade system. See the technical notes for an explanation of the trade systems.,Le système du commerce général. Voir les Notes techniques pour une explication des Systèmes de commerce.,VF,Arrivals of non-resident visitors at national borders.,Arrivées de visiteurs non résidents aux frontières nationales.
46,Micronesia-Polynesia [former],Micronésie-Polynésie [anc.],Region,49,Y,,Polynesia [former],Polynesia [former],Polynésie [anc.],,,,,,,N,2,Y,,,,,,,,,,,,,,,,,,,,,,,,
34,Southern Asia,Asie méridionale,Area,50,Y,BGD,Bangladesh,Bangladesh,Bangladesh,20119,Dhaka,Dacca,BDT,Taka (BDT),taka (BDT),Y,2,Y,276,Germany,Allemagne,156,China,Chine,840,United States,États-Unis,356,India,Inde,826,United Kingdom,Royaume-Uni,702,Singapore,Singapour,G,The general trade system. See the technical notes for an explanation of the trade systems.,Le système du commerce général. Voir les Notes techniques pour une explication des Systèmes de commerce.,TF,Arrivals of non-resident tourists at national borders.,Arrivées de touristes non résidents aux frontières nationales.
145,Western Asia,Asie occidentale,Area,51,Y,ARM,Armenia,Armenia,Arménie,20140,Yerevan,Erevan,AMD,Armenian Dram (AMD),dram arménien (AMD),Y,2,Y,643,Russian Federation,Fédération de Russie,643,Russian Federation,Fédération de Russie,756,Switzerland,Suisse,156,China,Chine,100,Bulgaria,Bulgarie,364,Iran (Islamic Rep.),Iran (Rép. islamique),S,The special trade system. See the technical notes for an explanation of the trade systems.,Le système du commerce spécial. Voir les Notes techniques pour une explication des Systèmes de commerce.,TF,Arrivals of non-resident tourists at national borders.,Arrivées de touristes non résidents aux frontières nationales.
29,Caribbean,Caraïbes,Area,52,Y,BRB,Barbados,Barbados,Barbade,20141,Bridgetown,Bridgetown,BBD,Barbados Dollar (BBD),dollar de la Barbade (BBD),Y,2,Y,899,Areas nes,Zones nsa,840,United States,États-Unis,840,United States,États-Unis,780,Trinidad and Tobago,Trinité-et-Tobago,780,Trinidad and Tobago,Trinité-et-Tobago,156,China,Chine,G,The general trade system. See the technical notes for an explanation of the trade systems.,Le système du commerce général. Voir les Notes techniques pour une explication des Systèmes de commerce.,TF,Arrivals of non-resident tourists at national borders.,Arrivées de touristes non résidents aux frontières nationales.
9,Oceania,Océanie,Region,53,Y,,Australia and New Zealand,Australia and New Zealand,Australie et Nouvelle-Zélande,,,,,,,Y,2,Y,,,,,,,,,,,,,,,,,,,,,,,,
9,Oceania,Océanie,Region,54,Y,,Melanesia,Melanesia,Mélanésie,,,,,,,Y,2,Y,,,,,,,,,,,,,,,,,,,,,,,,
,,,Region,55,Y,,Micronesia-Polynesia,Micronesia-Polynesia,Micronésie-Polynésie,,,,,,,N,1.5,Y,,,,,,,,,,,,,,,,,,,,,,,,
155,Western Europe,Europe occidentale,Area,56,Y,BEL,Belgium,Belgium,Belgique,20144,Brussels,Bruxelles,EUR,Euro (EUR),euro (EUR),Y,2,Y,276,Germany,Allemagne,528,Netherlands,Pays-Bas,250,France,France,276,Germany,Allemagne,528,Netherlands,Pays-Bas,250,France,France,S,The special trade system. See the technical notes for an explanation of the trade systems.,Le système du commerce spécial. Voir les Notes techniques pour une explication des Systèmes de commerce.,TCE,Arrivals of non-resident tourists in all types of tourism accommodation establishments.,Arrivées de touristes non résidents dans tous les types d'établissements d'hébergement touristique.
9,Oceania,Océanie,Region,57,Y,,Micronesia,Micronesia,Micronésie,,,,,,,Y,2,Y,,,,,,,,,,,,,,,,,,,,,,,,
,,,Area,58,Y,,Belgium-Luxembourg,[use code 056 and footnote],[use code 056 and footnote],,,,,,,N,-1,Y,,,,,,,,,,,,,,,,,,,,,,,,
,,,Group,59,Y,,Benelux Economic Union,Benelux,Benelux,,,,,,,N,2,N,,,,,,,,,,,,,,,,,,,,,,,,
21,Northern America,Amérique septentrionale,Area,60,Y,BMU,Bermuda,Bermuda,Bermudes,20150,Hamilton,Hamilton,BMD,Bermudian Dollar (BMD),dollar des Bermudes (BMD),Y,2,Y,840,United States,États-Unis,840,United States,États-Unis,899,Areas nes,Zones nsa,124,Canada,Canada,826,United Kingdom,Royaume-Uni,826,United Kingdom,Royaume-Uni,G,The general trade system. See the technical notes for an explanation of the trade systems.,Le système du commerce général. Voir les Notes techniques pour une explication des Systèmes de commerce.,TF,Arrivals of non-resident tourists at national borders.,Arrivées de touristes non résidents aux frontières nationales.
9,Oceania,Océanie,Region,61,Y,,Polynesia,Polynesia,Polynésie,,,,,,,Y,2,Y,,,,,,,,,,,,,,,,,,,,,,,,
142,Asia,Asie,Region,62,Y,,South-central Asia,South-central Asia,Asie centrale et du Sud,,,,,,,Y,1.5,Y,,,,,,,,,,,,,,,,,,,,,,,,
,,,Group,63,Y,,Andean Common Market (ANCOM),ANCOM§,ANCOM§,,,,,,,Y,2,Y,,,,,,,,,,,,,,,,,,,,,,,,
34,Southern Asia,Asie méridionale,Area,64,Y,BTN,Bhutan,Bhutan,Bhoutan,20151,Thimphu,Thimphou,BTN,Ngultrum (BTN),ngultrum (BTN),Y,2,Y,356,India,Inde,356,India,Inde,826,United Kingdom,Royaume-Uni,840,United States,États-Unis,524,Nepal,Népal,764,Thailand,Thaïlande,G,The general trade system. See the technical notes for an explanation of the trade systems.,Le système du commerce général. Voir les Notes techniques pour une explication des Systèmes de commerce.,TF,Arrivals of non-resident tourists at national borders.,Arrivées de touristes non résidents aux frontières nationales.
,,,Group,65,Y,,ASEAN Free Trade Area (AFTA),ASEAN Free Trade Area (AFTA),Zone de libre-échange des pays de l'ANASE,,,,,,,N,2,Y,,,,,,,,,,,,,,,,,,,,,,,,
,,,Group,66,Y,,Asia-Pacific Economic Cooperation (APEC),APEC§,CEAP§,,,,,,,Y,2,Y,,,,,,,,,,,,,,,,,,,,,,,,
,,,Group,67,Y,,European Economic Area (EEA),,,,,,,,,N,2,N,,,,,,,,,,,,,,,,,,,,,,,,
5,South America,Amérique du Sud,Area,68,Y,BOL,Bolivia (Plurinational State of),Bolivia (Plurin. State of),Bolivie (État plurin. de),20158,Sucre,Sucre,BOB,Boliviano (BOB),boliviano (BOB),Y,2,Y,76,Brazil,Brésil,156,China,Chine,32,Argentina,Argentine,76,Brazil,Brésil,356,India,Inde,32,Argentina,Argentine,G,The general trade system. See the technical notes for an explanation of the trade systems.,Le système du commerce général. Voir les Notes techniques pour une explication des Systèmes de commerce.,TF,Arrivals of non-resident tourists at national borders.,Arrivées de touristes non résidents aux frontières nationales.
,,,Group,69,Y,,Southern Common Market (MERCOSUR),MERCOSUR§,MERCOSUR§,,,,,,,Y,2,Y,,,,,,,,,,,,,,,,,,,,,,,,
39,Southern Europe,Europe méridionale,Area,70,Y,BIH,Bosnia and Herzegovina,Bosnia and Herzegovina,Bosnie-Herzégovine,20164,Sarajevo,Sarajevo,BAM,Convertible Mark (BAM),marka convertible (BAM),Y,2,Y,276,Germany,Allemagne,276,Germany,Allemagne,191,Croatia,Croatie,380,Italy,Italie,380,Italy,Italie,688,Serbia,Serbie,S,The special trade system. See the technical notes for an explanation of the trade systems.,Le système du commerce spécial. Voir les Notes techniques pour une explication des Systèmes de commerce.,TCE,Arrivals of non-resident tourists in all types of tourism accommodation establishments.,Arrivées de touristes non résidents dans tous les types d'établissements d'hébergement touristique.
,,,Group,71,Y,,North American Free Trade Agreement (NAFTA),NAFTA§,ALENA§,,,,,,,Y,2,Y,,,,,,,,,,,,,,,,,,,,,,,,
18,Southern Africa,Afrique australe,Area,72,Y,BWA,Botswana,Botswana,Botswana,20167,Gaborone,Gaborone,BWP,Pula (BWP),pula (BWP),Y,2,Y,56,Belgium,Belgique,710,South Africa,Afrique du Sud,356,India,Inde,124,Canada,Canada,784,United Arab Emirates,Émirats arabes unis,516,Namibia,Namibie,G,The general trade system. See the technical notes for an explanation of the trade systems.,Le système du commerce général. Voir les Notes techniques pour une explication des Systèmes de commerce.,TF,Arrivals of non-resident tourists at national borders.,Arrivées de touristes non résidents aux frontières nationales.
,,,Group,73,Y,,Association of Southeast Asian Nations (ASEAN),ASEAN§,ANASE§,,,,,,,Y,2,Y,,,,,,,,,,,,,,,,,,,,,,,,
5,South America,Amérique du Sud,Area,74,Y,BVT,Bouvet Island,Bouvet Island,Île Bouvet,,,,NOK,Norwegian Krone (NOK),couronne norvégienne (NOK),Y,2,Y,,,,,,,,,,,,,,,,,,,,,,,,
5,South America,Amérique du Sud,Area,76,Y,BRA,Brazil,Brazil,Brésil,20187,Brasilia,Brasilia,BRL,Brazilian Real (BRL),real brésilien (BRL),Y,2,Y,156,China,Chine,156,China,Chine,840,United States,États-Unis,840,United States,États-Unis,32,Argentina,Argentine,32,Argentina,Argentine,G,The general trade system. See the technical notes for an explanation of the trade systems.,Le système du commerce général. Voir les Notes techniques pour une explication des Systèmes de commerce.,TF,Arrivals of non-resident tourists at national borders.,Arrivées de touristes non résidents aux frontières nationales.
5,South America,Amérique du Sud,Area,80,Y,ATB,British Antarctic Territory [former],British Antarctic Territory [former],Terr. antarctique brit. [anc.],,,,GBP,Pound Sterling (GBP),livre sterling (GBP),N,2,Y,,,,,,,,,,,,,,,,,,,,,,,,
,,,Group,81,N,,Antarctic Fisheries,Antarctic Fisheries,Pêcheries antarctiques,,,,,,,N,1,N,,,,,,,,,,,,,,,,,,,,,,,,
13,Central America,Amérique centrale,Area,84,Y,BLZ,Belize,Belize,Belize,20310,Belmopan,Belmopan,BZD,Belize Dollar (BZD),dollar du Belize (BZD),Y,2,Y,826,United Kingdom,Royaume-Uni,840,United States,États-Unis,840,United States,États-Unis,156,China,Chine,388,Jamaica,Jamaïque,484,Mexico,Mexique,G,The general trade system. See the technical notes for an explanation of the trade systems.,Le système du commerce général. Voir les Notes techniques pour une explication des Systèmes de commerce.,TF,Arrivals of non-resident tourists at national borders.,Arrivées de touristes non résidents aux frontières nationales.
14,Eastern Africa,Afrique orientale,Area,86,Y,IOT,British Indian Ocean Territory,British Indian Ocean Terr.,Terr. brit. de l’océan Indien,,,,GBP,Pound Sterling (GBP),livre sterling (GBP),Y,2,Y,,,,,,,,,,,,,,,,,,,,,,,,
54,Melanesia,Mélanésie,Area,90,Y,SLB,Solomon Islands,Solomon Islands,Îles Salomon,20311,Honiara,Honiara,SBD,Solomon Is. Dollar (SBD),dollar des Îl. Salomon (SBD),Y,2,Y,156,China,Chine,36,Australia,Australie,380,Italy,Italie,702,Singapore,Singapour,756,Switzerland,Suisse,554,New Zealand,Nouvelle-Zélande,S,The special trade system. See the technical notes for an explanation of the trade systems.,Le système du commerce spécial. Voir les Notes techniques pour une explication des Systèmes de commerce.,TF,Arrivals of non-resident tourists at national borders.,Arrivées de touristes non résidents aux frontières nationales.
29,Caribbean,Caraïbes,Area,92,Y,VGB,British Virgin Islands,British Virgin Islands,Îles Vierges britanniques,20313,Road Town,Road Town,USD,US Dollar (USD),dollar des É.-U. (USD),Y,2,Y,484,Mexico,Mexique,899,Areas nes,Zones nsa,646,Rwanda,Rwanda,840,United States,États-Unis,36,Australia,Australie,756,Switzerland,Suisse,G,The general trade system. See the technical notes for an explanation of the trade systems.,Le système du commerce général. Voir les Notes techniques pour une explication des Systèmes de commerce.,TF,Arrivals of non-resident tourists at national borders.,Arrivées de touristes non résidents aux frontières nationales.
,,,Area,93,Y,,British Virgin Islands (Beef Island),Beef Island,Beef Island,,,,USD,US Dollar (USD),dollar des É.-U. (USD),N,3,N,,,,,,,,,,,,,,,,,,,,,,,,
,,,Group,95,Y,,Latin American Integration Association (LAIA),LAIA§,ALAI§,,,,,,,Y,2,Y,,,,,,,,,,,,,,,,,,,,,,,,
35,South-eastern Asia,Asie du Sud-Est,Area,96,Y,BRN,Brunei Darussalam,Brunei Darussalam,Brunéi Darussalam,20314,Bandar Seri Begawan,Bandar Seri Begawan,BND,Brunei Dollar (BND),dollar du Brunéi (BND),Y,2,Y,392,Japan,Japon,156,China,Chine,410,Rep. of Korea,République de Corée,702,Singapore,Singapour,458,Malaysia,Malaisie,458,Malaysia,Malaisie,S,The special trade system. See the technical notes for an explanation of the trade systems.,Le système du commerce spécial. Voir les Notes techniques pour une explication des Systèmes de commerce.,TF,Arrivals of non-resident tourists at national borders.,Arrivées de touristes non résidents aux frontières nationales.
,,,Group,97,Y,,European Union (EU),European Union (EU),Union européenne (UE),,,,,,,Y,2,Y,,,,,,,,,,,,,,,,,,,,,,,,
,,,Group,98,N,,Euro Area,Euro Area,Zone euro,,,,EUR,Euro (EUR),euro (EUR),Y,2,Y,,,,,,,,,,,,,,,,,,,,,,,,
151,Eastern Europe,Europe orientale,Area,100,Y,BGR,Bulgaria,Bulgaria,Bulgarie,20327,Sofia,Sofia,BGN,Bulgarian Lev (BGN),lev bulgare (BGN),Y,2,Y,276,Germany,Allemagne,276,Germany,Allemagne,792,Turkey,Turquie,643,Russian Federation,Fédération de Russie,380,Italy,Italie,380,Italy,Italie,S,The special trade system. See the technical notes for an explanation of the trade systems.,Le système du commerce spécial. Voir les Notes techniques pour une explication des Systèmes de commerce.,TF,Arrivals of non-resident tourists at national borders.,Arrivées de touristes non résidents aux frontières nationales.
35,South-eastern Asia,Asie du Sud-Est,Area,104,Y,MMR,Myanmar,Myanmar,Myanmar,205588,Nay Pyi Taw,Nay Pyi Taw,MMK,Kyat (MMK),kyat (MMK),Y,2,Y,156,China,Chine,156,China,Chine,764,Thailand,Thaïlande,702,Singapore,Singapour,392,Japan,Japon,764,Thailand,Thaïlande,G,The general trade system. See the technical notes for an explanation of the trade systems.,Le système du commerce général. Voir les Notes techniques pour une explication des Systèmes de commerce.,TF,Arrivals of non-resident tourists at national borders.,Arrivées de touristes non résidents aux frontières nationales.
14,Eastern Africa,Afrique orientale,Area,108,Y,BDI,Burundi,Burundi,Burundi,20340,Bujumbura,Bujumbura,BIF,Burundi Franc (BIF),franc burundais (BIF),Y,2,Y,784,United Arab Emirates,Émirats arabes unis,356,India,Inde,180,Dem.Rep. of the Congo,Rép. Dém. du Congo,156,China,Chine,586,Pakistan,Pakistan,682,Saudi Arabia,Arabie saoudite,S,The special trade system. See the technical notes for an explanation of the trade systems.,Le système du commerce spécial. Voir les Notes techniques pour une explication des Systèmes de commerce.,TF,Arrivals of non-resident tourists at national borders.,Arrivées de touristes non résidents aux frontières nationales.
151,Eastern Europe,Europe orientale,Area,112,Y,BLR,Belarus,Belarus,Bélarus,20348,Minsk,Minsk,BYN,Belarusian Ruble (BYN),rouble bélarussien (BYN),Y,2,Y,643,Russian Federation,Fédération de Russie,643,Russian Federation,Fédération de Russie,804,Ukraine,Ukraine,156,China,Chine,826,United Kingdom,Royaume-Uni,276,Germany,Allemagne,G,The general trade system. See the technical notes for an explanation of the trade systems.,Le système du commerce général. Voir les Notes techniques pour une explication des Systèmes de commerce.,TF,Arrivals of non-resident tourists at national borders.,Arrivées de touristes non résidents aux frontières nationales.
35,South-eastern Asia,Asie du Sud-Est,Area,116,Y,KHM,Cambodia,Cambodia,Cambodge,20357,Phnom Penh,Phnom Penh,KHR,Riel (KHR),riel (KHR),Y,2,Y,840,United States,États-Unis,156,China,Chine,826,United Kingdom,Royaume-Uni,764,Thailand,Thaïlande,276,Germany,Allemagne,704,Viet Nam,Viet Nam,S,The special trade system. See the technical notes for an explanation of the trade systems.,Le système du commerce spécial. Voir les Notes techniques pour une explication des Systèmes de commerce.,TF,Arrivals of non-resident tourists at national borders.,Arrivées de touristes non résidents aux frontières nationales.
,,,Group,119,Y,,The Lome Convention,"Afr., Carib. and Pac. Sts","Etats d'Afr., Caraïbes",,,,,,,N,2,N,,,,,,,,,,,,,,,,,,,,,,,,
17,Middle Africa,Afrique centrale,Area,120,Y,CMR,Cameroon,Cameroon,Cameroun,20365,Yaoundé,Yaoundé,XAF,"CFA Franc, BEAC (XAF)","franc CFA, BEAC (XAF)",Y,2,Y,380,Italy,Italie,156,China,Chine,156,China,Chine,250,France,France,250,France,France,764,Thailand,Thaïlande,S,The special trade system. See the technical notes for an explanation of the trade systems.,Le système du commerce spécial. Voir les Notes techniques pour une explication des Systèmes de commerce.,VF,Arrivals of non-resident tourists at national borders.,Arrivées de touristes non résidents aux frontières nationales.
,,,Area,121,Y,,Cameroon (East),East Cameroon,Cameroun oriental,,,,XAF,"CFA Franc, BEAC (XAF)","franc CFA, BEAC (XAF)",N,3,N,,,,,,,,,,,,,,,,,,,,,,,,
,,,Area,122,Y,,Cameroon (West),West Cameroon,Cameroun occidental,,,,XAF,"CFA Franc, BEAC (XAF)","franc CFA, BEAC (XAF)",N,3,N,,,,,,,,,,,,,,,,,,,,,,,,
21,Northern America,Amérique septentrionale,Area,124,Y,CAN,Canada,Canada,Canada,20387,Ottawa,Ottawa,CAD,Canadian Dollar (CAD),dollar canadien (CAD),Y,2,Y,840,United States,États-Unis,840,United States,États-Unis,156,China,Chine,156,China,Chine,826,United Kingdom,Royaume-Uni,484,Mexico,Mexique,G,The general trade system. See the technical notes for an explanation of the trade systems.,Le système du commerce général. Voir les Notes techniques pour une explication des Systèmes de commerce.,TF,Arrivals of non-resident tourists at national borders.,Arrivées de touristes non résidents aux frontières nationales.
,,,Group,127,Y,,Southern Asia (exc. India),[use code 34 and footnote],[use code 34 and footnote],,,,,,,Y,1,N,,,,,,,,,,,,,,,,,,,,,,,,
47,Micronesia [former],Micronésie [anc.],Area,128,Y,CTE,Canton and Enderbury Islands [former],Canton and Enderbury Islands [former],Îles Canton et Enderbury [anc.],,,,AUD,Australian Dollar (AUD),dollar australien (AUD),N,2,Y,,,,,,,,,,,,,,,,,,,,,,,,
,,,Region,129,Y,,Caribbean not elsewhere specified,Caribbean n.e.s,Caraïbes n.s.a,,,,,,,Y,3,Y,,,,,,,,,,,,,,,,,,,,,,,,
,,,Group,130,Y,,Caribbean Community and Common Market (CARICOM),CARICOM§,CARICOM§,,,,,,,Y,2,Y,,,,,,,,,,,,,,,,,,,,,,,,
,,,Group,131,Y,,Organization of Eastern Caribbean States (OECS),Organization of Eastern C,Organisation des Etats de,,,,,,,N,2,N,,,,,,,,,,,,,,,,,,,,,,,,
11,Western Africa,Afrique occidentale,Area,132,Y,CPV,Cabo Verde,Cabo Verde,Cabo Verde,20408,Praia,Praïa,CVE,Cabo Verde Escudo (CVE),escudo du Cabo Verde (CVE),Y,2,Y,724,Spain,Espagne,620,Portugal,Portugal,620,Portugal,Portugal,724,Spain,Espagne,840,United States,États-Unis,380,Italy,Italie,G,The general trade system. See the technical notes for an explanation of the trade systems.,Le système du commerce général. Voir les Notes techniques pour une explication des Systèmes de commerce.,TF,Arrivals of non-resident tourists in hotels and similar establishments.,Arrivées de touristes non résidents dans les hôtels et établissements similaires.
,,,Area,133,Y,,Caroline Islands [former],Caroline Islands,Iles Carolines,,,,USD,US dollar (USD),dollar des É.-U. (USD),N,3,N,,,,,,,,,,,,,,,,,,,,,,,,
,,,Group,134,N,,Caucasus,Caucasus,Caucase,,,,,,,,1,N,,,,,,,,,,,,,,,,,,,,,,,,
,,,Group,135,Y,,Caucasus and Central Asia,Caucasus and Central Asia,Caucase et Asie centrale,,,,,,,,1,N,,,,,,,,,,,,,,,,,,,,,,,,
29,Caribbean,Caraïbes,Area,136,Y,CYM,Cayman Islands,Cayman Islands,Îles Caïmanes,20409,George Town,George Town,KYD,Cayman Islands Dollar (KYD),dollar des Îles Caïmanes (KYD),Y,2,Y,470,Malta,Malte,840,United States,États-Unis,528,Netherlands,Pays-Bas,528,Netherlands,Pays-Bas,840,United States,États-Unis,276,Germany,Allemagne,G,The general trade system. See the technical notes for an explanation of the trade systems.,Le système du commerce général. Voir les Notes techniques pour une explication des Systèmes de commerce.,TF,Arrivals of non-resident tourists at national borders.,Arrivées de touristes non résidents aux frontières nationales.
17,Middle Africa,Afrique centrale,Area,140,Y,CAF,Central African Republic,Central African Republic,République centrafricaine,20410,Bangui,Bangui,XAF,"CFA Franc, BEAC (XAF)","franc CFA, BEAC (XAF)",Y,2,Y,250,France,France,250,France,France,204,Benin,Bénin,120,Cameroon,Cameroun,156,China,Chine,56,Belgium,Belgique,S,The special trade system. See the technical notes for an explanation of the trade systems.,Le système du commerce spécial. Voir les Notes techniques pour une explication des Systèmes de commerce.,TF,Arrivals of non-resident tourists at national borders.,Arrivées de touristes non résidents aux frontières nationales.
,,,Region,141,Y,,Central America not elsewhere specified,Central America n.e.s,Amérique centrale n.s.a,,,,,,,N,3,N,,,,,,,,,,,,,,,,,,,,,,,,
1,World,Monde,Region,142,Y,,Asia,Asia,Asie,,,,,,,Y,1,Y,,,,,,,,,,,,,,,,,,,,,,,,
142,Asia,Asie,Region,143,Y,,Central Asia,Central Asia,Asie centrale,,,,,,,Y,2,Y,,,,,,,,,,,,,,,,,,,,,,,,
34,Southern Asia,Asie méridionale,Area,144,Y,LKA,Sri Lanka,Sri Lanka,Sri Lanka,20414,Colombo,Colombo,LKR,Sri Lanka Rupee (LKR),roupie sri-lankaise (LKR),Y,2,Y,840,United States,États-Unis,356,India,Inde,826,United Kingdom,Royaume-Uni,156,China,Chine,356,India,Inde,784,United Arab Emirates,Émirats arabes unis,G,The general trade system. See the technical notes for an explanation of the trade systems.,Le système du commerce général. Voir les Notes techniques pour une explication des Systèmes de commerce.,TF,Arrivals of non-resident tourists at national borders.,Arrivées de touristes non résidents aux frontières nationales.
142,Asia,Asie,Region,145,Y,,Western Asia,Western Asia,Asie occidentale,,,,,,,Y,2,Y,,,,,,,,,,,,,,,,,,,,,,,,
,,,Group,147,N,,Developed economies - Asia and Oceania,Asia and Oceania,Asie et Océanie,,,,,,,Y,0,N,,,,,,,,,,,,,,,,,,,,,,,,
17,Middle Africa,Afrique centrale,Area,148,Y,TCD,Chad,Chad,Tchad,20420,N'Djamena,N'Djamena,XAF,"CFA Franc, BEAC (XAF)","franc CFA, BEAC (XAF)",Y,2,Y,840,United States,États-Unis,156,China,Chine,156,China,Chine,250,France,France,528,Netherlands,Pays-Bas,120,Cameroon,Cameroun,S,The special trade system. See the technical notes for an explanation of the trade systems.,Le système du commerce spécial. Voir les Notes techniques pour une explication des Systèmes de commerce.,TF,Arrivals of non-resident tourists at national borders.,Arrivées de touristes non résidents aux frontières nationales.
1,World,Monde,Region,150,Y,,Europe,Europe,Europe,,,,,,,Y,1,Y,,,,,,,,,,,,,,,,,,,,,,,,
150,Europe,Europe,Region,151,Y,,Eastern Europe,Eastern Europe,Europe orientale,,,,,,,Y,2,Y,,,,,,,,,,,,,,,,,,,,,,,,
5,South America,Amérique du Sud,Area,152,Y,CHL,Chile,Chile,Chili,20439,Santiago,Santiago,CLP,Chilean Peso (CLP),peso chilien (CLP),Y,2,Y,156,China,Chine,156,China,Chine,840,United States,États-Unis,840,United States,États-Unis,392,Japan,Japon,76,Brazil,Brésil,S,The special trade system. See the technical notes for an explanation of the trade systems.,Le système du commerce spécial. Voir les Notes techniques pour une explication des Systèmes de commerce.,TF,Arrivals of non-resident tourists at national borders.,Arrivées de touristes non résidents aux frontières nationales.
,,,Area,153,Y,,Chile (Easter Island),Easter Island,Ile de Pâques,,,,CLP,Chilean Peso (CLP),peso chilien (CLP),N,3,N,,,,,,,,,,,,,,,,,,,,,,,,
150,Europe,Europe,Region,154,Y,,Northern Europe,Northern Europe,Europe septentrionale,,,,,,,Y,2,Y,,,,,,,,,,,,,,,,,,,,,,,,
150,Europe,Europe,Region,155,Y,,Western Europe,Western Europe,Europe occidentale,,,,,,,Y,2,Y,,,,,,,,,,,,,,,,,,,,,,,,
30,Eastern Asia,Asie orientale,Area,156,Y,CHN,China,China,Chine,20464,Beijing,Beijing,CNY,Yuan Renminbi (CNY),yuan (CNY),Y,2,Y,840,United States,États-Unis,410,Rep. of Korea,République de Corée,344,"China, Hong Kong SAR","Chine, RAS Hong Kong",392,Japan,Japon,392,Japan,Japon,490,Asia nes,Asie nsa,S,The special trade system. See the technical notes for an explanation of the trade systems.,Le système du commerce spécial. Voir les Notes techniques pour une explication des Systèmes de commerce.,TF,Arrivals of non-resident tourists at national borders.,Arrivées de touristes non résidents aux frontières nationales.
,,,Area,157,Y,,China (inc. Taiwan province),[use code 156 and footnote],[use code 156 and footnote],,,,,,,N,-1,N,,,,,,,,,,,,,,,,,,,,,,,,
30,Eastern Asia,Asie orientale,Area,158,Y,TWN,Taiwan province of China,Other non-specified areas,Autres zones non-spécifiées,895000149,Taibei,Taibei,TWD,New Taiwan Dollar (TWD),nouv. dollar de Taïwan (TWD),Y,2,Y,156,China,Chine,156,China,Chine,344,"China, Hong Kong SAR","Chine, RAS Hong Kong",392,Japan,Japon,840,United States,États-Unis,840,United States,États-Unis,,,,VF,Arrivals of non-resident visitors at national borders.,Arrivées de visiteurs non résidents aux frontières nationales.
,,,Group,160,N,,South-Eastern Europe,South-Eastern Europe,Europe centrale et de l'est,,,,,,,Y,1,N,,,,,,,,,,,,,,,,,,,,,,,,
,,,Group,161,Y,,South-Eastern Europe & CIS,South-Eastern Europe,,,,,,,,Y,1,N,,,,,,,,,,,,,,,,,,,,,,,,
53,Oceania,Océanie,Area,162,Y,CXR,Christmas Island,Christmas Island,Île Christmas,,,,AUD,Australian dollar (AUD),dollar australien (AUD),Y,2,Y,,,,,,,,,,,,,,,,,,,,,,,,
53,Oceania,Océanie,Area,166,Y,CCK,Cocos (Keeling) Islands,Cocos (Keeling) Islands,Îles des Cocos (Keeling),,,,AUD,Australian dollar (AUD),dollar australien (AUD),Y,2,Y,,,,,,,,,,,,,,,,,,,,,,,,
5,South America,Amérique du Sud,Area,170,Y,COL,Colombia,Colombia,Colombie,20837,Bogota,Bogota,COP,Colombian Peso (COP),peso colombien (COP),Y,2,Y,840,United States,États-Unis,840,United States,États-Unis,591,Panama,Panama,156,China,Chine,156,China,Chine,484,Mexico,Mexique,G,The general trade system. See the technical notes for an explanation of the trade systems.,Le système du commerce général. Voir les Notes techniques pour une explication des Systèmes de commerce.,TF,Arrivals of non-resident tourists at national borders.,Arrivées de touristes non résidents aux frontières nationales.
,,,Group,171,Y,,Common Market for Eastern and Southern Africa (COMESA),COMESA§,COMESA§,,,,,,,Y,2,Y,,,,,,,,,,,,,,,,,,,,,,,,
,,,Group,172,Y,,Commonwealth of Independent States (CIS),CIS§,CEI§,,,,,,,Y,2,Y,,,,,,,,,,,,,,,,,,,,,,,,
,,,Group,173,N,,CIS in Europe,CIS Europe§,CEI Europe§ ,,,,,,,Y,1,N,,,,,,,,,,,,,,,,,,,,,,,,
14,Eastern Africa,Afrique orientale,Area,174,Y,COM,Comoros,Comoros,Comores,20847,Moroni,Moroni,KMF,Comorian Franc (KMF),franc comorien (KMF),Y,2,Y,356,India,Inde,834,United Rep. of Tanzania,Rép.-Unie Tanzanie,250,France,France,156,China,Chine,276,Germany,Allemagne,250,France,France,S,The special trade system. See the technical notes for an explanation of the trade systems.,Le système du commerce spécial. Voir les Notes techniques pour une explication des Systèmes de commerce.,TF,Arrivals of non-resident tourists at national borders.,Arrivées de touristes non résidents aux frontières nationales.
14,Eastern Africa,Afrique orientale,Area,175,Y,MYT,Mayotte,Mayotte,Mayotte,205636,Mamoudzou,Mamoudzou,EUR,Euro (EUR),euro (EUR),Y,2,Y,,,,,,,,,,,,,,,,,,,G,The general trade system. See the technical notes for an explanation of the trade systems.,Le système du commerce général. Voir les Notes techniques pour une explication des Systèmes de commerce.,,,
,,,Group,176,N,,CIS in Asia,CIS Asia§ ,CEI Asie§ ,,,,,,,Y,1,N,,,,,,,,,,,,,,,,,,,,,,,,
17,Middle Africa,Afrique centrale,Area,178,Y,COG,Congo,Congo,Congo,20848,Brazzaville,Brazzaville,XAF,"CFA Franc, BEAC (XAF)","franc CFA, BEAC (XAF)",Y,2,Y,156,China,Chine,334,Heard Island and McDonald Islands,Île Heard-et-Îles MacDonald,724,Spain,Espagne,516,Namibia,Namibie,24,Angola,Angola,250,France,France,S,The special trade system. See the technical notes for an explanation of the trade systems.,Le système du commerce spécial. Voir les Notes techniques pour une explication des Systèmes de commerce.,TF,Arrivals of non-resident tourists at national borders.,Arrivées de touristes non résidents aux frontières nationales.
17,Middle Africa,Afrique centrale,Area,180,Y,COD,Democratic Republic of the Congo,Dem. Rep. of the Congo,Rép. dém. du Congo,20853,Kinshasa,Kinshasa,CDF,Congolese Franc (CDF),franc congolais (CDF),Y,2,Y,156,China,Chine,156,China,Chine,894,Zambia,Zambie,710,South Africa,Afrique du Sud,410,Rep. of Korea,République de Corée,894,Zambia,Zambie,S,The special trade system. See the technical notes for an explanation of the trade systems.,Le système du commerce spécial. Voir les Notes techniques pour une explication des Systèmes de commerce.,TF,Arrivals of non-resident tourists at national borders.,Arrivées de touristes non résidents aux frontières nationales.
61,Polynesia,Polynésie,Area,184,Y,COK,Cook Islands,Cook Islands,Îles Cook,20860,Avarua,Avarua,NZD,New Zealand Dollar (NZD),dollar néo-zélandais (NZD),Y,2,Y,392,Japan,Japon,554,New Zealand,Nouvelle-Zélande,156,China,Chine,242,Fiji,Fidji,764,Thailand,Thaïlande,380,Italy,Italie,G,The general trade system. See the technical notes for an explanation of the trade systems.,Le système du commerce général. Voir les Notes techniques pour une explication des Systèmes de commerce.,TF,Arrivals of non-resident tourists at national borders.,Arrivées de touristes non résidents aux frontières nationales.
,,,Area,185,Y,,Cook Islands-Niue,Cook Islands-Niue,Iles Cook-Nioué,,,,AUD,Australian dollar (AUD),dollar australien (AUD),N,-1,N,,,,,,,,,,,,,,,,,,,,,,,,
13,Central America,Amérique centrale,Area,188,Y,CRI,Costa Rica,Costa Rica,Costa Rica,20861,San José,San José,CRC,Costa Rican Colon (CRC),colon costaricien (CRC),Y,2,Y,840,United States,États-Unis,840,United States,États-Unis,56,Belgium,Belgique,156,China,Chine,528,Netherlands,Pays-Bas,484,Mexico,Mexique,S,The special trade system. See the technical notes for an explanation of the trade systems.,Le système du commerce spécial. Voir les Notes techniques pour une explication des Systèmes de commerce.,TF,Arrivals of non-resident tourists at national borders.,Arrivées de touristes non résidents aux frontières nationales.
,,,Group,190,Y,,Council for Mutual Economic Assistance (CMEA),Country Programmes,"Programmes, pays",,,,,,,N,2,N,,,,,,,,,,,,,,,,,,,,,,,,
39,Southern Europe,Europe méridionale,Area,191,Y,HRV,Croatia,Croatia,Croatie,20865,Zagreb,Zagreb,HRK,Kuna (HRK),kuna (HRK),Y,2,Y,380,Italy,Italie,276,Germany,Allemagne,276,Germany,Allemagne,380,Italy,Italie,705,Slovenia,Slovénie,705,Slovenia,Slovénie,G,The general trade system. See the technical notes for an explanation of the trade systems.,Le système du commerce général. Voir les Notes techniques pour une explication des Systèmes de commerce.,TCE,Arrivals of non-resident tourists in all types of tourism accommodation establishments.,Arrivées de touristes non résidents dans tous les types d'établissements d'hébergement touristique.
29,Caribbean,Caraïbes,Area,192,Y,CUB,Cuba,Cuba,Cuba,20870,Havana,La Havane,CUP,Cuban Peso (CUP),peso cubain (CUP),Y,2,Y,156,China,Chine,156,China,Chine,124,Canada,Canada,724,Spain,Espagne,724,Spain,Espagne,484,Mexico,Mexique,S,The special trade system. See the technical notes for an explanation of the trade systems.,Le système du commerce spécial. Voir les Notes techniques pour une explication des Systèmes de commerce.,TF,Arrivals of non-resident tourists at national borders.,Arrivées de touristes non résidents aux frontières nationales.
145,Western Asia,Asie occidentale,Area,196,Y,CYP,Cyprus,Cyprus,Chypre,20880,Nicosia,Nicosie,EUR,Euro (EUR),euro (EUR),Y,2,Y,434,Libya,Libye,300,Greece,Grèce,837,Bunkers,Com. de soute,380,Italy,Italie,300,Greece,Grèce,156,China,Chine,G,The general trade system. See the technical notes for an explanation of the trade systems.,Le système du commerce général. Voir les Notes techniques pour une explication des Systèmes de commerce.,TF,Arrivals of non-resident tourists at national borders.,Arrivées de touristes non résidents aux frontières nationales.
,,,Group,197,Y,,European Free Trade Association (EFTA),EFTA§,AELE§,,,,,,,Y,2,Y,,,,,,,,,,,,,,,,,,,,,,,,
,,,Group,198,Y,,Organisation for Economic Co-operation and Development (OECD),OECD§,OCDE§,,,,,,,Y,2,Y,,,,,,,,,,,,,,,,,,,,,,,,
,,,Group,199,Y,,Least developed countries (LDCs),LDC§,PMA§,,,,,,,Y,2,Y,,,,,,,,,,,,,,,,,,,,,,,,
41,Eastern Europe [former],Europe orientale [anc.],Area,200,Y,CSK,Czechoslovakia [former],Czechoslovakia [former],Tchécoslovaquie [anc.],,,,CSK,Koruna (CSK),couronne (CSK),N,2,Y,,,,,,,,,,,,,,,,,,,,,,,,
,,,Group,201,Y,,Most seriously affected countries,Most Seriously Affected C,Pays le plus gravement to,,,,,,,N,1,N,,,,,,,,,,,,,,,,,,,,,,,,
2,Africa,Afrique,Region,202,Y,,Sub-Saharan Africa,Sub-Saharan Africa,Afrique subsaharienne,,,,,,,Y,1.5,Y,,,,,,,,,,,,,,,,,,,,,,,,
151,Eastern Europe,Europe orientale,Area,203,Y,CZE,Czechia,Czechia,Tchéquie,20887,Prague,Prague,CZK,Czech Koruna (CZK),couronne tchèque (CZK),Y,2,Y,276,Germany,Allemagne,276,Germany,Allemagne,703,Slovakia,Slovaquie,156,China,Chine,616,Poland,Pologne,616,Poland,Pologne,S,The special trade system. See the technical notes for an explanation of the trade systems.,Le système du commerce spécial. Voir les Notes techniques pour une explication des Systèmes de commerce.,TF,Arrivals of non-resident tourists at national borders.,Arrivées de touristes non résidents aux frontières nationales.
11,Western Africa,Afrique occidentale,Area,204,Y,BEN,Benin,Benin,Bénin,20891,Porto-Novo,Porto-Novo,XOF,"CFA Franc, BCEAO (XOF)","franc CFA, BCEAO (XOF)",Y,2,Y,704,Viet Nam,Viet Nam,356,India,Inde,50,Bangladesh,Bangladesh,764,Thailand,Thaïlande,458,Malaysia,Malaisie,156,China,Chine,S,The special trade system. See the technical notes for an explanation of the trade systems.,Le système du commerce spécial. Voir les Notes techniques pour une explication des Systèmes de commerce.,TF,Arrivals of non-resident tourists at national borders.,Arrivées de touristes non résidents aux frontières nationales.
154,Northern Europe,Europe septentrionale,Area,208,Y,DNK,Denmark,Denmark,Danemark,20894,Copenhagen,Copenhague,DKK,Danish Krone (DKK),couronne danoise (DKK),Y,2,Y,839,Undisclosed,Non divulgués,276,Germany,Allemagne,276,Germany,Allemagne,752,Sweden,Suède,752,Sweden,Suède,528,Netherlands,Pays-Bas,S,The special trade system. See the technical notes for an explanation of the trade systems.,Le système du commerce spécial. Voir les Notes techniques pour une explication des Systèmes de commerce.,TCE,Arrivals of non-resident tourists in all types of tourism accommodation establishments.,Arrivées de touristes non résidents dans tous les types d'établissements d'hébergement touristique.
,,,Area,209,Y,,Denmark-Greenland-Faroe Islands,[use code 208 and footnote],[use code 208 and footnote],,,,,,,N,-1,N,,,,,,,,,,,,,,,,,,,,,,,,
29,Caribbean,Caraïbes,Area,212,Y,DMA,Dominica,Dominica,Dominique,20896,Roseau,Roseau,XCD,E. Caribbean Dollar (XCD),dollar des Caraïb. (XCD),Y,2,Y,360,Indonesia,Indonésie,840,United States,États-Unis,682,Saudi Arabia,Arabie saoudite,156,China,Chine,112,Belarus,Bélarus,484,Mexico,Mexique,S,The special trade system. See the technical notes for an explanation of the trade systems.,Le système du commerce spécial. Voir les Notes techniques pour une explication des Systèmes de commerce.,TF,Arrivals of non-resident tourists at national borders.,Arrivées de touristes non résidents aux frontières nationales.
29,Caribbean,Caraïbes,Area,214,Y,DOM,Dominican Republic,Dominican Republic,République dominicaine,20898,Santo Domingo,Saint-Domingue,DOP,Dominican Peso (DOP),peso dominicain (DOP),Y,2,Y,840,United States,États-Unis,840,United States,États-Unis,332,Haiti,Haïti,156,China,Chine,124,Canada,Canada,484,Mexico,Mexique,G,The general trade system. See the technical notes for an explanation of the trade systems.,Le système du commerce général. Voir les Notes techniques pour une explication des Systèmes de commerce.,TF,Arrivals of non-resident tourists at national borders.,Arrivées de touristes non résidents aux frontières nationales.
10,Antarctica,Antarctique,Area,216,Y,ATN,Dronning Maud Land [former],Dronning Maud Land [former],Terre de la Reine-Maud [anc.],,,,NOK,Norwegian Krone (NOK),couronne norvégienne (NOK),N,2,Y,,,,,,,,,,,,,,,,,,,,,,,,
,,,Group,217,Y,,East African Community (EAC),EAC,CAE,,,,,,,N,2,N,,,,,,,,,,,,,,,,,,,,,,,,
5,South America,Amérique du Sud,Area,218,Y,ECU,Ecuador,Ecuador,Équateur,20910,Quito,Quito,USD,US Dollar (USD),dollar des É.-U. (USD),Y,2,Y,840,United States,États-Unis,840,United States,États-Unis,604,Peru,Pérou,156,China,Chine,156,China,Chine,170,Colombia,Colombie,G,The general trade system. See the technical notes for an explanation of the trade systems.,Le système du commerce général. Voir les Notes techniques pour une explication des Systèmes de commerce.,VF,Arrivals of non-resident visitors at national borders.,Arrivées de visiteurs non résidents aux frontières nationales.
,,,Region,219,Y,,Eastern Africa not elsewhere specified,Eastern Africa n.e.s,Afrique orientale n.s.a,,,,,,,N,3,N,,,,,,,,,,,,,,,,,,,,,,,,
,,,Region,220,Y,,Eastern Asia not elsewhere specified,Eastern Asia n.e.s,"Asie orientale, n.s.a",,,,,,,Y,3,Y,,,,,,,,,,,,,,,,,,,,,,,,
,,,Region,221,Y,,Eastern Europe not elsewhere specified,Eastern Europe n.e.s,"Europe orientale, n.s.a",,,,,,,Y,3,Y,,,,,,,,,,,,,,,,,,,,,,,,
13,Central America,Amérique centrale,Area,222,Y,SLV,El Salvador,El Salvador,El Salvador,20917,San Salvador,San Salvador,USD,US Dollar (USD),dollar des É.-U. (USD),Y,2,Y,840,United States,États-Unis,840,United States,États-Unis,340,Honduras,Honduras,156,China,Chine,320,Guatemala,Guatemala,320,Guatemala,Guatemala,S,The special trade system. See the technical notes for an explanation of the trade systems.,Le système du commerce spécial. Voir les Notes techniques pour une explication des Systèmes de commerce.,TF,Arrivals of non-resident tourists at national borders.,Arrivées de touristes non résidents aux frontières nationales.
,,,Group,223,Y,,Eastern Asia (exc. Japan and China),[use code 30 and footnote],[use code 30 and footnote],,,,,,,Y,1,N,,,,,,,,,,,,,,,,,,,,,,,,
,,,Agency,224,N,,European Patent Office (EPO),EPO,OEB,,,,,,,N,1,N,,,,,,,,,,,,,,,,,,,,,,,,
,,,Agency,225,N,,Eurasian Patent Organization (EAPO),EAPO,EAPO,,,,,,,N,1,N,,,,,,,,,,,,,,,,,,,,,,,,
17,Middle Africa,Afrique centrale,Area,226,Y,GNQ,Equatorial Guinea,Equatorial Guinea,Guinée équatoriale,20920,Malabo,Malabo,XAF,"CFA Franc, BEAC (XAF)","franc CFA, BEAC (XAF)",Y,2,Y,156,China,Chine,724,Spain,Espagne,356,India,Inde,156,China,Chine,620,Portugal,Portugal,840,United States,États-Unis,G,The general trade system. See the technical notes for an explanation of the trade systems.,Le système du commerce général. Voir les Notes techniques pour une explication des Systèmes de commerce.,,,
,,,Area,227,Y,,Equatorial Guinea (Rio Muni),Rio Muni,Rio Muni,,,,GQE,Ekwele (GQE),epkwele (GQE),N,3,N,,,,,,,,,,,,,,,,,,,,,,,,
,,,Area,228,Y,,"Equatorial Guinea (Macias Nguema Biyogo, Bioko)",Bioko,Macias Nguema Biyogo,,,,GQE,Ekwele (GQE),epkwele (GQE),N,3,N,,,,,,,,,,,,,,,,,,,,,,,,
14,Eastern Africa,Afrique orientale,Area,230,Y,XETH,Ethiopia [former],Ethiopia [former],Ethiopie [anc.],,,,ETB,Ethiopian Birr (ETB),birr éthiopien (ETB),N,2,Y,,,,,,,,,,,,,,,,,,,,,,,,
14,Eastern Africa,Afrique orientale,Area,231,Y,ETH,Ethiopia,Ethiopia,Éthiopie,20921,Addis Ababa,Addis-Abeba,ETB,Ethiopian Birr (ETB),birr éthiopien (ETB),Y,2,Y,840,United States,États-Unis,156,China,Chine,682,Saudi Arabia,Arabie saoudite,840,United States,États-Unis,276,Germany,Allemagne,356,India,Inde,G,The general trade system. See the technical notes for an explanation of the trade systems.,Le système du commerce général. Voir les Notes techniques pour une explication des Systèmes de commerce.,TF,Arrivals of non-resident tourists at national borders.,Arrivées de touristes non résidents aux frontières nationales.
14,Eastern Africa,Afrique orientale,Area,232,Y,ERI,Eritrea,Eritrea,Érythrée,20931,Asmara,Asmara,ERN,Nakfa (ERN),nakfa (ERN),Y,2,Y,156,China,Chine,818,Egypt,Égypte,410,Rep. of Korea,République de Corée,156,China,Chine,784,United Arab Emirates,Émirats arabes unis,380,Italy,Italie,G,The general trade system. See the technical notes for an explanation of the trade systems.,Le système du commerce général. Voir les Notes techniques pour une explication des Systèmes de commerce.,VF,Arrivals of non-resident visitors at national borders.,Arrivées de visiteurs non résidents aux frontières nationales.
154,Northern Europe,Europe septentrionale,Area,233,Y,EST,Estonia,Estonia,Estonie,20932,Tallinn,Tallin,EUR,Euro (EUR),euro (EUR),Y,2,Y,246,Finland,Finlande,276,Germany,Allemagne,752,Sweden,Suède,643,Russian Federation,Fédération de Russie,428,Latvia,Lettonie,246,Finland,Finlande,S,The special trade system. See the technical notes for an explanation of the trade systems.,Le système du commerce spécial. Voir les Notes techniques pour une explication des Systèmes de commerce.,TF,Arrivals of non-resident tourists at national borders.,Arrivées de touristes non résidents aux frontières nationales.
154,Northern Europe,Europe septentrionale,Area,234,Y,FRO,Faroe Islands,Faroe Islands,Îles Féroé,20934,Tórshavn,Tórshavn,DKK,Danish Krone (DKK),couronne danoise (DKK),Y,2,Y,643,Russian Federation,Fédération de Russie,208,Denmark,Danemark,826,United Kingdom,Royaume-Uni,578,Norway,Norvège,208,Denmark,Danemark,276,Germany,Allemagne,G,The general trade system. See the technical notes for an explanation of the trade systems.,Le système du commerce général. Voir les Notes techniques pour une explication des Systèmes de commerce.,,,
5,South America,Amérique du Sud,Area,238,Y,FLK,Falkland Islands (Malvinas),Falkland Islands (Malvinas),Îles Falkland (Malvinas),20935,Stanley,Stanley,FKP,Falkland Islands Pound (FKP),livre de Îles Falkland (FKP),Y,2,Y,724,Spain,Espagne,826,United Kingdom,Royaume-Uni,840,United States,États-Unis,724,Spain,Espagne,516,Namibia,Namibie,528,Netherlands,Pays-Bas,G,The general trade system. See the technical notes for an explanation of the trade systems.,Le système du commerce général. Voir les Notes techniques pour une explication des Systèmes de commerce.,,,
5,South America,Amérique du Sud,Area,239,Y,SGS,South Georgia and the South Sandwich Islands,South Georgia & Sandwich Is.,Géorgie du S.-Îles Sandwich,,,,GBP,Pound Sterling (GBP),livre sterling (GBP),Y,2,Y,,,,,,,,,,,,,,,,,,,,,,,,
,,,Agency,240,Y,,Food and Agriculture Organization (FAO),Food and Agriculture Orga,Organisation des Nations,,,,,,,N,1,N,,,,,,,,,,,,,,,,,,,,,,,,
,,,Agency,241,Y,,International Fund for Agricultural Development (IFAD),International Fund for Ag,Fonds international de dé,,,,,,,N,1,N,,,,,,,,,,,,,,,,,,,,,,,,
54,Melanesia,Mélanésie,Area,242,Y,FJI,Fiji,Fiji,Fidji,20936,Suva,Suva,FJD,Fiji Dollar (FJD),dollar des Fidji (FJD),Y,2,Y,840,United States,États-Unis,702,Singapore,Singapour,36,Australia,Australie,156,China,Chine,837,Bunkers,Com. de soute,36,Australia,Australie,G,The general trade system. See the technical notes for an explanation of the trade systems.,Le système du commerce général. Voir les Notes techniques pour une explication des Systèmes de commerce.,TF,Arrivals of non-resident tourists at national borders.,Arrivées de touristes non résidents aux frontières nationales.
154,Northern Europe,Europe septentrionale,Area,246,Y,FIN,Finland,Finland,Finlande,20937,Helsinki,Helsinki,EUR,Euro (EUR),euro (EUR),Y,2,Y,276,Germany,Allemagne,276,Germany,Allemagne,752,Sweden,Suède,643,Russian Federation,Fédération de Russie,528,Netherlands,Pays-Bas,752,Sweden,Suède,G,The general trade system. See the technical notes for an explanation of the trade systems.,Le système du commerce général. Voir les Notes techniques pour une explication des Systèmes de commerce.,TCE,Arrivals of non-resident tourists in all types of tourism accommodation establishments.,Arrivées de touristes non résidents dans tous les types d'établissements d'hébergement touristique.
154,Northern Europe,Europe septentrionale,Area,248,Y,ALA,Åland Islands,Åland Islands,Îles d’Åland,,,,EUR,Euro (EUR),euro (EUR),Y,2,Y,,,,,,,,,,,,,,,,,,,,,,,,
155,Western Europe,Europe occidentale,Area,249,Y,FXX,"France, Metropolitan [former]","France, Metropolitan","France, Métropolitaine",,,,,,,N,2,Y,,,,,,,,,,,,,,,,,,,,,,,,
155,Western Europe,Europe occidentale,Area,250,Y,FRA,France,France,France,20985,Paris,Paris,EUR,Euro (EUR),euro (EUR),Y,2,Y,276,Germany,Allemagne,276,Germany,Allemagne,724,Spain,Espagne,156,China,Chine,380,Italy,Italie,380,Italy,Italie,S,The special trade system. See the technical notes for an explanation of the trade systems.,Le système du commerce spécial. Voir les Notes techniques pour une explication des Systèmes de commerce.,TF,Arrivals of non-resident tourists at national borders.,Arrivées de touristes non résidents aux frontières nationales.
155,Western Europe,Europe occidentale,Area,251,Y,,France-Monaco,[use code 250 and footnote],[use code 250 and footnote],,,,,,,N,-1,Y,,,,,,,,,,,,,,,,,,,,,,,,
,,,Area,252,Y,,France-Switzerland,France-Switzerland,France-Suisse,,,,,,,N,-1,N,,,,,,,,,,,,,,,,,,,,,,,,
,,,Area,253,Y,,French Antilles [former],French Antilles,Antilles françaises,,,,EUR,Euro (EUR),euro (EUR),N,-1,N,,,,,,,,,,,,,,,,,,,,,,,,
5,South America,Amérique du Sud,Area,254,Y,GUF,French Guiana,French Guiana,Guyane française,21002,Cayenne,Cayenne,EUR,Euro (EUR),euro (EUR),Y,2,Y,,,,,,,,,,,,,,,,,,,S,The special trade system. See the technical notes for an explanation of the trade systems.,Le système du commerce spécial. Voir les Notes techniques pour une explication des Systèmes de commerce.,TF,Arrivals of non-resident tourists at national borders.,Arrivées de touristes non résidents aux frontières nationales.
61,Polynesia,Polynésie,Area,258,Y,PYF,French Polynesia,French Polynesia,Polynésie française,21004,Papeete,Papeete,XPF,CFP Franc (XPF),franc CFP (XPF),Y,2,Y,392,Japan,Japon,250,France,France,840,United States,États-Unis,554,New Zealand,Nouvelle-Zélande,250,France,France,840,United States,États-Unis,S,The special trade system. See the technical notes for an explanation of the trade systems.,Le système du commerce spécial. Voir les Notes techniques pour une explication des Systèmes de commerce.,TF,Arrivals of non-resident tourists at national borders.,Arrivées de touristes non résidents aux frontières nationales.
14,Eastern Africa,Afrique orientale,Area,260,Y,ATF,French Southern Territories,French Southern Territories,Terres australes françaises,,,,EUR,Euro (EUR),euro (EUR),Y,2,Y,,,,,,,,,,,,,,,,,,,,,,,,
14,Eastern Africa,Afrique orientale,Area,262,Y,DJI,Djibouti,Djibouti,Djibouti,21005,Djibouti,Djibouti,DJF,Djibouti Franc (DJF),franc Djibouti (DJF),Y,2,Y,840,United States,États-Unis,156,China,Chine,682,Saudi Arabia,Arabie saoudite,356,India,Inde,784,United Arab Emirates,Émirats arabes unis,682,Saudi Arabia,Arabie saoudite,G,The general trade system. See the technical notes for an explanation of the trade systems.,Le système du commerce général. Voir les Notes techniques pour une explication des Systèmes de commerce.,THS,Arrivals of non-resident tourists in hotels and similar establishments.,Arrivées de touristes non résidents dans les hôtels et établissements similaires.
,,,Group,263,Y,,French Equatorial Africa [former],French Equatorial Africa [former],Afrique équatorial française [anc.],,,,,,,N,1,N,,,,,,,,,,,,,,,,,,,,,,,,
,,,Group,265,Y,,French Indo-China [former],French Indo-China [former],Indochine française [anc.],,,,,,,N,1,N,,,,,,,,,,,,,,,,,,,,,,,,
17,Middle Africa,Afrique centrale,Area,266,Y,GAB,Gabon,Gabon,Gabon,21006,Libreville,Libreville,XAF,"CFA Franc, BEAC (XAF)","franc CFA, BEAC (XAF)",Y,2,Y,156,China,Chine,250,France,France,36,Australia,Australie,156,China,Chine,458,Malaysia,Malaisie,422,Lebanon,Liban,S,The special trade system. See the technical notes for an explanation of the trade systems.,Le système du commerce spécial. Voir les Notes techniques pour une explication des Systèmes de commerce.,TF,Arrivals of non-resident tourists at national borders.,Arrivées de touristes non résidents aux frontières nationales.
,,,Group,267,Y,,French West Africa [former],French West Africa [former],Afrique occidental française [anc.],,,,,,,N,1,N,,,,,,,,,,,,,,,,,,,,,,,,
145,Western Asia,Asie occidentale,Area,268,Y,GEO,Georgia,Georgia,Géorgie,21011,Tbilisi,Tbilissi,GEL,Lari (GEL),lari (GEL),Y,2,Y,31,Azerbaijan,Azerbaïdjan,792,Turkey,Turquie,643,Russian Federation,Fédération de Russie,643,Russian Federation,Fédération de Russie,51,Armenia,Arménie,156,China,Chine,G,The general trade system. See the technical notes for an explanation of the trade systems.,Le système du commerce général. Voir les Notes techniques pour une explication des Systèmes de commerce.,TF,Arrivals of non-resident tourists at national borders.,Arrivées de touristes non résidents aux frontières nationales.
11,Western Africa,Afrique occidentale,Area,270,Y,GMB,Gambia,Gambia,Gambie,21012,Banjul,Banjul,GMD,Dalasi (GMD),dalasi (GMD),Y,2,Y,704,Viet Nam,Viet Nam,384,Côte d'Ivoire,Côte d'Ivoire,466,Mali,Mali,686,Senegal,Sénégal,624,Guinea-Bissau,Guinée-Bissau,156,China,Chine,G,The general trade system. See the technical notes for an explanation of the trade systems.,Le système du commerce général. Voir les Notes techniques pour une explication des Systèmes de commerce.,TF,Arrivals of non-resident tourists at national borders.,Arrivées de touristes non résidents aux frontières nationales.
,,,Agency,272,Y,,General Agreement on Tariffs and Trade (GATT),General Agreement on Tari,Accord Général sur les Ta,,,,,,,N,1,N,,,,,,,,,,,,,,,,,,,,,,,,
,,,Agency,273,Y,,Palestine Liberation Organization (PLO),Palestine Liberation Orga,Organisation de libératio,,,,,,,N,1,N,,,,,,,,,,,,,,,,,,,,,,,,
37,Western Asia [former],Asie occidentale [anc.],Area,274,Y,,State of Palestine (Gaza Strip),Gaza Strip,Zone de Gaza,,,,,,,N,2,Y,,,,,,,,,,,,,,,,,,,,,,,,
145,Western Asia,Asie occidentale,Area,275,Y,PSE,State of Palestine,State of Palestine,État de Palestine,23562,East Jerusalem,Jérusalem-Est,,,,Y,2,Y,376,Israel,Israël,376,Israel,Israël,400,Jordan,Jordanie,792,Turkey,Turquie,784,United Arab Emirates,Émirats arabes unis,156,China,Chine,S,The special trade system. See the technical notes for an explanation of the trade systems.,Le système du commerce spécial. Voir les Notes techniques pour une explication des Systèmes de commerce.,THS,Arrivals of non-resident tourists in hotels and similar establishments.,Arrivées de touristes non résidents dans les hôtels et établissements similaires.
155,Western Europe,Europe occidentale,Area,276,Y,DEU,Germany,Germany,Allemagne,204296,Berlin,Berlin,EUR,Euro (EUR),euro (EUR),Y,2,Y,840,United States,États-Unis,156,China,Chine,250,France,France,528,Netherlands,Pays-Bas,156,China,Chine,250,France,France,S,The special trade system. See the technical notes for an explanation of the trade systems.,Le système du commerce spécial. Voir les Notes techniques pour une explication des Systèmes de commerce.,TCE,Arrivals of non-resident tourists in all types of tourism accommodation establishments.,Arrivées de touristes non résidents dans tous les types d'établissements d'hébergement touristique.
41,Eastern Europe [former],Europe orientale [anc.],Area,278,Y,DDR,German Democratic Republic [former],German Dem. Rep. [former],"Allemande, Rép. dém. [anc.]",,,,DDM,Mark der DDR (DDM),deutsche mark (DDM),N,2,Y,,,,,,,,,,,,,,,,,,,,,,,,
38,Western Europe [former],Europe occidentale [anc.],Area,280,Y,XDEU,"Germany, Federal Republic of [former]","Germany, Fed. Rep. of  [former]","Allemagne, Rép. féd. d' [anc.]",,,,DEM,Deutsche mark (DEM),deutsche mark (DEM),N,2,Y,,,,,,,,,,,,,,,,,,,,,,,,
41,Eastern Europe [former],Europe orientale [anc.],Area,282,Y,,"Germany, East Berlin [former]","Germany, East Berlin [former]","Allemagne, Berlin-Est [anc.]",,,,,,,N,2,Y,,,,,,,,,,,,,,,,,,,,,,,,
,,,Region,283,Y,,South America not elsewhere specified,South America n.e.s,Amérique du Sud n.s.a,,,,,,,N,3,N,,,,,,,,,,,,,,,,,,,,,,,,
38,Western Europe [former],Europe occidentale [anc.],Area,284,Y,,"Germany, West Berlin [former]","Germany, West Berlin [former]","Allemagne, Berlin-Ouest [anc.]",,,,,,,N,2,Y,,,,,,,,,,,,,,,,,,,,,,,,
,,,Region,285,N,,Northern Europe not elsewhere specified,Northern Europe n.e.s,Europe septentrionale n.s.a,,,,,,,,3,N,,,,,,,,,,,,,,,,,,,,,,,,
,,,Region,286,Y,,Polynesia not elsewhere specified,Polynesia n.e.s,Polynésie n.s.a,,,,,,,,3,N,,,,,,,,,,,,,,,,,,,,,,,,
,,,Region,287,Y,,Sub-Saharan Africa not elsewhere specified,,,,,,,,,,3,N,,,,,,,,,,,,,,,,,,,,,,,,
11,Western Africa,Afrique occidentale,Area,288,Y,GHA,Ghana,Ghana,Ghana,21107,Accra,Accra,GHS,Ghana Cedi (GHS),cedi ghanéen (GHS),Y,2,Y,356,India,Inde,156,China,Chine,156,China,Chine,840,United States,États-Unis,710,South Africa,Afrique du Sud,56,Belgium,Belgique,G,The general trade system. See the technical notes for an explanation of the trade systems.,Le système du commerce général. Voir les Notes techniques pour une explication des Systèmes de commerce.,TF,Arrivals of non-resident tourists at national borders.,Arrivées de touristes non résidents aux frontières nationales.
,,,Region,289,Y,,North America not elsewhere specified,North America n.e.s,Amérique du Nord n.s.a,,,,,,,N,3,N,,,,,,,,,,,,,,,,,,,,,,,,
,,,Region,290,Y,,Northern Africa not elsewhere specified,Northern Africa n.e.s,"Afrique septentrionale, n.s.a",,,,,,,Y,3,Y,,,,,,,,,,,,,,,,,,,,,,,,
,,,Region,291,Y,,Central Asia not elsewhere specified,Central Asia n.e.s,Asie centrale n.s.a,,,,,,,,3,N,,,,,,,,,,,,,,,,,,,,,,,,
39,Southern Europe,Europe méridionale,Area,292,Y,GIB,Gibraltar,Gibraltar,Gibraltar,21111,Gibraltar,Gibraltar,GIP,Gibraltar Pound (GIP),livre de Gibraltar (GIP),Y,2,Y,478,Mauritania,Mauritanie,899,Areas nes,Zones nsa,276,Germany,Allemagne,528,Netherlands,Pays-Bas,528,Netherlands,Pays-Bas,826,United Kingdom,Royaume-Uni,,,,,,
,,,Region,293,Y,,Northern America not elsewhere specified,Northern America n.e.s,Amérique septentrionale n.s.a,,,,,,,,3,N,,,,,,,,,,,,,,,,,,,,,,,,
,,,Group,295,Y,,Economic Community of the Great Lakes Countries (ECGLC),ECGLC,Communauté économique des,,,,,,,N,2,N,,,,,,,,,,,,,,,,,,,,,,,,
57,Micronesia,Micronésie,Area,296,Y,KIR,Kiribati,Kiribati,Kiribati,21112,Bairiki,Bairiki,AUD,Australian Dollar (AUD),dollar australien (AUD),Y,2,Y,458,Malaysia,Malaisie,36,Australia,Australie,840,United States,États-Unis,242,Fiji,Fidji,242,Fiji,Fidji,156,China,Chine,G,The general trade system. See the technical notes for an explanation of the trade systems.,Le système du commerce général. Voir les Notes techniques pour une explication des Systèmes de commerce.,TF,Arrivals of non-resident tourists at national borders.,Arrivées de touristes non résidents aux frontières nationales.
,,,Area,297,Y,,Kiribati (exc. Canton and Enderbury Islands) [former],Kiribati,Kiribati,,,,,,,N,-1,N,,,,,,,,,,,,,,,,,,,,,,,,
39,Southern Europe,Europe méridionale,Area,300,Y,GRC,Greece,Greece,Grèce,21113,Athens,Athènes,EUR,Euro (EUR),euro (EUR),Y,2,Y,380,Italy,Italie,276,Germany,Allemagne,276,Germany,Allemagne,368,Iraq,Iraq,792,Turkey,Turquie,643,Russian Federation,Fédération de Russie,S,The special trade system. See the technical notes for an explanation of the trade systems.,Le système du commerce spécial. Voir les Notes techniques pour une explication des Systèmes de commerce.,TF,Arrivals of non-resident tourists at national borders.,Arrivées de touristes non résidents aux frontières nationales.
21,Northern America,Amérique septentrionale,Area,304,Y,GRL,Greenland,Greenland,Groenland,21119,Nuuk,Nuuk,DKK,Danish Krone (DKK),couronne danoise (DKK),Y,2,Y,208,Denmark,Danemark,208,Denmark,Danemark,620,Portugal,Portugal,752,Sweden,Suède,899,Areas nes,Zones nsa,156,China,Chine,G,The general trade system. See the technical notes for an explanation of the trade systems.,Le système du commerce général. Voir les Notes techniques pour une explication des Systèmes de commerce.,,,
29,Caribbean,Caraïbes,Area,308,Y,GRD,Grenada,Grenada,Grenade,21120,Saint George's,Saint-Georges,XCD,E. Caribbean Dollar (XCD),dollar des Caraïb. (XCD),Y,2,Y,840,United States,États-Unis,840,United States,États-Unis,276,Germany,Allemagne,826,United Kingdom,Royaume-Uni,662,Saint Lucia,Sainte-Lucie,156,China,Chine,S,The special trade system. See the technical notes for an explanation of the trade systems.,Le système du commerce spécial. Voir les Notes techniques pour une explication des Systèmes de commerce.,TF,Arrivals of non-resident tourists at national borders.,Arrivées de touristes non résidents aux frontières nationales.
,,,Group,310,Y,,Group of 77 (G77),G77,G77,,,,,,,N,2,N,,,,,,,,,,,,,,,,,,,,,,,,
29,Caribbean,Caraïbes,Area,312,Y,GLP,Guadeloupe,Guadeloupe,Guadeloupe,21121,Basse-Terre,Basse-Terre,EUR,Euro (EUR),euro (EUR),Y,2,Y,,,,,,,,,,,,,,,,,,,S,The special trade system. See the technical notes for an explanation of the trade systems.,Le système du commerce spécial. Voir les Notes techniques pour une explication des Systèmes de commerce.,TF,Arrivals of non-resident tourists at national borders.,Arrivées de touristes non résidents aux frontières nationales.
57,Micronesia,Micronésie,Area,316,Y,GUM,Guam,Guam,Guam,21123,Hagåtña,Hagåtña,USD,US Dollar (USD),dollar des É.-U. (USD),Y,2,Y,,,,,,,,,,,,,,,,,,,G,The general trade system. See the technical notes for an explanation of the trade systems.,Le système du commerce général. Voir les Notes techniques pour une explication des Systèmes de commerce.,TF,Arrivals of non-resident tourists at national borders.,Arrivées de touristes non résidents aux frontières nationales.
13,Central America,Amérique centrale,Area,320,Y,GTM,Guatemala,Guatemala,Guatemala,21124,Guatemala City,Guatemala,GTQ,Quetzal (GTQ),quetzal (GTQ),Y,2,Y,840,United States,États-Unis,840,United States,États-Unis,222,El Salvador,El Salvador,156,China,Chine,340,Honduras,Honduras,484,Mexico,Mexique,S,The special trade system. See the technical notes for an explanation of the trade systems.,Le système du commerce spécial. Voir les Notes techniques pour une explication des Systèmes de commerce.,TF,Arrivals of non-resident tourists at national borders.,Arrivées de touristes non résidents aux frontières nationales.
11,Western Africa,Afrique occidentale,Area,324,Y,GIN,Guinea,Guinea,Guinée,21126,Conakry,Conakry,GNF,Guinean Franc (GNF),franc guinéen (GNF),Y,2,Y,156,China,Chine,156,China,Chine,784,United Arab Emirates,Émirats arabes unis,528,Netherlands,Pays-Bas,356,India,Inde,356,India,Inde,S,The special trade system. See the technical notes for an explanation of the trade systems.,Le système du commerce spécial. Voir les Notes techniques pour une explication des Systèmes de commerce.,TF,Arrivals of non-resident tourists at national borders.,Arrivées de touristes non résidents aux frontières nationales.
,,,Group,325,N,,Cooperation Council for the Arab States of the Gulf (GCC),GCC,CCG,,,,,,,N,2,N,,,,,,,,,,,,,,,,,,,,,,,,
5,South America,Amérique du Sud,Area,328,Y,GUY,Guyana,Guyana,Guyana,21131,Georgetown,Georgetown,GYD,Guyana Dollar (GYD),dollar guyanien (GYD),Y,2,Y,124,Canada,Canada,840,United States,États-Unis,840,United States,États-Unis,780,Trinidad and Tobago,Trinité-et-Tobago,591,Panama,Panama,156,China,Chine,S,The special trade system. See the technical notes for an explanation of the trade systems.,Le système du commerce spécial. Voir les Notes techniques pour une explication des Systèmes de commerce.,TF,Arrivals of non-resident tourists at national borders.,Arrivées de touristes non résidents aux frontières nationales.
29,Caribbean,Caraïbes,Area,332,Y,HTI,Haiti,Haiti,Haïti,21133,Port-au-Prince,Port-au-Prince,HTG,Gourde (HTG),gourde (HTG),Y,2,Y,840,United States,États-Unis,840,United States,États-Unis,214,Dominican Rep.,République dominicaine,214,Dominican Rep.,République dominicaine,124,Canada,Canada,156,China,Chine,G,The general trade system. See the technical notes for an explanation of the trade systems.,Le système du commerce général. Voir les Notes techniques pour une explication des Systèmes de commerce.,TF,Arrivals of non-resident tourists at national borders.,Arrivées de touristes non résidents aux frontières nationales.
53,Oceania,Océanie,Area,334,Y,HMD,Heard Island and McDonald Islands,Heard Is. and McDonald Is.,Île Heard-et-Îles MacDonald,,,,AUD,Australian Dollar (AUD),dollar australien (AUD),Y,2,Y,,,,,,,,,,,,,,,,,,,,,,,,
39,Southern Europe,Europe méridionale,Area,336,Y,VAT,Holy See,Holy See,Saint-Siège,21134,Vatican City,Cité du Vatican,EUR,Euro (EUR),euro (EUR),Y,2,Y,,,,,,,,,,,,,,,,,,,,,,,,
13,Central America,Amérique centrale,Area,340,Y,HND,Honduras,Honduras,Honduras,21136,Tegucigalpa,Tegucigalpa,HNL,Lempira (HNL),lempira (HNL),Y,2,Y,840,United States,États-Unis,840,United States,États-Unis,276,Germany,Allemagne,156,China,Chine,56,Belgium,Belgique,320,Guatemala,Guatemala,S,The special trade system. See the technical notes for an explanation of the trade systems.,Le système du commerce spécial. Voir les Notes techniques pour une explication des Systèmes de commerce.,TF,Arrivals of non-resident tourists at national borders.,Arrivées de touristes non résidents aux frontières nationales.
30,Eastern Asia,Asie orientale,Area,344,Y,HKG,"China, Hong Kong Special Administrative Region","China, Hong Kong SAR","Chine, RAS de Hong Kong",21137,Hong Kong,Hong Kong,HKD,Hong Kong Dollar (HKD),dollar de Hong Kong (HKD),Y,2,Y,156,China,Chine,156,China,Chine,840,United States,États-Unis,490,Asia nes,Asie nsa,356,India,Inde,702,Singapore,Singapour,G,The general trade system. See the technical notes for an explanation of the trade systems.,Le système du commerce général. Voir les Notes techniques pour une explication des Systèmes de commerce.,TF,Arrivals of non-resident tourists at national borders.,Arrivées de touristes non résidents aux frontières nationales.
151,Eastern Europe,Europe orientale,Area,348,Y,HUN,Hungary,Hungary,Hongrie,21138,Budapest,Budapest,HUF,Forint (HUF),forint (HUF),Y,2,Y,276,Germany,Allemagne,276,Germany,Allemagne,642,Romania,Roumanie,40,Austria,Autriche,380,Italy,Italie,616,Poland,Pologne,S,The special trade system. See the technical notes for an explanation of the trade systems.,Le système du commerce spécial. Voir les Notes techniques pour une explication des Systèmes de commerce.,TF,Arrivals of non-resident tourists at national borders.,Arrivées de touristes non résidents aux frontières nationales.
,,,Agency,349,Y,,International Atomic Energy Agency (IAEA),International Atomic Ener,Agence internationale de,,,,,,,N,1,N,,,,,,,,,,,,,,,,,,,,,,,,
,,,Agency,350,Y,,International Bank for Reconstruction and Development (IBRD),International Bank for Re,Banque internationale pou,,,,,,,N,1,N,,,,,,,,,,,,,,,,,,,,,,,,
,,,Agency,351,Y,,International Civil Aviation Organization (ICAO),International Civil Aviat,Organisation de l'aviatio,,,,,,,N,1,N,,,,,,,,,,,,,,,,,,,,,,,,
154,Northern Europe,Europe septentrionale,Area,352,Y,ISL,Iceland,Iceland,Islande,21147,Reykjavik,Reykjavik,ISK,Iceland Krona (ISK),couronne islandaise (ISK),Y,2,Y,528,Netherlands,Pays-Bas,578,Norway,Norvège,826,United Kingdom,Royaume-Uni,156,China,Chine,724,Spain,Espagne,276,Germany,Allemagne,G,The general trade system. See the technical notes for an explanation of the trade systems.,Le système du commerce général. Voir les Notes techniques pour une explication des Systèmes de commerce.,TF,Arrivals of non-resident tourists at national borders.,Arrivées de touristes non résidents aux frontières nationales.
,,,Agency,353,Y,,International Development Association (IDA),International Development,Association international,,,,,,,N,1,N,,,,,,,,,,,,,,,,,,,,,,,,
,,,Agency,354,Y,,International Finance Corporation (IFC),International Finance Cor,Société financière intern,,,,,,,N,1,N,,,,,,,,,,,,,,,,,,,,,,,,
,,,Agency,355,Y,,International Labour Organization (ILO),International Labour Orga,Organisation internationa,,,,,,,N,1,N,,,,,,,,,,,,,,,,,,,,,,,,
34,Southern Asia,Asie méridionale,Area,356,Y,IND,India,India,Inde,21228,New Delhi,New Delhi,INR,Indian Rupee (INR),roupie indienne (INR),Y,2,Y,840,United States,États-Unis,156,China,Chine,784,United Arab Emirates,Émirats arabes unis,840,United States,États-Unis,344,"China, Hong Kong SAR","Chine, RAS Hong Kong",784,United Arab Emirates,Émirats arabes unis,G,The general trade system. See the technical notes for an explanation of the trade systems.,Le système du commerce général. Voir les Notes techniques pour une explication des Systèmes de commerce.,TF,Arrivals of non-resident tourists at national borders.,Arrivées de touristes non résidents aux frontières nationales.
,,,Agency,357,Y,,International Labour Office (ILO) [former],ILO [former],BIT [anc.],,,,,,,N,1,N,,,,,,,,,,,,,,,,,,,,,,,,
,,,Agency,358,Y,,International Monetary Fund (IMF),International Monetary Fu,Fonds monétaire internati,,,,,,,N,1,N,,,,,,,,,,,,,,,,,,,,,,,,
,,,Agency,359,Y,,International Maritime Organization (IMO),International Maritime Or,Organisation maritime int,,,,,,,N,1,N,,,,,,,,,,,,,,,,,,,,,,,,
35,South-eastern Asia,Asie du Sud-Est,Area,360,Y,IDN,Indonesia,Indonesia,Indonésie,21454,Jakarta,Jakarta,IDR,Rupiah (IDR),rupiah (IDR),Y,2,Y,156,China,Chine,156,China,Chine,392,Japan,Japon,702,Singapore,Singapour,840,United States,États-Unis,392,Japan,Japon,S,The special trade system. See the technical notes for an explanation of the trade systems.,Le système du commerce spécial. Voir les Notes techniques pour une explication des Systèmes de commerce.,VF,Arrivals of non-resident tourists at national borders.,Arrivées de touristes non résidents aux frontières nationales.
,,,Area,361,Y,,Indonesia (exc. East Timor) [former],[use code 360 and footnote],[use code 360 and footnote],,,,IDR,Rupiah (IDR),rupiah indonésienne (IDR),N,3,N,,,,,,,,,,,,,,,,,,,,,,,,
34,Southern Asia,Asie méridionale,Area,364,Y,IRN,Iran (Islamic Republic of),Iran (Islamic Republic of),Iran (Rép. islamique d’),21523,Tehran,Téhéran,IRR,Iranian Rial (IRR),rial iranien (IRR),Y,2,Y,490,Asia nes,Asie nsa,156,China,Chine,568,Europe nes,Europe nsa,784,United Arab Emirates,Émirats arabes unis,156,China,Chine,410,Rep. of Korea,République de Corée,S,The special trade system. See the technical notes for an explanation of the trade systems.,Le système du commerce spécial. Voir les Notes techniques pour une explication des Systèmes de commerce.,VF,Arrivals of non-resident visitors at national borders.,Arrivées de visiteurs non résidents aux frontières nationales.
145,Western Asia,Asie occidentale,Area,368,Y,IRQ,Iraq,Iraq,Iraq,21529,Baghdad,Bagdad,IQD,Iraqi Dinar (IQD),dinar iraquien (IQD),Y,2,Y,899,Areas nes,Zones nsa,899,Areas nes,Zones nsa,702,Singapore,Singapour,792,Turkey,Turquie,784,United Arab Emirates,Émirats arabes unis,156,China,Chine,S,The special trade system. See the technical notes for an explanation of the trade systems.,Le système du commerce spécial. Voir les Notes techniques pour une explication des Systèmes de commerce.,VF,Arrivals of non-resident visitors at national borders.,Arrivées de visiteurs non résidents aux frontières nationales.
,,,,369,Y,,Iraq (Central Iraq),Central Iraq,,,,,,,,,,,,,,,,,,,,,,,,,,,,,,,,,,
,,,,370,Y,,Iraq (Kurdistan Region),Kurdistan Region,,,,,,,,,,,,,,,,,,,,,,,,,,,,,,,,,,
154,Northern Europe,Europe septentrionale,Area,372,Y,IRL,Ireland,Ireland,Irlande,21542,Dublin,Dublin,EUR,Euro (EUR),euro (EUR),Y,2,Y,840,United States,États-Unis,826,United Kingdom,Royaume-Uni,56,Belgium,Belgique,840,United States,États-Unis,826,United Kingdom,Royaume-Uni,250,France,France,G,The general trade system. See the technical notes for an explanation of the trade systems.,Le système du commerce général. Voir les Notes techniques pour une explication des Systèmes de commerce.,TF,Arrivals of non-resident tourists at national borders.,Arrivées de touristes non résidents aux frontières nationales.
,,,Agency,375,Y,,Organization of the Islamic Conference (OIC),Organization of the Islam,Organisation de la confér,,,,,,,N,1,N,,,,,,,,,,,,,,,,,,,,,,,,
145,Western Asia,Asie occidentale,Area,376,Y,ISR,Israel,Israel,Israël,21547,Jerusalem,Jérusalem,ILS,New Israeli Sheqel (ILS),nouv. shekel israélien (ILS),Y,2,Y,840,United States,États-Unis,156,China,Chine,156,China,Chine,840,United States,États-Unis,826,United Kingdom,Royaume-Uni,792,Turkey,Turquie,S,The special trade system. See the technical notes for an explanation of the trade systems.,Le système du commerce spécial. Voir les Notes techniques pour une explication des Systèmes de commerce.,TF,Arrivals of non-resident tourists at national borders.,Arrivées de touristes non résidents aux frontières nationales.
,,,Agency,378,Y,,International Trade Centre UNCTAD/GATT (ITC),International Trade Centr,Centre du commerce intern,,,,,,,N,1,N,,,,,,,,,,,,,,,,,,,,,,,,
39,Southern Europe,Europe méridionale,Area,380,Y,ITA,Italy,Italy,Italie,21588,Rome,Rome,EUR,Euro (EUR),euro (EUR),Y,2,Y,276,Germany,Allemagne,276,Germany,Allemagne,250,France,France,250,France,France,840,United States,États-Unis,156,China,Chine,S,The special trade system. See the technical notes for an explanation of the trade systems.,Le système du commerce spécial. Voir les Notes techniques pour une explication des Systèmes de commerce.,TF,Arrivals of non-resident tourists at national borders.,Arrivées de touristes non résidents aux frontières nationales.
39,Southern Europe,Europe méridionale,Area,381,Y,,Italy-San Marino-Holy See,[use code 380 and footnote],[use code 380 and footnote],,,,,,,N,-1,Y,,,,,,,,,,,,,,,,,,,,,,,,
,,,Area,382,Y,,Italy-San Marino,[use code 380 and footnote],[use code 380 and footnote],,,,,,,N,-1,N,,,,,,,,,,,,,,,,,,,,,,,,
11,Western Africa,Afrique occidentale,Area,384,Y,CIV,Côte d’Ivoire,Côte d’Ivoire,Côte d’Ivoire,21606,Yamoussoukro,Yamoussoukro,XOF,"CFA Franc, BCEAO (XOF)","franc CFA, BCEAO (XOF)",Y,2,Y,528,Netherlands,Pays-Bas,156,China,Chine,840,United States,États-Unis,250,France,France,704,Viet Nam,Viet Nam,566,Nigeria,Nigéria,S,The special trade system. See the technical notes for an explanation of the trade systems.,Le système du commerce spécial. Voir les Notes techniques pour une explication des Systèmes de commerce.,VF,Arrivals of non-resident visitors at national borders.,Arrivées de visiteurs non résidents aux frontières nationales.
,,,Agency,386,Y,,International Telecommunication Union (ITU),International Telecommuni,Union internationale des,,,,,,,N,1,N,,,,,,,,,,,,,,,,,,,,,,,,
29,Caribbean,Caraïbes,Area,388,Y,JAM,Jamaica,Jamaica,Jamaïque,21607,Kingston,Kingston,JMD,Jamaican Dollar (JMD),dollar jamaïcain (JMD),Y,2,Y,840,United States,États-Unis,840,United States,États-Unis,528,Netherlands,Pays-Bas,392,Japan,Japon,124,Canada,Canada,156,China,Chine,G,The general trade system. See the technical notes for an explanation of the trade systems.,Le système du commerce général. Voir les Notes techniques pour une explication des Systèmes de commerce.,TF,Arrivals of non-resident tourists at national borders.,Arrivées de touristes non résidents aux frontières nationales.
30,Eastern Asia,Asie orientale,Area,392,Y,JPN,Japan,Japan,Japon,21671,Tokyo,Tokyo,JPY,Yen (JPY),yen (JPY),Y,2,Y,840,United States,États-Unis,156,China,Chine,156,China,Chine,840,United States,États-Unis,410,Rep. of Korea,République de Corée,36,Australia,Australie,G,The general trade system. See the technical notes for an explanation of the trade systems.,Le système du commerce général. Voir les Notes techniques pour une explication des Systèmes de commerce.,VF,Arrivals of non-resident visitors at national borders.,Arrivées de visiteurs non résidents aux frontières nationales.
,,,Area,393,Y,,Japan (exc. Okinawa),[use code 392 and footnote],[use code 392 and footnote],,,,JPY,Yen (JPY),yen (JPY),N,3,Y,,,,,,,,,,,,,,,,,,,,,,,,
,,,Area,394,Y,,"Japan (exc. Okinawa, Bonin and Volcano Islands)",[use code 392 and footnote],[use code 392 and footnote],,,,JPY,Yen (JPY),yen (JPY),N,3,N,,,,,,,,,,,,,,,,,,,,,,,,
,,,Group,395,Y,,Central American Common Market (CACM),CACM§,MCCA§,,,,,,,Y,2,Y,,,,,,,,,,,,,,,,,,,,,,,,
47,Micronesia [former],Micronésie [anc.],Area,396,Y,JTN,Johnston Island [former],Johnston Island [former],Île Johnston [anc.],,,,USD,US Dollar (USD),dollar des É.-U. (USD),N,2,Y,,,,,,,,,,,,,,,,,,,,,,,,
,,,Agency,397,Y,,Central American Corporation for Air Navigation Services (COCESNA),Central Am Corp for Air Nav Serv (COCESNA),Société d'Amérique centra,,,,,,,N,1,N,,,,,,,,,,,,,,,,,,,,,,,,
143,Central Asia,Asie centrale,Area,398,Y,KAZ,Kazakhstan,Kazakhstan,Kazakhstan,21679,Astana,Astana,KZT,Tenge (KZT),tenge (KZT),Y,2,Y,380,Italy,Italie,643,Russian Federation,Fédération de Russie,156,China,Chine,156,China,Chine,528,Netherlands,Pays-Bas,276,Germany,Allemagne,G,The general trade system. See the technical notes for an explanation of the trade systems.,Le système du commerce général. Voir les Notes techniques pour une explication des Systèmes de commerce.,TF,Arrivals of non-resident tourists at national borders.,Arrivées de touristes non résidents aux frontières nationales.
,,,Group,399,Y,,Organization of the Petroleum Exporting Countries (OPEC),OPEC§,OPEP§,,,,,,,Y,2,Y,,,,,,,,,,,,,,,,,,,,,,,,
145,Western Asia,Asie occidentale,Area,400,Y,JOR,Jordan,Jordan,Jordanie,21700,Amman,Amman,JOD,Jordanian Dinar (JOD),dinar jordanien (JOD),Y,2,Y,840,United States,États-Unis,156,China,Chine,838,Free Zones,Zones franches,682,Saudi Arabia,Arabie saoudite,682,Saudi Arabia,Arabie saoudite,840,United States,États-Unis,G,The general trade system. See the technical notes for an explanation of the trade systems.,Le système du commerce général. Voir les Notes techniques pour une explication des Systèmes de commerce.,TF,Arrivals of non-resident tourists at national borders.,Arrivées de touristes non résidents aux frontières nationales.
,,,Area,401,Y,,Jordan (exc. the West Bank) [former],"Jordan, excluding the Wes","Jordanie,non compris West",,,,JOD,Jordanian Dinar (JOD),dinar jordanien (JOD),N,3,N,,,,,,,,,,,,,,,,,,,,,,,,
,,,Area,402,Y,,State of Palestine (West Bank),West Bank,West Bank,,,,,,,N,3,N,,,,,,,,,,,,,,,,,,,,,,,,
14,Eastern Africa,Afrique orientale,Area,404,Y,KEN,Kenya,Kenya,Kenya,21711,Nairobi,Nairobi,KES,Kenyan Shilling (KES),shilling kényan (KES),Y,2,Y,586,Pakistan,Pakistan,156,China,Chine,800,Uganda,Ouganda,356,India,Inde,840,United States,États-Unis,784,United Arab Emirates,Émirats arabes unis,G,The general trade system. See the technical notes for an explanation of the trade systems.,Le système du commerce général. Voir les Notes techniques pour une explication des Systèmes de commerce.,TF,Arrivals of non-resident tourists at national borders.,Arrivées de touristes non résidents aux frontières nationales.
,,,Area,407,Y,,Democratic People's Republic of Korea-Republic of Korea,Dem. People's Rep. of Korea and Rep. of Korea,Rép. pop. dém. de Corée et Rép. de Corée,,,,,,,N,-1,N,,,,,,,,,,,,,,,,,,,,,,,,
30,Eastern Asia,Asie orientale,Area,408,Y,PRK,Democratic People's Republic of Korea,Dem. People's Rep. Korea,Rép. pop. dém. de Corée,21722,Pyongyang,Pyongyang,KPW,North Korean Won (KPW),won nord-coréen (KPW),Y,2,Y,156,China,Chine,156,China,Chine,356,India,Inde,643,Russian Federation,Fédération de Russie,894,Zambia,Zambie,356,India,Inde,G,The general trade system. See the technical notes for an explanation of the trade systems.,Le système du commerce général. Voir les Notes techniques pour une explication des Systèmes de commerce.,,,
30,Eastern Asia,Asie orientale,Area,410,Y,KOR,Republic of Korea,Republic of Korea,République de Corée,21758,Seoul,Séoul,KRW,South Korean Won (KRW),won sud-coréen (KRW),Y,2,Y,156,China,Chine,156,China,Chine,840,United States,États-Unis,392,Japan,Japon,704,Viet Nam,Viet Nam,840,United States,États-Unis,G,The general trade system. See the technical notes for an explanation of the trade systems.,Le système du commerce général. Voir les Notes techniques pour une explication des Systèmes de commerce.,VF,Arrivals of non-resident visitors at national borders.,Arrivées de visiteurs non résidents aux frontières nationales.
39,Southern Europe,Europe méridionale,Area,412,N,,Kosovo,Kosovo,Kosovo,,,,EUR,Euro (EUR),euro (EUR),Y,2,N,,,,,,,,,,,,,,,,,,,,,,,,
145,Western Asia,Asie occidentale,Area,414,Y,KWT,Kuwait,Kuwait,Koweït,21769,Kuwait City,Koweït,KWD,Kuwaiti Dinar (KWD),dinar koweïtien (KWD),Y,2,Y,899,Areas nes,Zones nsa,156,China,Chine,356,India,Inde,840,United States,États-Unis,682,Saudi Arabia,Arabie saoudite,784,United Arab Emirates,Émirats arabes unis,S,The special trade system. See the technical notes for an explanation of the trade systems.,Le système du commerce spécial. Voir les Notes techniques pour une explication des Systèmes de commerce.,VF,Arrivals of non-resident visitors at national borders.,Arrivées de visiteurs non résidents aux frontières nationales.
,,,Area,415,Y,,Kuwait (Neutral Zone),[use code 414 and footnote],[use code 414 and footnote],,,,,,,N,-1,N,,,,,,,,,,,,,,,,,,,,,,,,
,,,Area,416,Y,,Kuwait (exc. Neutral Zone),[use code 414 and footnote],[use code 414 and footnote],,,,,,,N,-1,N,,,,,,,,,,,,,,,,,,,,,,,,
143,Central Asia,Asie centrale,Area,417,Y,KGZ,Kyrgyzstan,Kyrgyzstan,Kirghizistan,21770,Bishkek,Bichkek,KGS,Som (KGS),som (KGS),Y,2,Y,826,United Kingdom,Royaume-Uni,156,China,Chine,643,Russian Federation,Fédération de Russie,643,Russian Federation,Fédération de Russie,398,Kazakhstan,Kazakhstan,398,Kazakhstan,Kazakhstan,S,The special trade system. See the technical notes for an explanation of the trade systems.,Le système du commerce spécial. Voir les Notes techniques pour une explication des Systèmes de commerce.,VF,Arrivals of non-resident visitors at national borders.,Arrivées de visiteurs non résidents aux frontières nationales.
35,South-eastern Asia,Asie du Sud-Est,Area,418,Y,LAO,Lao People's Democratic Republic,Lao People's Dem. Rep.,Rép. dém. populaire lao,21772,Vientiane,Vientiane,LAK,Lao Kip (LAK),Lao kip (LAK),Y,2,Y,156,China,Chine,764,Thailand,Thaïlande,764,Thailand,Thaïlande,156,China,Chine,704,Viet Nam,Viet Nam,704,Viet Nam,Viet Nam,S,The special trade system. See the technical notes for an explanation of the trade systems.,Le système du commerce spécial. Voir les Notes techniques pour une explication des Systèmes de commerce.,TF,Arrivals of non-resident tourists at national borders.,Arrivées de touristes non résidents aux frontières nationales.
19,Americas,Amériques,Region,419,Y,,Latin America and the Caribbean,Latin America & the Caribbean,Amérique latine et Caraïbes,,,,,,,Y,1.5,Y,,,,,,,,,,,,,,,,,,,,,,,,
419,Latin America & Caribbean,Amérique latine et Caraïbes,Region,420,N,,Latin America,Latin America,Amérique latine,,,,,,,Y,2,N,,,,,,,,,,,,,,,,,,,,,,,,
145,Western Asia,Asie occidentale,Area,422,Y,LBN,Lebanon,Lebanon,Liban,21773,Beirut,Beyrouth,LBP,Lebanese Pound (LBP),livre libanaise (LBP),Y,2,Y,178,Congo,Congo,760,Syrian Arab Rep.,Rép. arabe syrienne,24,Angola,Angola,40,Austria,Autriche,840,United States,États-Unis,156,China,Chine,G,The general trade system. See the technical notes for an explanation of the trade systems.,Le système du commerce général. Voir les Notes techniques pour une explication des Systèmes de commerce.,TF,Arrivals of non-resident tourists at national borders.,Arrivées de touristes non résidents aux frontières nationales.
,,,Area,423,Y,,British Leeward Islands [former],Leeward Islands,Iles Leeward,,,,,,,N,-1,N,,,,,,,,,,,,,,,,,,,,,,,,
18,Southern Africa,Afrique australe,Area,426,Y,LSO,Lesotho,Lesotho,Lesotho,21775,Maseru,Maseru,LSL,Loti (LSL),loti (LSL),Y,2,Y,710,South Africa,Afrique du Sud,710,South Africa,Afrique du Sud,840,United States,États-Unis,156,China,Chine,748,Eswatini,Eswatini,490,Asia nes,Asie nsa,G,The general trade system. See the technical notes for an explanation of the trade systems.,Le système du commerce général. Voir les Notes techniques pour une explication des Systèmes de commerce.,VF,Arrivals of non-resident tourists at national borders.,Arrivées de touristes non résidents aux frontières nationales.
154,Northern Europe,Europe septentrionale,Area,428,Y,LVA,Latvia,Latvia,Lettonie,21778,Riga,Riga,EUR,Euro (EUR),euro (EUR),Y,2,Y,440,Lithuania,Lituanie,440,Lithuania,Lituanie,233,Estonia,Estonie,276,Germany,Allemagne,643,Russian Federation,Fédération de Russie,616,Poland,Pologne,S,The special trade system. See the technical notes for an explanation of the trade systems.,Le système du commerce spécial. Voir les Notes techniques pour une explication des Systèmes de commerce.,TF,Arrivals of non-resident tourists at national borders.,Arrivées de touristes non résidents aux frontières nationales.
11,Western Africa,Afrique occidentale,Area,430,Y,LBR,Liberia,Liberia,Libéria,21779,Monrovia,Monrovia,LRD,Liberian Dollar (LRD),dollar libérien (LRD),Y,2,Y,899,Areas nes,Zones nsa,899,Areas nes,Zones nsa,756,Switzerland,Suisse,156,China,Chine,826,United Kingdom,Royaume-Uni,356,India,Inde,S,The special trade system. See the technical notes for an explanation of the trade systems.,Le système du commerce spécial. Voir les Notes techniques pour une explication des Systèmes de commerce.,,,
,,,Group,432,Y,,Landlocked developing countries (LLDCs),LLDCs,PDSL,,,,,,,N,2,Y,,,,,,,,,,,,,,,,,,,,,,,,
15,Northern Africa,Afrique septentrionale,Area,434,Y,LBY,Libya,Libya,Libye,21782,Tripoli,Tripoli,LYD,Libyan Dinar (LYD),dinar libyen (LYD),Y,2,Y,380,Italy,Italie,380,Italy,Italie,276,Germany,Allemagne,156,China,Chine,724,Spain,Espagne,792,Turkey,Turquie,G,The general trade system. See the technical notes for an explanation of the trade systems.,Le système du commerce général. Voir les Notes techniques pour une explication des Systèmes de commerce.,THS,Arrivals of non-resident tourists in hotels and similar establishments.,Arrivées de touristes non résidents dans les hôtels et établissements similaires.
155,Western Europe,Europe occidentale,Area,438,Y,LIE,Liechtenstein,Liechtenstein,Liechtenstein,21783,Vaduz,Vaduz,CHF,Swiss Franc (CHF),franc suisse (CHF),Y,2,Y,,,,,,,,,,,,,,,,,,,,,,TCE,Arrivals of non-resident tourists in all types of tourism accommodation establishments.,Arrivées de touristes non résidents dans tous les types d'établissements d'hébergement touristique.
154,Northern Europe,Europe septentrionale,Area,440,Y,LTU,Lithuania,Lithuania,Lituanie,21789,Vilnius,Vilnius,EUR,Euro (EUR),euro (EUR),Y,2,Y,643,Russian Federation,Fédération de Russie,643,Russian Federation,Fédération de Russie,428,Latvia,Lettonie,276,Germany,Allemagne,616,Poland,Pologne,616,Poland,Pologne,G,The general trade system. See the technical notes for an explanation of the trade systems.,Le système du commerce général. Voir les Notes techniques pour une explication des Systèmes de commerce.,TF,Arrivals of non-resident tourists at national borders.,Arrivées de touristes non résidents aux frontières nationales.
155,Western Europe,Europe occidentale,Area,442,Y,LUX,Luxembourg,Luxembourg,Luxembourg,21790,Luxembourg,Luxembourg,EUR,Euro (EUR),euro (EUR),Y,2,Y,276,Germany,Allemagne,56,Belgium,Belgique,250,France,France,276,Germany,Allemagne,56,Belgium,Belgique,250,France,France,S,The special trade system. See the technical notes for an explanation of the trade systems.,Le système du commerce spécial. Voir les Notes techniques pour une explication des Systèmes de commerce.,TCE,Arrivals of non-resident tourists in all types of tourism accommodation establishments.,Arrivées de touristes non résidents dans tous les types d'établissements d'hébergement touristique.
30,Eastern Asia,Asie orientale,Area,446,Y,MAC,"China, Macao Special Administrative Region","China, Macao SAR","Chine, RAS de Macao",21791,Macao,Macao,MOP,Pataca (MOP),pataca (MOP),Y,2,Y,899,Areas nes,Zones nsa,156,China,Chine,344,"China, Hong Kong SAR","Chine, RAS Hong Kong",899,Areas nes,Zones nsa,156,China,Chine,344,"China, Hong Kong SAR","Chine, RAS Hong Kong",G,The general trade system. See the technical notes for an explanation of the trade systems.,Le système du commerce général. Voir les Notes techniques pour une explication des Systèmes de commerce.,TF,Arrivals of non-resident tourists at national borders.,Arrivées de touristes non résidents aux frontières nationales.
14,Eastern Africa,Afrique orientale,Area,450,Y,MDG,Madagascar,Madagascar,Madagascar,21792,Antananarivo,Antananarivo,MGA,Malagasy Ariary (MGA),ariary malgache (MGA),Y,2,Y,250,France,France,156,China,Chine,840,United States,États-Unis,784,United Arab Emirates,Émirats arabes unis,276,Germany,Allemagne,356,India,Inde,S,The special trade system. See the technical notes for an explanation of the trade systems.,Le système du commerce spécial. Voir les Notes techniques pour une explication des Systèmes de commerce.,TF,Arrivals of non-resident tourists at national borders.,Arrivées de touristes non résidents aux frontières nationales.
,,,Group,452,Y,,Arab Maghreb Union (AMU),Maghreb,Maghreb,,,,,,,N,2,N,,,,,,,,,,,,,,,,,,,,,,,,
14,Eastern Africa,Afrique orientale,Area,454,Y,MWI,Malawi,Malawi,Malawi,21799,Lilongwe,Lilongwe,MWK,Malawi Kwacha (MWK),kwacha malawien (MWK),Y,2,Y,56,Belgium,Belgique,710,South Africa,Afrique du Sud,710,South Africa,Afrique du Sud,156,China,Chine,834,United Rep. of Tanzania,Rép.-Unie Tanzanie,356,India,Inde,G,The general trade system. See the technical notes for an explanation of the trade systems.,Le système du commerce général. Voir les Notes techniques pour une explication des Systèmes de commerce.,TF,Arrivals of non-resident tourists at national borders.,Arrivées de touristes non résidents aux frontières nationales.
,,,Area,455,Y,,"Federation of Malaya, Sabah, Sarawak and Singapore [former]","Fed. Malaya, Sabah, Sarawak and Singapore [former]","Féd. Malaya, Sabah, Sarawak et Singapour [anc.]",,,,,,,N,3,N,,,,,,,,,,,,,,,,,,,,,,,,
,,,Area,457,Y,,Malaysia (Sarawak),"Malaysia, Sarawak [former]","Malaisie, Sarawak [anc.]",,,,MYR,Malaysian Ringgit (MYR),ringgit malaisien (MYR),N,3,N,,,,,,,,,,,,,,,,,,,,,,,,
35,South-eastern Asia,Asie du Sud-Est,Area,458,Y,MYS,Malaysia,Malaysia,Malaisie,206411,Kuala Lumpur,Kuala Lumpur,MYR,Malaysian Ringgit (MYR),ringgit malaisien (MYR),Y,2,Y,702,Singapore,Singapour,156,China,Chine,156,China,Chine,702,Singapore,Singapour,840,United States,États-Unis,840,United States,États-Unis,G,The general trade system. See the technical notes for an explanation of the trade systems.,Le système du commerce général. Voir les Notes techniques pour une explication des Systèmes de commerce.,TF,Arrivals of non-resident tourists at national borders.,Arrivées de touristes non résidents aux frontières nationales.
,,,Area,459,Y,,Malaysia (Peninsular),Malaysia peninsular [former],Malaisie péninsulaire [anc.],,,,MYR,Malaysian Ringgit (MYR),ringgit malaisien (MYR),N,3,N,,,,,,,,,,,,,,,,,,,,,,,,
,,,Area,460,Y,,Malaysia (Sabah and Sarawak),Sabah and Sarawak,Sabah et Sarawak,,,,MYR,Malaysian Ringgit (MYR),ringgit malaisien (MYR),N,3,N,,,,,,,,,,,,,,,,,,,,,,,,
,,,Area,461,Y,,Malaysia (Sabah),"Malaysia, Sabah [former]","Malaisie, Sabah [anc.]",,,,MYR,Malaysian Ringgit (MYR),ringgit malaisien (MYR),N,3,N,,,,,,,,,,,,,,,,,,,,,,,,
34,Southern Asia,Asie méridionale,Area,462,Y,MDV,Maldives,Maldives,Maldives,21817,Male,Malé,MVR,Rufiyaa (MVR),rufiyaa (MVR),Y,2,Y,764,Thailand,Thaïlande,784,United Arab Emirates,Émirats arabes unis,276,Germany,Allemagne,702,Singapore,Singapour,840,United States,États-Unis,356,India,Inde,G,The general trade system. See the technical notes for an explanation of the trade systems.,Le système du commerce général. Voir les Notes techniques pour une explication des Systèmes de commerce.,TF,Arrivals of non-resident tourists at national borders.,Arrivées de touristes non résidents aux frontières nationales.
11,Western Africa,Afrique occidentale,Area,466,Y,MLI,Mali,Mali,Mali,21818,Bamako,Bamako,XOF,"CFA Franc, BCEAO (XOF)","franc CFA, BCEAO (XOF)",Y,2,Y,710,South Africa,Afrique du Sud,686,Senegal,Sénégal,756,Switzerland,Suisse,156,China,Chine,854,Burkina Faso,Burkina Faso,384,Côte d'Ivoire,Côte d’Ivoire,S,The special trade system. See the technical notes for an explanation of the trade systems.,Le système du commerce spécial. Voir les Notes techniques pour une explication des Systèmes de commerce.,TF,Arrivals of non-resident tourists at national borders.,Arrivées de touristes non résidents aux frontières nationales.
39,Southern Europe,Europe méridionale,Area,470,Y,MLT,Malta,Malta,Malte,21819,Valletta,La Valette,EUR,Euro (EUR),euro (EUR),Y,2,Y,840,United States,États-Unis,380,Italy,Italie,837,Bunkers,Com. de soute,136,Cayman Isds,Îles Caïmanes,276,Germany,Allemagne,124,Canada,Canada,G,The general trade system. See the technical notes for an explanation of the trade systems.,Le système du commerce général. Voir les Notes techniques pour une explication des Systèmes de commerce.,TF,Arrivals of non-resident tourists at national borders.,Arrivées de touristes non résidents aux frontières nationales.
,,,Group,471,Y,,Central American Common Market (CACM) not elsewhere specified,CACM n.e.s,MCCA n.s.a,,,,,,,N,3,Y,,,,,,,,,,,,,,,,,,,,,,,,
,,,Group,472,Y,,Economic and Monetary Community of Central Africa (EMCCA) not elsewhere specified,EMCCA n.e.s,"CEMAC, n.s.a",,,,,,,N,3,Y,,,,,,,,,,,,,,,,,,,,,,,,
,,,Group,473,Y,,Latin American Integration Association (LAIA) not elsewhere specified,LAIA§ n.e.s,ALAI§ n.s.a,,,,,,,N,3,Y,,,,,,,,,,,,,,,,,,,,,,,,
29,Caribbean,Caraïbes,Area,474,Y,MTQ,Martinique,Martinique,Martinique,21820,Fort-de-France,Fort-de-France,EUR,Euro (EUR),euro (EUR),Y,2,Y,,,,,,,,,,,,,,,,,,,S,The special trade system. See the technical notes for an explanation of the trade systems.,Le système du commerce spécial. Voir les Notes techniques pour une explication des Systèmes de commerce.,TF,Arrivals of non-resident tourists at national borders.,Arrivées de touristes non résidents aux frontières nationales.
,,,Area,476,Y,,Mauritania (exc. Spanish Sahara) [former],,,,,,MRU,Ouguiya (MRU),ouguiya (MRU),N,3,N,,,,,,,,,,,,,,,,,,,,,,,,
,,,Area,477,Y,,Spanish Sahara (Mauritania part) [former],,,,,,MRU,Ouguiya (MRU),ouguiya (MRU),N,3,N,,,,,,,,,,,,,,,,,,,,,,,,
11,Western Africa,Afrique occidentale,Area,478,Y,MRT,Mauritania,Mauritania,Mauritanie,21821,Nouakchott,Nouakchott,MRU,Ouguiya (MRU),ouguiya (MRU),Y,2,Y,156,China,Chine,410,Rep. of Korea,République de Corée,756,Switzerland,Suisse,784,United Arab Emirates,Émirats arabes unis,724,Spain,Espagne,578,Norway,Norvège,S,The special trade system. See the technical notes for an explanation of the trade systems.,Le système du commerce spécial. Voir les Notes techniques pour une explication des Systèmes de commerce.,,,
,,,Area,479,Y,,Mauritius (Mauritius Island and Rodrigues Island),,,,,,MUR,Mauritius Rupee (MUR),roupie mauricienne (MUR),N,3,N,,,,,,,,,,,,,,,,,,,,,,,,
14,Eastern Africa,Afrique orientale,Area,480,Y,MUS,Mauritius,Mauritius,Maurice,21822,Port Louis,Port-Louis,MUR,Mauritius Rupee (MUR),roupie mauricienne (MUR),Y,2,Y,250,France,France,156,China,Chine,826,United Kingdom,Royaume-Uni,356,India,Inde,840,United States,États-Unis,710,South Africa,Afrique du Sud,G,The general trade system. See the technical notes for an explanation of the trade systems.,Le système du commerce général. Voir les Notes techniques pour une explication des Systèmes de commerce.,TF,Arrivals of non-resident tourists at national borders.,Arrivées de touristes non résidents aux frontières nationales.
,,,Area,481,Y,,Mauritius (Mauritius Island),,,,,,MUR,Mauritius Rupee (MUR),roupie mauricienne (MUR),N,3,N,,,,,,,,,,,,,,,,,,,,,,,,
,,,Area,482,Y,,Mauritius (Saint Brandon and Agalega),St. Brandon and Agalega,Saint-Brandon et Agalega,,,,MUR,Mauritius Rupee (MUR),roupie mauricienne (MUR),N,3,N,,,,,,,,,,,,,,,,,,,,,,,,
,,,Area,483,Y,,Mauritius (Rodrigues Island),Rodrigues,Rodrigues,,,,MUR,Mauritius Rupee (MUR),roupie mauricienne (MUR),N,3,N,,,,,,,,,,,,,,,,,,,,,,,,
13,Central America,Amérique centrale,Area,484,Y,MEX,Mexico,Mexico,Mexique,21853,Mexico City,Mexico,MXN,Mexican Peso (MXN),peso mexicain (MXN),Y,2,Y,840,United States,États-Unis,840,United States,États-Unis,899,Areas nes,Zones nsa,156,China,Chine,124,Canada,Canada,392,Japan,Japon,G,The general trade system. See the technical notes for an explanation of the trade systems.,Le système du commerce général. Voir les Notes techniques pour une explication des Systèmes de commerce.,TF,Arrivals of non-resident tourists at national borders.,Arrivées de touristes non résidents aux frontières nationales.
,,,Group,485,Y,,"Western Asia (exc. Armenia, Azerbaijan, Cyprus, Israel and Georgia)",[use code 145 and footnote],[use code 145 and footnote],,,,,,,Y,1,N,,,,,,,,,,,,,,,,,,,,,,,,
,,,Group,486,Y,,"Western Asia (exc. Armenia, Azerbaijan, Cyprus, Israel and Georgia) not elsewhere specified",[use code 145 and footnote],[use code 145 and footnote],,,,,,,N,1,N,,,,,,,,,,,,,,,,,,,,,,,,
,,,Group,487,Y,,"Western Asia (exc. Armenia, Azerbaijan, Cyprus, Israel and Georgia) and Egypt",[use code 145 and footnote],[use code 145 and footnote],,,,,,,N,1,N,,,,,,,,,,,,,,,,,,,,,,,,
47,Micronesia [former],Micronésie [anc.],Area,488,Y,MID,Midway Islands [former],Midway Islands [former],Îles Midway [anc.],,,,USD,US dollar (USD),dollar des É.-U. (USD),N,2,Y,,,,,,,,,,,,,,,,,,,,,,,,
,,,Group,489,Y,,Developing economies - Asia,Asia,Asie,,,,,,,N,0,N,,,,,,,,,,,,,,,,,,,,,,,,
30,Eastern Asia,Asie orientale,N,490,Y,,Asia not elsewhere specified,Asia n.e.s,Asie n.s.a,,,,,,,Y,3,Y,,,,,,,,,,,,,,,,,,,,,,,,
,,,Group,491,Y,,Centrally Planned Economies,Centrally Planned Economi,...,,,,,,,N,0,N,,,,,,,,,,,,,,,,,,,,,,,,
155,Western Europe,Europe occidentale,Area,492,Y,MCO,Monaco,Monaco,Monaco,21881,Monaco,Monaco,EUR,Euro (EUR),euro (EUR),Y,2,Y,,,,,,,,,,,,,,,,,,,,,,THS,Arrivals of non-resident tourists in hotels and similar establishments.,Arrivées de touristes non résidents dans les hôtels et établissements similaires.
30,Eastern Asia,Asie orientale,Area,496,Y,MNG,Mongolia,Mongolia,Mongolie,21882,Ulaanbaatar,Oulan-Bator,MNT,Tugrik (MNT),tugrik (MNT),Y,2,Y,156,China,Chine,156,China,Chine,826,United Kingdom,Royaume-Uni,643,Russian Federation,Fédération de Russie,643,Russian Federation,Fédération de Russie,392,Japan,Japon,G,The general trade system. See the technical notes for an explanation of the trade systems.,Le système du commerce général. Voir les Notes techniques pour une explication des Systèmes de commerce.,TF,Arrivals of non-resident tourists at national borders.,Arrivées de touristes non résidents aux frontières nationales.
,,,Group,497,Y,,European Union (EU) not elsewhere specified,EU n.e.s,UE n.s.a,,,,,,,N,3,N,,,,,,,,,,,,,,,,,,,,,,,,
151,Eastern Europe,Europe orientale,Area,498,Y,MDA,Republic of Moldova,Republic of Moldova,République de Moldova,21885,Chisinau,Chisinau,MDL,Moldovan Leu (MDL),leu moldove (MDL),Y,2,Y,642,Romania,Roumanie,642,Romania,Roumanie,643,Russian Federation,Fédération de Russie,643,Russian Federation,Fédération de Russie,380,Italy,Italie,804,Ukraine,Ukraine,G,The general trade system. See the technical notes for an explanation of the trade systems.,Le système du commerce général. Voir les Notes techniques pour une explication des Systèmes de commerce.,TCE,Arrivals of non-resident tourists in all types of tourism accommodation establishments.,Arrivées de touristes non résidents dans tous les types d'établissements d'hébergement touristique.
39,Southern Europe,Europe méridionale,Area,499,Y,MNE,Montenegro,Montenegro,Monténégro,23256,Podgorica,Podgorica,EUR,Euro (EUR),euro (EUR),Y,2,Y,688,Serbia,Serbie,688,Serbia,Serbie,70,Bosnia Herzegovina,Bosnie-Herzégovine,156,China,Chine,899,Areas nes,Zones nsa,276,Germany,Allemagne,S,The special trade system. See the technical notes for an explanation of the trade systems.,Le système du commerce spécial. Voir les Notes techniques pour une explication des Systèmes de commerce.,TCE,Arrivals of non-resident tourists in all types of tourism accommodation establishments.,Arrivées de touristes non résidents dans tous les types d'établissements d'hébergement touristique.
29,Caribbean,Caraïbes,Area,500,Y,MSR,Montserrat,Montserrat,Montserrat,204440,Brades Estate,Brades Estate,XCD,E. Caribbean Dollar (XCD),dollar des Caraïb. (XCD),Y,2,Y,28,Antigua and Barbuda,Antigua-et-Barbuda,840,United States,États-Unis,840,United States,États-Unis,826,United Kingdom,Royaume-Uni,250,France,France,392,Japan,Japon,S,The special trade system. See the technical notes for an explanation of the trade systems.,Le système du commerce spécial. Voir les Notes techniques pour une explication des Systèmes de commerce.,TF,Arrivals of non-resident tourists at national borders.,Arrivées de touristes non résidents aux frontières nationales.
,,,Group,501,Y,,Arab World,Arab World,Monde arabe,,,,,,,N,1,N,,,,,,,,,,,,,,,,,,,,,,,,
,,,Group,502,Y,,League of Arab States (LAS),League of Arab States,Ligue des Etats Arabes,,,,,,,N,2,N,,,,,,,,,,,,,,,,,,,,,,,,
15,Northern Africa,Afrique septentrionale,Area,504,Y,MAR,Morocco,Morocco,Maroc,21899,Rabat,Rabat,MAD,Moroccan Dirham (MAD),dirham marocain (MAD),Y,2,Y,724,Spain,Espagne,724,Spain,Espagne,250,France,France,250,France,France,380,Italy,Italie,156,China,Chine,S,The special trade system. See the technical notes for an explanation of the trade systems.,Le système du commerce spécial. Voir les Notes techniques pour une explication des Systèmes de commerce.,TF,Arrivals of non-resident tourists at national borders.,Arrivées de touristes non résidents aux frontières nationales.
,,,Area,505,Y,,Morocco (excl. Ifni),,,,,,MAD,Moroccan Dirham (MAD),dirham marocain (MAD),N,3,N,,,,,,,,,,,,,,,,,,,,,,,,
,,,Area,506,Y,,Morocco (Ifni),,,,,,MAD,Moroccan Dirham (MAD),dirham marocain (MAD),N,3,N,,,,,,,,,,,,,,,,,,,,,,,,
,,,Area,507,Y,,Spanish Sahara (Moroccan part) [former],Moroccan part of former S,Partie marocaine de l'anc,,,,MAD,Moroccan Dirham (MAD),dirham marocain (MAD),N,3,N,,,,,,,,,,,,,,,,,,,,,,,,
14,Eastern Africa,Afrique orientale,Area,508,Y,MOZ,Mozambique,Mozambique,Mozambique,21910,Maputo,Maputo,MZN,Mozambique Metical (MZN),metical de Mozambique (MZN),Y,2,Y,356,India,Inde,710,South Africa,Afrique du Sud,528,Netherlands,Pays-Bas,156,China,Chine,710,South Africa,Afrique du Sud,784,United Arab Emirates,Émirats arabes unis,S,The special trade system. See the technical notes for an explanation of the trade systems.,Le système du commerce spécial. Voir les Notes techniques pour une explication des Systèmes de commerce.,TF,Arrivals of non-resident tourists at national borders.,Arrivées de touristes non résidents aux frontières nationales.
145,Western Asia,Asie occidentale,Area,512,Y,OMN,Oman,Oman,Oman,21922,Muscat,Mascate,OMR,Rial Omani (OMR),rial omanais (OMR),Y,2,Y,899,Areas nes,Zones nsa,784,United Arab Emirates,Émirats arabes unis,784,United Arab Emirates,Émirats arabes unis,899,Areas nes,Zones nsa,634,Qatar,Qatar,156,China,Chine,G,The general trade system. See the technical notes for an explanation of the trade systems.,Le système du commerce général. Voir les Notes techniques pour une explication des Systèmes de commerce.,TF,Arrivals of non-resident tourists at national borders.,Arrivées de touristes non résidents aux frontières nationales.
,,,Region,513,Y,,Northern America and Europe,Northern America and Europe,,,,,,,,,-1,N,,,,,,,,,,,,,,,,,,,,,,,,
,,,Group,514,Y,,"Developed regions (Europe, Cyprus, Israel, Northern America, Japan, Australia & New Zealand)",,,,,,,,,,0,N,,,,,,,,,,,,,,,,,,,,,,,,
,,,Group,515,Y,,Developing regions,,,,,,,,,,0,N,,,,,,,,,,,,,,,,,,,,,,,,
18,Southern Africa,Afrique australe,Area,516,Y,NAM,Namibia,Namibia,Namibie,21925,Windhoek,Windhoek,NAD,Namibia Dollar (NAD),dollar namibien (NAD),Y,2,Y,710,South Africa,Afrique du Sud,710,South Africa,Afrique du Sud,72,Botswana,Botswana,100,Bulgaria,Bulgarie,756,Switzerland,Suisse,72,Botswana,Botswana,G,The general trade system. See the technical notes for an explanation of the trade systems.,Le système du commerce général. Voir les Notes techniques pour une explication des Systèmes de commerce.,TF,Arrivals of non-resident tourists at national borders.,Arrivées de touristes non résidents aux frontières nationales.
,,,Group,517,Y,,Developing economies - Southern Africa,Southern Africa,...,,,,,,,N,0,N,,,,,,,,,,,,,,,,,,,,,,,,
,,,Group,518,N,,Eastern Asia (exc. Japan),[use code 30 and footnote],[use code 30 and footnote],,,,,,,Y,1,N,,,,,,,,,,,,,,,,,,,,,,,,
,,,Group,519,Y,,Developing economies - Northern America,Northern America,...,,,,,,,N,0,N,,,,,,,,,,,,,,,,,,,,,,,,
57,Micronesia,Micronésie,Area,520,Y,NRU,Nauru,Nauru,Nauru,21926,Yaren,Yaren,AUD,Australian Dollar (AUD),dollar australien (AUD),Y,2,Y,,,,,,,,,,,,,,,,,,,,,,,,
,,,Group,521,Y,,Near East,Near East,Proche-Orient,,,,,,,N,1,N,,,,,,,,,,,,,,,,,,,,,,,,
,,,Group,522,Y,,Near East in Asia,Near East in Asia,Proche-Orient dans l'Asie,,,,,,,N,1,N,,,,,,,,,,,,,,,,,,,,,,,,
,,,Group,523,Y,,Near East in Africa,Near East in Africa,Proche-Orient dans l'Afri,,,,,,,N,1,N,,,,,,,,,,,,,,,,,,,,,,,,
34,Southern Asia,Asie méridionale,Area,524,Y,NPL,Nepal,Nepal,Népal,21928,Kathmandu,Katmandou,NPR,Nepalese Rupee (NPR),roupie népalaise (NPR),Y,2,Y,356,India,Inde,356,India,Inde,840,United States,États-Unis,156,China,Chine,792,Turkey,Turquie,899,"Areas, nes",Zones nsa,G,The general trade system. See the technical notes for an explanation of the trade systems.,Le système du commerce général. Voir les Notes techniques pour une explication des Systèmes de commerce.,TF,Arrivals of non-resident tourists at national borders.,Arrivées de touristes non résidents aux frontières nationales.
,,,Group,525,Y,,Developing economies - Americas,Developing economies,Econ. en dévelop.,,,,,,,N,0,N,,,,,,,,,,,,,,,,,,,,,,,,
,,,Group,526,Y,,Developing economies - Other America,Other America,Autres pays d'Amérique,,,,,,,N,0,N,,,,,,,,,,,,,,,,,,,,,,,,
,,,Region,527,Y,,Oceania not elsewhere specified,Oceania n.e.s,Océanie n.s.a,,,,,,,Y,3,Y,,,,,,,,,,,,,,,,,,,,,,,,
155,Western Europe,Europe occidentale,Area,528,Y,NLD,Netherlands,Netherlands,Pays-Bas,21930,Amsterdam,Amsterdam,EUR,Euro (EUR),euro (EUR),Y,2,Y,276,Germany,Allemagne,276,Germany,Allemagne,56,Belgium,Belgique,56,Belgium,Belgique,826,United Kingdom,Royaume-Uni,156,China,Chine,S,The special trade system. See the technical notes for an explanation of the trade systems.,Le système du commerce spécial. Voir les Notes techniques pour une explication des Systèmes de commerce.,TCE,Arrivals of non-resident tourists in all types of tourism accommodation establishments.,Arrivées de touristes non résidents dans tous les types d'établissements d'hébergement touristique.
,,,Group,529,Y,,Developing economies not elsewhere specified,Other,Autres,,,,,,,N,0,N,,,,,,,,,,,,,,,,,,,,,,,,
29,Caribbean,Caraïbes,Area,530,Y,ANT,"Netherlands Antilles [former, 1986 to 2010]",Netherlands Antilles [former],Antilles néerlandaises [anc.],,,,ANG,Neth. Ant. Guilder (ANG),florin des Ant. néer. (ANG),N,2,Y,,,,,,,,,,,,,,,,,,,S,The special trade system. See the technical notes for an explanation of the trade systems.,Le système du commerce spécial. Voir les Notes techniques pour une explication des Systèmes de commerce.,,,
29,Caribbean,Caraïbes,Area,531,Y,CUW,Curaçao,Curaçao,Curaçao,21953,Willemstad,Willemstad,ANG,Neth. Ant. Guilder (ANG),florin des Ant. néer. (ANG),Y,2,Y,,,,,,,,,,,,,,,,,,,,,,TF,Arrivals of non-resident tourists at national borders.,Arrivées de touristes non résidents aux frontières nationales.
29,Caribbean,Caraïbes,Area,532,Y,XANT,"Netherlands Antilles [former, pre-1986]","Netherlands Antilles [former, pre-1986]","Antilles néerlandaises [anc., avant 1986]",,,,ANG,Neth. Ant. Guilder (ANG),florin des Ant. néer. (ANG),N,2,Y,,,,,,,,,,,,,,,,,,,,,,,,
29,Caribbean,Caraïbes,Area,533,Y,ABW,Aruba,Aruba,Aruba,21954,Oranjestad,Oranjestad,AWG,Aruban Florin (AWG),florin de Aruba (AWG),Y,2,Y,899,Areas nes,Zones nsa,840,United States,États-Unis,170,Colombia,Colombie,899,Areas nes,Zones nsa,840,United States,États-Unis,528,Netherlands,Pays-Bas,S,The special trade system. See the technical notes for an explanation of the trade systems.,Le système du commerce spécial. Voir les Notes techniques pour une explication des Systèmes de commerce.,TF,Arrivals of non-resident tourists at national borders.,Arrivées de touristes non résidents aux frontières nationales.
29,Caribbean,Caraïbes,Area,534,Y,SXM,Sint Maarten (Dutch part),Sint Maarten (Dutch part),St-Martin (partie néerland.),206154,Philipsburg,Philipsburg,ANG,Neth. Ant. Guilder (ANG),florin des Ant. néer. (ANG),Y,2,Y,,,,,,,,,,,,,,,,,,,,,,TF,Arrivals of non-resident tourists at national borders.,Arrivées de touristes non résidents aux frontières nationales.
29,Caribbean,Caraïbes,Area,535,Y,BES,"Bonaire, Sint Eustatius and Saba","Bonaire, St. Eustatius & Saba","Bonaire, St-Eustache et Saba",206155,Kralendijk,Kralendijk,USD,US Dollar (USD),dollar des É.-U. (USD),Y,2,Y,,,,,,,,,,,,,,,,,,,,,,,,
37,Western Asia [former],Asie occidentale [anc.],Area,536,Y,NTZ,Neutral Zone (Saudi Arabia and Iraq) [former],Neutral Zone [former],Zone Neutre [anc.],,,,,,,N,2,Y,,,,,,,,,,,,,,,,,,,,,,,,
,,,Group,537,Y,,Developing economies - Africa,Africa,Afrique,,,,,,,N,0,N,,,,,,,,,,,,,,,,,,,,,,,,
,,,Group,538,Y,,Developing economies - North America,North America,,,,,,,,N,0,N,,,,,,,,,,,,,,,,,,,,,,,,
,,,Group,539,Y,,Developing economies - South America,South America,Amérique du Sud,,,,,,,N,0,N,,,,,,,,,,,,,,,,,,,,,,,,
54,Melanesia,Mélanésie,Area,540,Y,NCL,New Caledonia,New Caledonia,Nouvelle-Calédonie,21955,Nouméa,Nouméa,XPF,CFP Franc (XPF),franc CFP (XPF),Y,2,Y,156,China,Chine,250,France,France,410,Rep. of Korea,République de Corée,36,Australia,Australie,392,Japan,Japon,702,Singapore,Singapour,S,The special trade system. See the technical notes for an explanation of the trade systems.,Le système du commerce spécial. Voir les Notes techniques pour une explication des Systèmes de commerce.,TF,Arrivals of non-resident tourists at national borders.,Arrivées de touristes non résidents aux frontières nationales.
,,,Group,541,Y,,Developing economies - Asia,Asia,Asie,,,,,,,N,0,N,,,,,,,,,,,,,,,,,,,,,,,,
,,,Group,542,Y,,Developing economies - Europe,Europe,Europe,,,,,,,N,0,N,,,,,,,,,,,,,,,,,,,,,,,,
,,,Region,543,N,,Oceania (exc. Australia and New Zealand),Oceania,Océanie,,,,,,,Y,-1,N,,,,,,,,,,,,,,,,,,,,,,,,
45,Melanesia [former],Mélanésie [anc.],Area,544,Y,,New Guinea (Trust Territory) [former],New Guinea (Trust Terr.) [former],Nvl-Guinée (Territoire sous tutelle) [anc.],,,,PGK,Kina (PGK),kina (PGK),N,2,Y,,,,,,,,,,,,,,,,,,,,,,,,
,,,Group,545,N,,Developing economies - Total,"Developing Countries, Total","Les pays en développement, total",,,,,,,N,0,N,,,,,,,,,,,,,,,,,,,,,,,,
,,,Area,546,Y,,New Hebrides (French part) [former],New Hebrides (French part) [former],Nouvelles-Hébrides (partie française) [anc.],,,,XPF,CFP franc (XPF),franc CFP (XPF),N,3,N,,,,,,,,,,,,,,,,,,,,,,,,
,,,Area,547,Y,,New Hebrides (British part) [former],New Hebrides (British part) [former],Nouvelles-Hébrides (parte brit.) [anc.],,,,,,,N,3,N,,,,,,,,,,,,,,,,,,,,,,,,
54,Melanesia,Mélanésie,Area,548,Y,VUT,Vanuatu,Vanuatu,Vanuatu,21956,Port Vila,Port-Vila,VUV,Vatu (VUV),vatu (VUV),Y,2,Y,392,Japan,Japon,156,China,Chine,478,Mauritania,Mauritanie,36,Australia,Australie,764,Thailand,Thaïlande,392,Japan,Japon,G,The general trade system. See the technical notes for an explanation of the trade systems.,Le système du commerce général. Voir les Notes techniques pour une explication des Systèmes de commerce.,TF,Arrivals of non-resident tourists at national borders.,Arrivées de touristes non résidents aux frontières nationales.
,,,,549,Y,,EMPTY,[use code 21],[use code 21],,,,,,,,,,,,,,,,,,,,,,,,,,,,,,,,,
,,,Group,550,Y,,Developed economies - Asia,Asia,Asie,,,,,,,N,0,N,,,,,,,,,,,,,,,,,,,,,,,,
,,,Group,551,N,,Developed economies - Europe,Europe,Europe,,,,,,,N,0,N,,,,,,,,,,,,,,,,,,,,,,,,
,,,Group,552,Y,,Developed economies - Oceania,Developed economies,Economies développées,,,,,,,N,0,N,,,,,,,,,,,,,,,,,,,,,,,,
,,,Group,553,N,,Developed economies - Total,Developed economies,Economies développées,,,,,,,N,0,N,,,,,,,,,,,,,,,,,,,,,,,,
53,Oceania,Océanie,Area,554,Y,NZL,New Zealand,New Zealand,Nouvelle-Zélande,21962,Wellington,Wellington,NZD,New Zealand Dollar (NZD),dollar néo-zélandais (NZD),Y,2,Y,156,China,Chine,156,China,Chine,36,Australia,Australie,36,Australia,Australie,840,United States,États-Unis,840,United States,États-Unis,G,The general trade system. See the technical notes for an explanation of the trade systems.,Le système du commerce général. Voir les Notes techniques pour une explication des Systèmes de commerce.,TF,Arrivals of non-resident tourists at national borders.,Arrivées de touristes non résidents aux frontières nationales.
,,,Area,555,Y,,New Zealand-Tokelau,[use code 554 and footnote],[use code 554 and footnote],,,,,,,N,-1,N,,,,,,,,,,,,,,,,,,,,,,,,
,,,Area,556,Y,,Antarctica (Ross Dependency),Ross Dependency,Dépendance de Ross,,,,NZD,New Zealand Dollar (NZD),dollar néo-zélandais (NZD),N,3,N,,,,,,,,,,,,,,,,484,Mexico,Mexique,,,,,,
,,,Group,557,N,,Developed economies not elsewhere specified,Other developed economies,Autres économies développées,,,,,,,N,0,N,,,,,,,,,,,,,,,,,,,,,,,,
13,Central America,Amérique centrale,Area,558,Y,NIC,Nicaragua,Nicaragua,Nicaragua,21967,Managua,Managua,NIO,Cordoba Oro (NIO),cordoba oro (NIO),Y,2,Y,840,United States,États-Unis,840,United States,États-Unis,484,Mexico,Mexique,156,China,Chine,222,El Salvador,El Salvador,484,Mexico,Mexique,G,The general trade system. See the technical notes for an explanation of the trade systems.,Le système du commerce général. Voir les Notes techniques pour une explication des Systèmes de commerce.,TF,Arrivals of non-resident tourists at national borders.,Arrivées de touristes non résidents aux frontières nationales.
,,,Group,559,Y,,Centrally Planned Economies - Asia [former],MPS countries in Asia,CPM pays en Asie,,,,,,,N,0,N,,,,,,,,,,,,,,,,,,,,,,,,
,,,Group,560,Y,,Centrally Planned Economies - Europe [former],Centrally Planned Economi,...,,,,,,,N,0,N,,,,,,,,,,,,,,,,,,,,,,,,
,,,Group,561,Y,,Centrally Planned Economies - Total [former],Centrally Planned Economi,...,,,,,,,N,0,N,,,,,,,,,,,,,,,,,,,,,,,,
11,Western Africa,Afrique occidentale,Area,562,Y,NER,Niger,Niger,Niger,21972,Niamey,Niamey,XOF,"CFA Franc, BCEAO (XOF)","franc CFA, BCEAO (XOF)",Y,2,Y,250,France,France,250,France,France,764,Thailand,Thaïlande,156,China,Chine,458,Malaysia,Malaisie,840,United States,États-Unis,S,The special trade system. See the technical notes for an explanation of the trade systems.,Le système du commerce spécial. Voir les Notes techniques pour une explication des Systèmes de commerce.,TF,Arrivals of non-resident tourists at national borders.,Arrivées de touristes non résidents aux frontières nationales.
,,,Group,563,Y,,Centrally Planned Economies - Europe and USSR [former],Eastern Europe and USSR,Europe orient et USSR,,,,,,,N,0,N,,,,,,,,,,,,,,,,,,,,,,,,
,,,Group,564,Y,,Centrally Planned Economies - Total excluding USSR [former],Centrally Planned Economi,...,,,,,,,N,0,N,,,,,,,,,,,,,,,,,,,,,,,,
,,,Group,565,Y,,Centrally Planned Economies not elsewhere specified [former],Centrally Planned Economi,...,,,,,,,N,0,N,,,,,,,,,,,,,,,,,,,,,,,,
11,Western Africa,Afrique occidentale,Area,566,Y,NGA,Nigeria,Nigeria,Nigéria,21976,Abuja,Abuja,NGN,Naira (NGN),naira (NGN),Y,2,Y,356,India,Inde,156,China,Chine,840,United States,États-Unis,56,Belgium,Belgique,724,Spain,Espagne,528,Netherlands,Pays-Bas,G,The general trade system. See the technical notes for an explanation of the trade systems.,Le système du commerce général. Voir les Notes techniques pour une explication des Systèmes de commerce.,TF,Arrivals of non-resident tourists at national borders.,Arrivées de touristes non résidents aux frontières nationales.
,,,Region,568,Y,,Europe not elsewhere specified,Europe n.e.s,Europe n.s.a,,,,,,,Y,3,Y,,,,,,,,,,,,,,,,,,,,,,,,
,,,Group,569,Y,,Centrally Planned Economies - Europe not elsewhere specified [former],Centrally Planned Economies - Europe n.e.s [former,...,,,,,,,N,0,N,,,,,,,,,,,,,,,,,,,,,,,,
61,Polynesia,Polynésie,Area,570,Y,NIU,Niue,Niue,Nioué,22025,Alofi,Alofi,NZD,New Zealand Dollar (NZD),dollar néo-zélandais (NZD),Y,2,Y,,,,,,,,,,,,,,,,,,,G,The general trade system. See the technical notes for an explanation of the trade systems.,Le système du commerce général. Voir les Notes techniques pour une explication des Systèmes de commerce.,TF,Arrivals of non-resident tourists at national borders.,Arrivées de touristes non résidents aux frontières nationales.
,,,Group,571,Y,,American Oceania,American Oceania,Océanie américaine,,,,,,,N,1,N,,,,,,,,,,,,,,,,,,,,,,,,
,,,Group,572,Y,,Australian Oceania,Australian Oceania,Océanie australienne,,,,,,,N,1,N,,,,,,,,,,,,,,,,,,,,,,,,
,,,Group,573,Y,,New Zealand Oceania,New Zealand Oceania,Océanie néo-zélandaise,,,,,,,N,1,N,,,,,,,,,,,,,,,,,,,,,,,,
53,Oceania,Océanie,Area,574,Y,NFK,Norfolk Island,Norfolk Island,Île Norfolk,,,,AUD,Australian dollar (AUD),dollar australien (AUD),Y,2,Y,,,,,,,,,,,,,,,,,,,,,,,,
,,,Group,575,Y,,North West Africa,North West Africa,Afrique du Nord-ouest,,,,,,,N,1,N,,,,,,,,,,,,,,,,,,,,,,,,
,,,Region,577,Y,,Africa not elsewhere specified,Africa n.e.s,Afrique n.s.a,,,,,,,Y,3,Y,,,,,,,,,,,,,,,,,,,,,,,,
154,Northern Europe,Europe septentrionale,Area,578,Y,NOR,Norway,Norway,Norvège,22028,Oslo,Oslo,NOK,Norwegian Krone (NOK),couronne norvégienne (NOK),Y,2,Y,826,United Kingdom,Royaume-Uni,752,Sweden,Suède,276,Germany,Allemagne,276,Germany,Allemagne,528,Netherlands,Pays-Bas,156,China,Chine,G,The general trade system. See the technical notes for an explanation of the trade systems.,Le système du commerce général. Voir les Notes techniques pour une explication des Systèmes de commerce.,TF,Arrivals of non-resident tourists at national borders.,Arrivées de touristes non résidents aux frontières nationales.
154,Northern Europe,Europe septentrionale,Area,579,Y,,Norway-Svalbard and Jan Mayen Islands,[use code 578 and footnote],[use code 578 and footnote],,,,,,,N,-1,Y,,,,,,,,,,,,,,,,,,,,,,,,
57,Micronesia,Micronésie,Area,580,Y,MNP,Northern Mariana Islands,Northern Mariana Islands,Îles Mariannes du Nord,22031,Garapan,Garapan,USD,US Dollar (USD),dollar des É.-U. (USD),Y,2,Y,899,Areas nes,Zones nsa,899,Areas nes,Zones nsa,410,Rep. of Korea,République de Corée,344,"China, Hong Kong SAR","Chine, RAS Hong Kong",702,Singapore,Singapour,410,Rep. of Korea,République de Corée,G,The general trade system. See the technical notes for an explanation of the trade systems.,Le système du commerce général. Voir les Notes techniques pour une explication des Systèmes de commerce.,TF,Arrivals of non-resident tourists at national borders.,Arrivées de touristes non résidents aux frontières nationales.
57,Micronesia,Micronésie,Area,581,Y,UMI,United States minor outlying islands,U.S. Minor Outlying islands,Îles min. éloignées des É-U,,,,USD,US dollar (USD),dollar des É.-U. (USD),Y,2,Y,,,,,,,,,,,,,,,,,,,,,,,,
47,Micronesia [former],Micronésie [anc.],Area,582,Y,PCI,Pacific Islands (Trust Territory) [former],Pacific Islands (Trust Territory) [former],Îles du Pacifique (territoire sous tutelle) [anc.],,,,USD,US dollar (USD),dollar des É.-U. (USD),N,2,Y,,,,,,,,,,,,,,,,,,,,,,,,
57,Micronesia,Micronésie,Area,583,Y,FSM,Micronesia (Federated States of),Micronesia (Fed. States of),Micronésie (États féd. de),22032,Palikir,Palikir,USD,US Dollar (USD),dollar des É.-U. (USD),Y,2,Y,764,Thailand,Thaïlande,410,Rep. of Korea,République de Corée,156,China,Chine,840,United States,États-Unis,608,Philippines,Philippines,156,China,Chine,S,The special trade system. See the technical notes for an explanation of the trade systems.,Le système du commerce spécial. Voir les Notes techniques pour une explication des Systèmes de commerce.,TF,Arrivals of non-resident tourists at national borders.,Arrivées de touristes non résidents aux frontières nationales.
57,Micronesia,Micronésie,Area,584,Y,MHL,Marshall Islands,Marshall Islands,Îles Marshall,22033,Majuro,Majuro,USD,US Dollar (USD),dollar des É.-U. (USD),Y,2,Y,724,Spain,Espagne,899,Areas nes,Zones nsa,840,United States,États-Unis,840,United States,États-Unis,764,Thailand,Thaïlande,156,China,Chine,G,The general trade system. See the technical notes for an explanation of the trade systems.,Le système du commerce général. Voir les Notes techniques pour une explication des Systèmes de commerce.,TF,Arrivals of non-resident tourists at national borders.,Arrivées de touristes non résidents aux frontières nationales.
57,Micronesia,Micronésie,Area,585,Y,PLW,Palau,Palau,Palaos,22034,Melekeok,Melekeok,USD,US Dollar (USD),dollar des É.-U. (USD),Y,2,Y,899,Areas nes,Zones nsa,840,United States,États-Unis,392,Japan,Japon,702,Singapore,Singapour,316,Guam,Guam,392,Japan,Japon,S,The special trade system. See the technical notes for an explanation of the trade systems.,Le système du commerce spécial. Voir les Notes techniques pour une explication des Systèmes de commerce.,TF,Arrivals of non-resident tourists at national borders.,Arrivées de touristes non résidents aux frontières nationales.
34,Southern Asia,Asie méridionale,Area,586,Y,PAK,Pakistan,Pakistan,Pakistan,22042,Islamabad,Islamabad,PKR,Pakistan Rupee (PKR),roupie pakistanaise (PKR),Y,2,Y,840,United States,États-Unis,156,China,Chine,156,China,Chine,784,United Arab Emirates,Émirats arabes unis,826,United Kingdom,Royaume-Uni,682,Saudi Arabia,Arabie saoudite,G,The general trade system. See the technical notes for an explanation of the trade systems.,Le système du commerce général. Voir les Notes techniques pour une explication des Systèmes de commerce.,TF,Arrivals of non-resident tourists at national borders.,Arrivées de touristes non résidents aux frontières nationales.
,,,Area,588,Y,,East and West Pakistan [former],East and West Pakistan [former],Pakistan oriental et est [anc.],,,,,,,N,-1,N,,,,,,,,,,,,,,,,,,,,,,,,
13,Central America,Amérique centrale,Area,590,Y,XPAN,Panama (exc. Canal Zone) [former],Panama (exc. Canal Zone) [former],"Panama, Zone du Canal exclue [anc.]",,,,PAB,Balboa (PAB),balboa (PAB),N,2,Y,,,,,,,,,,,,,,,,,,,,,,,,
13,Central America,Amérique centrale,Area,591,Y,PAN,Panama,Panama,Panama,22063,Panama City,Panama,PAB,Balboa (PAB),balboa (PAB),Y,2,Y,840,United States,États-Unis,156,China,Chine,170,Colombia,Colombie,702,Singapore,Singapour,899,Areas nes,Zones nsa,840,United States,États-Unis,S,The special trade system. See the technical notes for an explanation of the trade systems.,Le système du commerce spécial. Voir les Notes techniques pour une explication des Systèmes de commerce.,TF,Arrivals of non-resident tourists at national borders.,Arrivées de touristes non résidents aux frontières nationales.
13,Central America,Amérique centrale,Area,592,Y,PCZ,Panama Canal Zone [former],Panama Canal Zone [former],"Panama, Zone du Canal [anc.]",,,,USD,US dollar (USD),dollar des É.-U. (USD),N,2,Y,,,,,,,,,,,,,,,,,,,,,,,,
,,,Agency,593,Y,,Development Assistance Committee (DAC),DAC total,CAD total,,,,,,,N,1,N,,,,,,,,,,,,,,,,,,,,,,,,
,,,Group,594,Y,,Commonwealth of Nations,Commonwealth of Nations,Commonwealth des Nations,,,,,,,N,2,N,,,,,,,,,,,,,,,,,,,,,,,,
,,,Group,595,Y,,Bangkok Agreement,Bangkok Agreement,...,,,,,,,N,2,N,,,,,,,,,,,,,,,,,,,,,,,,
45,Melanesia [former],Mélanésie [anc.],Area,596,Y,,Papua [former],Papua [former],Papua [anc.],,,,PGK,Kina (PGK),kina (PGK),N,2,Y,,,,,,,,,,,,,,,,,,,,,,,,
,,,Group,597,Y,,Andean Integration Group,Andean Integration Group,Groupe de l'intégration a,,,,,,,N,2,N,,,,,,,,,,,,,,,,,,,,,,,,
54,Melanesia,Mélanésie,Area,598,Y,PNG,Papua New Guinea,Papua New Guinea,Papouasie-Nvl-Guinée,22064,Port Moresby,Port Moresby,PGK,Kina (PGK),kina (PGK),Y,2,Y,392,Japan,Japon,36,Australia,Australie,36,Australia,Australie,156,China,Chine,156,China,Chine,702,Singapore,Singapour,G,The general trade system. See the technical notes for an explanation of the trade systems.,Le système du commerce général. Voir les Notes techniques pour une explication des Systèmes de commerce.,TF,Arrivals of non-resident tourists at national borders.,Arrivées de touristes non résidents aux frontières nationales.
5,South America,Amérique du Sud,Area,600,Y,PRY,Paraguay,Paraguay,Paraguay,22065,Asunción,Asunción,PYG,Guarani (PYG),guaraní (PYG),Y,2,Y,76,Brazil,Brésil,156,China,Chine,32,Argentina,Argentine,76,Brazil,Brésil,643,Russian Federation,Fédération de Russie,32,Argentina,Argentine,S,The special trade system. See the technical notes for an explanation of the trade systems.,Le système du commerce spécial. Voir les Notes techniques pour une explication des Systèmes de commerce.,TF,Arrivals of non-resident tourists at national borders.,Arrivées de touristes non résidents aux frontières nationales.
,,,Group,602,Y,,Patent Cooperation Treaty (PCT),PCT,TCB,,,,,,,N,2,N,,,,,,,,,,,,,,,,,,,,,,,,
5,South America,Amérique du Sud,Area,604,Y,PER,Peru,Peru,Pérou,22078,Lima,Lima,PEN,Sol (PEN),sol (PEN),Y,2,Y,156,China,Chine,156,China,Chine,840,United States,États-Unis,840,United States,États-Unis,756,Switzerland,Suisse,76,Brazil,Brésil,S,The special trade system. See the technical notes for an explanation of the trade systems.,Le système du commerce spécial. Voir les Notes techniques pour une explication des Systèmes de commerce.,TF,Arrivals of non-resident tourists at national borders.,Arrivées de touristes non résidents aux frontières nationales.
35,South-eastern Asia,Asie du Sud-Est,Area,608,Y,PHL,Philippines,Philippines,Philippines,22109,Manila,Manille,PHP,Philippine Piso (PHP),piso philippin (PHP),Y,2,Y,840,United States,États-Unis,156,China,Chine,344,"China, Hong Kong SAR","Chine, RAS Hong Kong",410,Rep. of Korea,République de Corée,392,Japan,Japon,392,Japan,Japon,G,The general trade system. See the technical notes for an explanation of the trade systems.,Le système du commerce général. Voir les Notes techniques pour une explication des Systèmes de commerce.,TF,Arrivals of non-resident tourists at national borders.,Arrivées de touristes non résidents aux frontières nationales.
61,Polynesia,Polynésie,Area,612,Y,PCN,Pitcairn,Pitcairn,Pitcairn,,,,NZD,New Zealand dollar (NZD),dollar néo-zélandais (NZD),Y,2,Y,,,,,,,,,,,,,,,,,,,,,,,,
151,Eastern Europe,Europe orientale,Area,616,Y,POL,Poland,Poland,Pologne,22161,Warsaw,Varsovie,PLN,Zloty (PLN),zloty (PLN),Y,2,Y,276,Germany,Allemagne,276,Germany,Allemagne,826,United Kingdom,Royaume-Uni,156,China,Chine,203,Czechia,Tchéquie,643,Russian Federation,Fédération de Russie,S,The special trade system. See the technical notes for an explanation of the trade systems.,Le système du commerce spécial. Voir les Notes techniques pour une explication des Systèmes de commerce.,TF,Arrivals of non-resident tourists at national borders.,Arrivées de touristes non résidents aux frontières nationales.
39,Southern Europe,Europe méridionale,Area,620,Y,PRT,Portugal,Portugal,Portugal,22167,Lisbon,Lisbonne,EUR,Euro (EUR),euro (EUR),Y,2,Y,724,Spain,Espagne,724,Spain,Espagne,250,France,France,276,Germany,Allemagne,276,Germany,Allemagne,250,France,France,S,The special trade system. See the technical notes for an explanation of the trade systems.,Le système du commerce spécial. Voir les Notes techniques pour une explication des Systèmes de commerce.,TCE,Arrivals of non-resident tourists in all types of tourism accommodation establishments.,Arrivées de touristes non résidents dans tous les types d'établissements d'hébergement touristique.
11,Western Africa,Afrique occidentale,Area,624,Y,GNB,Guinea-Bissau,Guinea-Bissau,Guinée-Bissau,22171,Bissau,Bissau,XOF,"CFA Franc, BCEAO (XOF)","franc CFA, BCEAO (XOF)",Y,2,Y,356,India,Inde,620,Portugal,Portugal,704,Viet Nam,Viet Nam,686,Senegal,Sénégal,768,Togo,Togo,156,China,Chine,G,The general trade system. See the technical notes for an explanation of the trade systems.,Le système du commerce général. Voir les Notes techniques pour une explication des Systèmes de commerce.,TF,Arrivals of non-resident tourists at national borders.,Arrivées de touristes non résidents aux frontières nationales.
35,South-eastern Asia,Asie du Sud-Est,Area,626,Y,TLS,Timor-Leste,Timor-Leste,Timor-Leste,22172,Dili,Dili,USD,US Dollar (USD),dollar des É.-U. (USD),Y,2,Y,360,Indonesia,Indonésie,360,Indonesia,Indonésie,840,United States,États-Unis,156,China,Chine,276,Germany,Allemagne,702,Singapore,Singapour,S,The special trade system. See the technical notes for an explanation of the trade systems.,Le système du commerce spécial. Voir les Notes techniques pour une explication des Systèmes de commerce.,TF,Arrivals of non-resident tourists at national borders.,Arrivées de touristes non résidents aux frontières nationales.
,,,Group,627,Y,,Preferential Trade Area for Eastern and Southern African States (PTA),,,,,,,,,N,2,N,,,,,,,,,,,,,,,,,,,,,,,,
29,Caribbean,Caraïbes,Area,630,Y,PRI,Puerto Rico,Puerto Rico,Porto Rico,22177,San Juan,San Juan,USD,US Dollar (USD),dollar des É.-U. (USD),Y,2,Y,,,,,,,,,,,,,,,,,,,,,,TF,Arrivals of non-resident tourists at national borders.,Arrivées de touristes non résidents aux frontières nationales.
,,,Agency,633,Y,,FAO Regional Office for Asia and the Pacific (RAPA),,,,,,,,,N,1,N,,,,,,,,,,,,,,,,,,,,,,,,
145,Western Asia,Asie occidentale,Area,634,Y,QAT,Qatar,Qatar,Qatar,22179,Doha,Doha,QAR,Qatari Rial (QAR),riyal qatari (QAR),Y,2,Y,392,Japan,Japon,840,United States,États-Unis,410,Rep. of Korea,République de Corée,156,China,Chine,356,India,Inde,276,Germany,Allemagne,S,The special trade system. See the technical notes for an explanation of the trade systems.,Le système du commerce spécial. Voir les Notes techniques pour une explication des Systèmes de commerce.,TF,Arrivals of non-resident tourists at national borders.,Arrivées de touristes non résidents aux frontières nationales.
,,,Region,636,Y,,Americas not elsewhere specified,Americas n.e.s,Amériques n.s.a,,,,,,,Y,3,Y,,,,,,,,,,,,,,,,,,,,,,,,
14,Eastern Africa,Afrique orientale,Area,638,Y,REU,Réunion,Réunion,Réunion,22180,Saint-Denis,Saint-Denis,EUR,Euro (EUR),euro (EUR),Y,2,Y,,,,,,,,,,,,,,,,,,,S,The special trade system. See the technical notes for an explanation of the trade systems.,Le système du commerce spécial. Voir les Notes techniques pour une explication des Systèmes de commerce.,TF,Arrivals of non-resident tourists at national borders.,Arrivées de touristes non résidents aux frontières nationales.
151,Eastern Europe,Europe orientale,Area,642,Y,ROU,Romania,Romania,Roumanie,22191,Bucharest,Bucarest,RON,Romanian Leu (RON),leu roumain (RON),Y,2,Y,276,Germany,Allemagne,276,Germany,Allemagne,380,Italy,Italie,380,Italy,Italie,250,France,France,348,Hungary,Hongrie,S,The special trade system. See the technical notes for an explanation of the trade systems.,Le système du commerce spécial. Voir les Notes techniques pour une explication des Systèmes de commerce.,VF,Arrivals of non-resident visitors at national borders.,Arrivées de visiteurs non résidents aux frontières nationales.
151,Eastern Europe,Europe orientale,Area,643,Y,RUS,Russian Federation,Russian Federation,Fédération de Russie,22299,Moscow,Moscou,RUB,Russian Ruble (RUB),ruble russe (RUB),Y,2,Y,899,Areas nes,Zones nsa,156,China,Chine,156,China,Chine,276,Germany,Allemagne,528,Netherlands,Pays-Bas,840,United States,États-Unis,G,The general trade system. See the technical notes for an explanation of the trade systems.,Le système du commerce général. Voir les Notes techniques pour une explication des Systèmes de commerce.,VF,Arrivals of non-resident visitors at national borders.,Arrivées de visiteurs non résidents aux frontières nationales.
,,,Agency,644,Y,,Caribbean Development Bank (CDB),CDB,,,,,,,,N,1,N,,,,,,,,,,,,,,,,,,,,,,,,
,,,Area,645,Y,,Ruanda-Urundi [former],Ruanda - Urundi [former],Ruanda - Urundi [anc.],,,,,,,N,-1,N,,,,,,,,,,,,,,,,,,,,,,,,
14,Eastern Africa,Afrique orientale,Area,646,Y,RWA,Rwanda,Rwanda,Rwanda,22404,Kigali,Kigali,RWF,Rwanda Franc (RWF),franc rwandais (RWF),Y,2,Y,180,Dem.Rep. of the Congo,Rép. Dém. du Congo,156,China,Chine,404,Kenya,Kenya,800,Uganda,Ouganda,784,United Arab Emirates,Émirats arabes unis,404,Kenya,Kenya,G,The general trade system. See the technical notes for an explanation of the trade systems.,Le système du commerce général. Voir les Notes techniques pour une explication des Systèmes de commerce.,TF,Arrivals of non-resident tourists at national borders.,Arrivées de touristes non résidents aux frontières nationales.
,,,Area,647,N,,Japan (Okinawa),[use code 392 and footnote],[use code 392 and footnote],,,,,,,N,3,N,,,,,,,,,,,,,,,,,,,,,,,,
,,,Agency,648,N,,African Development Bank (AfDB),African Development Bank (AfDB),...,,,,,,,N,1,N,,,,,,,,,,,,,,,,,,,,,,,,
,,,Agency,649,Y,,Asian Development Bank (ADB),Asian Development Bank (ADB),,,,,,,,N,1,N,,,,,,,,,,,,,,,,,,,,,,,,
30,Eastern Asia,Asie orientale,Area,650,Y,,Ryukyu Islands [former],Ryukyu Islands [former],Îles Ryû-kyû [anc.],,,,,,,N,2,Y,,,,,,,,,,,,,,,,,,,,,,,,
,,,Agency,651,Y,,Inter-American Development Bank (IDB),Inter-American Developmen,Banque Interaméricaine de,,,,,,,N,1,N,,,,,,,,,,,,,,,,,,,,,,,,
29,Caribbean,Caraïbes,Area,652,Y,BLM,Saint Barthélemy,Saint Barthélemy,Saint-Barthélemy,,,,EUR,Euro (EUR),euro (EUR),Y,2,Y,,,,,,,,,,,,,,,,,,,,,,,,
,,,Area,653,N,,Saint Helena (exc. Dependencies),[use code 654 and footnote],[use code 654 and footnote],,,,,,,N,3,N,,,,,,,,,,,,,,,,,,,,,,,,
11,Western Africa,Afrique occidentale,Area,654,Y,SHN,Saint Helena,Saint Helena,Sainte-Hélène,22405,Jamestown,Jamestown,SHP,Saint Helena Pound (SHP),livre de Sainte-Hélène (SHP),Y,2,Y,840,United States,États-Unis,826,United Kingdom,Royaume-Uni,422,Lebanon,Liban,710,South Africa,Afrique du Sud,392,Japan,Japon,300,Greece,Grèce,G,The general trade system. See the technical notes for an explanation of the trade systems.,Le système du commerce général. Voir les Notes techniques pour une explication des Systèmes de commerce.,,,
11,Western Africa,Afrique occidentale,Area,655,N,,Saint Helena (Ascension),Ascension,Ascension,,,,SHP,Saint Helena Pound (SHP),livre de Sainte-Hélène (SHP),Y,3,N,,,,,,,,,,,,,,,,,,,,,,,,
11,Western Africa,Afrique occidentale,Area,656,N,,Saint Helena (Tristan da Cunha),Tristan da Cunha,Tristan da Cunha,,,,SHP,Saint Helena Pound (SHP),livre de Sainte-Hélène (SHP),Y,3,N,,,,,,,,,,,,,,,,,,,,,,,,
,,,Area,657,Y,,"Saint Helena, others",,,,,,SHP,Saint Helena Pound (SHP),livre de Sainte-Hélène (SHP),N,3,N,,,,,,,,,,,,,,,,,,,,,,,,
29,Caribbean,Caraïbes,Area,658,Y,XKNA,Saint Kitts-Nevis-Anguilla [former],Saint Kitts-Nevis-Anguilla [former],Saint-Christophe-et-Nièves et Anguilla [anc.],,,,XCD,E. Caribbean Dollar (XCD),dollar des Caraïb. (XCD),N,2,Y,,,,,,,,,,,,,,,,,,,,,,,,
29,Caribbean,Caraïbes,Area,659,Y,KNA,Saint Kitts and Nevis,Saint Kitts and Nevis,Saint-Kitts-et-Nevis,22406,Basseterre,Basseterre,XCD,E. Caribbean Dollar (XCD),dollar des Caraïb. (XCD),Y,2,Y,840,United States,États-Unis,840,United States,États-Unis,662,Saint Lucia,Sainte-Lucie,780,Trinidad and Tobago,Trinité-et-Tobago,780,Trinidad and Tobago,Trinité-et-Tobago,124,Canada,Canada,S,The special trade system. See the technical notes for an explanation of the trade systems.,Le système du commerce spécial. Voir les Notes techniques pour une explication des Systèmes de commerce.,TF,Arrivals of non-resident tourists at national borders.,Arrivées de touristes non résidents aux frontières nationales.
29,Caribbean,Caraïbes,Area,660,Y,AIA,Anguilla,Anguilla,Anguilla,22407,The Valley,The Valley,XCD,E. Caribbean Dollar (XCD),dollar des Caraïb. (XCD),Y,2,Y,764,Thailand,Thaïlande,840,United States,États-Unis,840,United States,États-Unis,250,France,France,152,Chile,Chili,616,Poland,Pologne,S,The special trade system. See the technical notes for an explanation of the trade systems.,Le système du commerce spécial. Voir les Notes techniques pour une explication des Systèmes de commerce.,TF,Arrivals of non-resident tourists at national borders.,Arrivées de touristes non résidents aux frontières nationales.
29,Caribbean,Caraïbes,Area,662,Y,LCA,Saint Lucia,Saint Lucia,Sainte-Lucie,22408,Castries,Castries,XCD,E. Caribbean Dollar (XCD),dollar des Caraïb. (XCD),Y,2,Y,840,United States,États-Unis,840,United States,États-Unis,780,Trinidad and Tobago,Trinité-et-Tobago,780,Trinidad and Tobago,Trinité-et-Tobago,899,Areas nes,Zones nsa,899,Areas nes,Zones nsa,S,The special trade system. See the technical notes for an explanation of the trade systems.,Le système du commerce spécial. Voir les Notes techniques pour une explication des Systèmes de commerce.,TF,Arrivals of non-resident tourists at national borders.,Arrivées de touristes non résidents aux frontières nationales.
29,Caribbean,Caraïbes,Area,663,Y,MAF,Saint Martin (French part),Saint Martin (French part),St-Martin (partie française),,,,EUR,Euro (EUR),euro (EUR),Y,2,Y,,,,,,,,,,,,,,,,,,,,,,,,
21,Northern America,Amérique septentrionale,Area,666,Y,SPM,Saint Pierre and Miquelon,Saint Pierre and Miquelon,Saint-Pierre-et-Miquelon,22409,Saint-Pierre,Saint-Pierre,EUR,Euro (EUR),euro (EUR),Y,2,Y,124,Canada,Canada,250,France,France,729,Sudan,Soudan,124,Canada,Canada,250,France,France,528,Netherlands,Pays-Bas,S,The special trade system. See the technical notes for an explanation of the trade systems.,Le système du commerce spécial. Voir les Notes techniques pour une explication des Systèmes de commerce.,,,
29,Caribbean,Caraïbes,Area,667,N,,"Bonaire, Sint Eustatius and Saba (Saba)",Saba,Saba,,,,USD,US Dollar (USD),dollar des É.-U. (USD),Y,3,N,,,,,,,,,,,,,,,,,,,,,,TF,Arrivals of non-resident tourists at national borders.,Arrivées de touristes non résidents aux frontières nationales.
29,Caribbean,Caraïbes,Area,668,N,,"Bonaire, Sint Eustatius and Saba (Sint Eustatius)",Sint Eustatius,Saint-Eustache,,,,USD,US Dollar (USD),dollar des É.-U. (USD),Y,3,N,,,,,,,,,,,,,,,,,,,,,,TF,Arrivals of non-resident tourists at national borders.,Arrivées de touristes non résidents aux frontières nationales.
29,Caribbean,Caraïbes,Area,669,N,,"Bonaire, Sint Eustatius and Saba (Bonaire)",Bonaire,Bonaire,,,,USD,US Dollar (USD),dollar des É.-U. (USD),Y,3,N,,,,,,,,,,,,,,,,,,,,,,TF,Arrivals of non-resident tourists at national borders.,Arrivées de touristes non résidents aux frontières nationales.
29,Caribbean,Caraïbes,Area,670,Y,VCT,Saint Vincent and the Grenadines,Saint Vincent & Grenadines,Saint-Vincent-Grenadines,22410,Kingstown,Kingstown,XCD,E. Caribbean Dollar (XCD),dollar des Caraïb. (XCD),Y,2,Y,52,Barbados,Barbade,840,United States,États-Unis,662,Saint Lucia,Sainte-Lucie,780,Trinidad and Tobago,Trinité-et-Tobago,212,Dominica,Dominique,826,United Kingdom,Royaume-Uni,S,The special trade system. See the technical notes for an explanation of the trade systems.,Le système du commerce spécial. Voir les Notes techniques pour une explication des Systèmes de commerce.,TF,Arrivals of non-resident tourists at national borders.,Arrivées de touristes non résidents aux frontières nationales.
39,Southern Europe,Europe méridionale,Area,674,Y,SMR,San Marino,San Marino,Saint-Marin,22411,San Marino,Saint-Marin,EUR,Euro (EUR),euro (EUR),Y,2,Y,,,,,,,,,,,,,,,,,,,,,,THS,Arrivals of non-resident tourists in hotels and similar establishments.,Arrivées de touristes non résidents dans les hôtels et établissements similaires.
17,Middle Africa,Afrique centrale,Area,678,Y,STP,Sao Tome and Principe,Sao Tome and Principe,Sao Tomé-et-Principe,22412,Sao Tome,Sao Tomé,STN,Dobra (STN),dobra (STN),Y,2,Y,528,Netherlands,Pays-Bas,620,Portugal,Portugal,724,Spain,Espagne,24,Angola,Angola,250,France,France,156,China,Chine,S,The special trade system. See the technical notes for an explanation of the trade systems.,Le système du commerce spécial. Voir les Notes techniques pour une explication des Systèmes de commerce.,TF,Arrivals of non-resident tourists at national borders.,Arrivées de touristes non résidents aux frontières nationales.
154,Northern Europe,Europe septentrionale,Area,680,Y,,Sark,Sark,Sercq,,,,GBP,Pound Sterling (GBP),livre sterling (GBP),Y,2,Y,,,,,,,,,,,,,,,,,,,,,,,,
145,Western Asia,Asie occidentale,Area,682,Y,SAU,Saudi Arabia,Saudi Arabia,Arabie saoudite,22432,Riyadh,Riyad,SAR,Saudi Riyal (SAR),rial saoudien (SAR),Y,2,Y,899,Areas nes,Zones nsa,156,China,Chine,784,United Arab Emirates,Émirats arabes unis,840,United States,États-Unis,156,China,Chine,276,Germany,Allemagne,S,The special trade system. See the technical notes for an explanation of the trade systems.,Le système du commerce spécial. Voir les Notes techniques pour une explication des Systèmes de commerce.,TF,Arrivals of non-resident tourists at national borders.,Arrivées de touristes non résidents aux frontières nationales.
,,,Area,684,Y,,Saudi Arabia (Neutral Zone),,,,,,SAR,Saudi Riyal (SAR),rial saoudien (SAR),N,3,N,,,,,,,,,,,,,,,,,,,,,,,,
,,,Area,685,N,,Denmark-Norway-Sweden,Scandinavia,Scandinavie,,,,,,,Y,-1,N,,,,,,,,,,,,,,,,,,,,,,,,
11,Western Africa,Afrique occidentale,Area,686,Y,SEN,Senegal,Senegal,Sénégal,22439,Dakar,Dakar,XOF,"CFA Franc, BCEAO (XOF)","franc CFA, BCEAO (XOF)",Y,2,Y,466,Mali,Mali,250,France,France,756,Switzerland,Suisse,156,China,Chine,837,Bunkers,Com. de soute,566,Nigeria,Nigéria,G,The general trade system. See the technical notes for an explanation of the trade systems.,Le système du commerce général. Voir les Notes techniques pour une explication des Systèmes de commerce.,TF,Arrivals of non-resident tourists at national borders.,Arrivées de touristes non résidents aux frontières nationales.
39,Southern Europe,Europe méridionale,Area,688,Y,SRB,Serbia,Serbia,Serbie,23241,Belgrade,Belgrade,RSD,Serbian Dinar (RSD),dinar de Serbie (RSD),Y,2,Y,380,Italy,Italie,276,Germany,Allemagne,276,Germany,Allemagne,380,Italy,Italie,70,Bosnia Herzegovina,Bosnie-Herzégovine,156,China,Chine,S,The special trade system. See the technical notes for an explanation of the trade systems.,Le système du commerce spécial. Voir les Notes techniques pour une explication des Systèmes de commerce.,TCE,Arrivals of non-resident tourists in all types of tourism accommodation establishments.,Arrivées de touristes non résidents dans tous les types d'établissements d'hébergement touristique.
,,,Agency,689,Y,,Bank for International Settlements (BIS),BIS,BSI,,,,,,,N,1,N,,,,,,,,,,,,,,,,,,,,,,,,
14,Eastern Africa,Afrique orientale,Area,690,Y,SYC,Seychelles,Seychelles,Seychelles,22444,Victoria,Victoria,SCR,Seychelles Rupee (SCR),roupie seychelloise (SCR),Y,2,Y,784,United Arab Emirates,Émirats arabes unis,784,United Arab Emirates,Émirats arabes unis,250,France,France,724,Spain,Espagne,826,United Kingdom,Royaume-Uni,250,France,France,G,The general trade system. See the technical notes for an explanation of the trade systems.,Le système du commerce général. Voir les Notes techniques pour une explication des Systèmes de commerce.,TF,Arrivals of non-resident tourists at national borders.,Arrivées de touristes non résidents aux frontières nationales.
,,,Group,692,Y,,Economic and Monetary Community of Central Africa (EMCCA),EMCCA§,CEMAC§,,,,,,,Y,2,Y,,,,,,,,,,,,,,,,,,,,,,,,
,,,Group,693,Y,,West African Economic Community (WAEC),West African Economic Com,Communauté économique de,,,,,,,N,2,N,,,,,,,,,,,,,,,,,,,,,,,,
11,Western Africa,Afrique occidentale,Area,694,Y,SLE,Sierra Leone,Sierra Leone,Sierra Leone,22445,Freetown,Freetown,SLL,Leone (SLL),leone (SLL),Y,2,Y,528,Netherlands,Pays-Bas,156,China,Chine,156,China,Chine,356,India,Inde,384,Côte d'Ivoire,Côte d'Ivoire,792,Turkey,Turquie,S,The special trade system. See the technical notes for an explanation of the trade systems.,Le système du commerce spécial. Voir les Notes techniques pour une explication des Systèmes de commerce.,TF,Arrivals of non-resident tourists at national borders.,Arrivées de touristes non résidents aux frontières nationales.
,,,Group,695,Y,,Mano River Union (MRU),Mano River Union (MARIUN),Union du fleuve Mano (UFM,,,,,,,N,2,N,,,,,,,,,,,,,,,,,,,,,,,,
,,,Group,697,Y,,European Free Trade Association (EFTA) not elsewhere specified,EFTA n.e.s,"AELE, n.s.a",,,,,,,N,3,Y,,,,,,,,,,,,,,,,,,,,,,,,
33,Southern Asia [former],Asie méridionale [anc.],Area,698,Y,SKM,Sikkim [former],Sikkim [former],Sikkim [anc.],,,,INR,Indian Rupee (INR),roupie indienne (INR),N,2,Y,,,,,,,,,,,,,,,,,,,,,,,,
34,Southern Asia,Asie méridionale,Area,699,N,,India (exc. Sikkim) [former],[use code 356 and footnote],[use code 356 and footnote],,,,,,,N,-1,N,,,,,,,,,,,,,,,,,,,,,,,,
35,South-eastern Asia,Asie du Sud-Est,Area,702,Y,SGP,Singapore,Singapore,Singapour,22447,Singapore,Singapour,SGD,Singapore Dollar (SGD),dollar singapourien (SGD),Y,2,Y,156,China,Chine,156,China,Chine,344,"China, Hong Kong SAR","Chine, RAS Hong Kong",458,Malaysia,Malaisie,458,Malaysia,Malaisie,840,United States,États-Unis,G,The general trade system. See the technical notes for an explanation of the trade systems.,Le système du commerce général. Voir les Notes techniques pour une explication des Systèmes de commerce.,TF,Arrivals of non-resident tourists at national borders.,Arrivées de touristes non résidents aux frontières nationales.
151,Eastern Europe,Europe orientale,Area,703,Y,SVK,Slovakia,Slovakia,Slovaquie,22448,Bratislava,Bratislava,EUR,Euro (EUR),euro (EUR),Y,2,Y,276,Germany,Allemagne,276,Germany,Allemagne,203,Czechia,Tchéquie,203,Czechia,Tchéquie,616,Poland,Pologne,568,Europe nes,Europe nsa,S,The special trade system. See the technical notes for an explanation of the trade systems.,Le système du commerce spécial. Voir les Notes techniques pour une explication des Systèmes de commerce.,TCE,Arrivals of non-resident tourists at national borders.,Arrivées de touristes non résidents aux frontières nationales.
35,South-eastern Asia,Asie du Sud-Est,Area,704,Y,VNM,Viet Nam,Viet Nam,Viet Nam,22457,Hanoi,Hanoï,VND,Dong (VND),dong (VND),Y,2,Y,840,United States,États-Unis,156,China,Chine,156,China,Chine,410,Rep. of Korea,République de Corée,392,Japan,Japon,392,Japan,Japon,G,The general trade system. See the technical notes for an explanation of the trade systems.,Le système du commerce général. Voir les Notes techniques pour une explication des Systèmes de commerce.,VF,Arrivals of non-resident visitors at national borders.,Arrivées de visiteurs non résidents aux frontières nationales.
39,Southern Europe,Europe méridionale,Area,705,Y,SVN,Slovenia,Slovenia,Slovénie,22474,Ljubljana,Ljubljana,EUR,Euro (EUR),euro (EUR),Y,2,Y,276,Germany,Allemagne,276,Germany,Allemagne,380,Italy,Italie,380,Italy,Italie,191,Croatia,Croatie,40,Austria,Autriche,S,The special trade system. See the technical notes for an explanation of the trade systems.,Le système du commerce spécial. Voir les Notes techniques pour une explication des Systèmes de commerce.,TCE,Arrivals of non-resident tourists in all types of tourism accommodation establishments.,Arrivées de touristes non résidents dans tous les types d'établissements d'hébergement touristique.
14,Eastern Africa,Afrique orientale,Area,706,Y,SOM,Somalia,Somalia,Somalie,22477,Mogadishu,Mogadiscio,SOS,Somali Shilling (SOS),shilling somalien (SOS),Y,2,Y,682,Saudi Arabia,Arabie saoudite,156,China,Chine,512,Oman,Oman,356,India,Inde,784,United Arab Emirates,Émirats arabes unis,512,Oman,Oman,G,The general trade system. See the technical notes for an explanation of the trade systems.,Le système du commerce général. Voir les Notes techniques pour une explication des Systèmes de comme,,,
,,,Area,707,Y,,"Somaliland Protectorate, British [former]","Somaliland Protectorate, British [former]",Somalie protecto [anc.],,,,SOS,Somali Shilling (SOS),shilling somalien (SOS),N,3,N,,,,,,,,,,,,,,,,,,,,,,,,
,,,Area,708,Y,,Italian Trusteeship Territory of Somalia [former],Italian Trust Terr.of Somalia [former],Somalie italienne [anc.],,,,SOS,Somali Shilling (SOS),shilling somalien (SOS),N,3,N,,,,,,,,,,,,,,,,,,,,,,,,
,,,Region,709,Y,,South-eastern Asia not elsewhere specified,South-eastern Asia n.e.s,Asie sud-orientale n.s.a,,,,,,,N,3,N,,,,,,,,,,,,,,,,,,,,,,,,
18,Southern Africa,Afrique australe,Area,710,Y,ZAF,South Africa,South Africa,Afrique du Sud,22501,Pretoria,Pretoria,ZAR,Rand (ZAR),rand (ZAR),Y,2,Y,156,China,Chine,156,China,Chine,840,United States,États-Unis,276,Germany,Allemagne,276,Germany,Allemagne,840,United States,États-Unis,G,The general trade system. See the technical notes for an explanation of the trade systems.,Le système du commerce général. Voir les Notes techniques pour une explication des Systèmes de commerce.,TF,Arrivals of non-resident tourists at national borders.,Arrivées de touristes non résidents aux frontières nationales.
,,,Group,711,Y,,Southern African Customs Union (SACU),Southern African Customs Union (SACU),Union douanière d'Afrique australe,,,,ZAR,Rand (ZAR),rand (ZAR),Y,2,Y,,,,,,,,,,,,,,,,,,,,,,,,
,,,Area,712,Y,,South Africa-Namibia,[use code 710 and footnote],[use code 710 and footnote],,,,,,,N,-1,N,,,,,,,,,,,,,,,,,,,,,,,,
,,,Region,713,Y,,Southern Africa not elsewhere specified,Southern Africa n.e.s,Afrique australe n.s.a,,,,,,,N,3,N,,,,,,,,,,,,,,,,,,,,,,,,
,,,Region,714,Y,,Southern Asia not elsewhere specified,Southern Asia n.e.s,Asie méridionale n.s.a,,,,,,,N,3,N,,,,,,,,,,,,,,,,,,,,,,,,
,,,Region,715,Y,,Southern Europe not elsewhere specified,Southern Europe n.e.s,Europe méridionale n.s.a,,,,,,,N,3,N,,,,,,,,,,,,,,,,,,,,,,,,
14,Eastern Africa,Afrique orientale,Area,716,Y,ZWE,Zimbabwe,Zimbabwe,Zimbabwe,22513,Harare,Harare,ZWL,Zimbabwe Dollar (ZWL),dollar du Zimbabwe (ZWL),Y,2,Y,710,South Africa,Afrique du Sud,710,South Africa,Afrique du Sud,784,United Arab Emirates,Émirats arabes unis,702,Singapore,Singapour,899,Areas nes,Zones nsa,156,China,Chine,G,The general trade system. See the technical notes for an explanation of the trade systems.,Le système du commerce général. Voir les Notes techniques pour une explication des Systèmes de commerce.,VF,Arrivals of non-resident visitors at national borders.,Arrivées de visiteurs non résidents aux frontières nationales.
,,,Area,717,Y,,Rhodesia-Nyasaland [former],Rhodesia-Nyasaland [former],Rhodésie-Nyassaland [anc.],,,,,,,N,-1,N,,,,,,,,,,,,,,,,,,,,,,,,
,,,Group,718,Y,,"Australia, New Zealand and South Africa","Australia,N Zealand & SAfrica","Australie, Nouvelle-Zélan",,,,,,,N,1,N,,,,,,,,,,,,,,,,,,,,,,,,
,,,Group,719,Y,,"Israel, Japan and South Africa","Israel, Japan and South A","Israël, Japon et Afrique",,,,,,,N,1,N,,,,,,,,,,,,,,,,,,,,,,,,
37,Western Asia [former],Asie occidentale [anc.],Area,720,Y,YMD,Democratic Yemen [former],Dem. Yemen [former],Yémen dém. [anc.],,,,YDD,Yemeni Dinar (YDD),rial yéménite (YDD),N,2,Y,,,,,,,,,,,,,,,,,,,,,,,,
,,,Group,722,Y,,Small island developing States (SIDS),SIDS,PEID,,,,,,,N,2,Y,,,,,,,,,,,,,,,,,,,,,,,,
39,Southern Europe,Europe méridionale,Area,724,Y,ESP,Spain,Spain,Espagne,22549,Madrid,Madrid,EUR,Euro (EUR),euro (EUR),Y,2,Y,250,France,France,276,Germany,Allemagne,276,Germany,Allemagne,250,France,France,380,Italy,Italie,156,China,Chine,S,The special trade system. See the technical notes for an explanation of the trade systems.,Le système du commerce spécial. Voir les Notes techniques pour une explication des Systèmes de commerce.,TF,Arrivals of non-resident tourists at national borders.,Arrivées de touristes non résidents aux frontières nationales.
,,,Area,725,Y,,Spain (Canary Islands),Canary Islands,Iles Canaries,,,,EUR,Euro (EUR),euro (EUR),N,3,N,,,,,,,,,,,,,,,,,,,,,,,,
,,,Area,727,Y,,Ceuta and Melilla (Spanish North Africa),Ceuta and Melilla,Ceuta-et-Melilla,,,,,,,N,3,Y,,,,,,,,,,,,,,,,,,,,,,,,
14,Eastern Africa,Afrique orientale,Area,728,Y,SSD,South Sudan,South Sudan,Soudan du sud,22577,Juba,Djouba,SSP,S. Sudanese Pound (SSP),livre s.-soudanaise (SSP),Y,2,Y,156,China,Chine,800,Uganda,Ouganda,356,India,Inde,404,Kenya,Kenya,586,Pakistan,Pakistan,156,China,Chine,G,The general trade system. See the technical notes for an explanation of the trade systems.,Le système du commerce général. Voir les Notes techniques pour une explication des Systèmes de commerce.,,,
15,Northern Africa,Afrique septentrionale,Area,729,Y,SDN,Sudan,Sudan,Soudan,22579,Khartoum,Khartoum,SDG,Sudanese Pound (SDG),livre soudanaise (SDG),Y,2,Y,784,United Arab Emirates,Émirats arabes unis,156,China,Chine,156,China,Chine,784,United Arab Emirates,Émirats arabes unis,682,Saudi Arabia,Arabie saoudite,682,Saudi Arabia,Arabie saoudite,G,The general trade system. See the technical notes for an explanation of the trade systems.,Le système du commerce général. Voir les Notes techniques pour une explication des Systèmes de commerce.,TF,Arrivals of non-resident tourists at national borders.,Arrivées de touristes non résidents aux frontières nationales.
,,,Agency,730,Y,,Economic and Social Commission for Asia and the Pacific (ESCAP),Economic and Social Commi,Commission Economique et,,,,,,,N,1,N,,,,,,,,,,,,,,,,,,,,,,,,
,,,Agency,731,Y,,Economic and Social Commission for Western Asia (ESCWA),Economic and Social Commi,Commission Economique et,,,,,,,N,1,N,,,,,,,,,,,,,,,,,,,,,,,,
15,Northern Africa,Afrique septentrionale,Area,732,Y,ESH,Western Sahara,Western Sahara,Sahara occidental,22571,El Aaiún,El Aaiún,MAD,Moroccan Dirham (MAD),dirham marocain (MAD),Y,2,Y,,,,,,,,,,,,,,,,,,,,,,,,
,,,Agency,733,Y,,Economic Commission for Africa (ECA),Economic Commission for A,Commission Economique pou,,,,,,,N,1,N,,,,,,,,,,,,,,,,,,,,,,,,
,,,Agency,734,Y,,Economic Commission for Europe (ECE),Economic Commission for E,Commission Economique pou,,,,,,,N,1,N,,,,,,,,,,,,,,,,,,,,,,,,
,,,Agency,735,Y,,Economic Commission for Latin America and the Caribbean (ECLAC),Economic Commission for L,Commission Economique pou,,,,,,,N,1,N,,,,,,,,,,,,,,,,,,,,,,,,
15,Northern Africa,Afrique septentrionale,Area,736,Y,XSDN,Sudan [former],Sudan [former],Soudan [anc.],,,,SDG,Sudanese pound (SDG),livre soudanaise (SDG),N,2,Y,,,,,,,,,,,,,,,,,,,G,The general trade system. See the technical notes for an explanation of the trade systems.,Le système du commerce général. Voir les Notes techniques pour une explication des Systèmes de commerce.,TF,Arrivals of non-resident tourists at national borders.,Arrivées de touristes non résidents aux frontières nationales.
,,,Group,738,N,,Sub-Saharan Africa (inc. Sudan), [use code 202 and footnote], [use code 202 and footnote],,,,,,,Y,1,N,,,,,,,,,,,,,,,,,,,,,,,,
5,South America,Amérique du Sud,Area,740,Y,SUR,Suriname,Suriname,Suriname,22587,Paramaribo,Paramaribo,SRD,Surinam Dollar (SRD),dollar surinamais (SRD),Y,2,Y,756,Switzerland,Suisse,840,United States,États-Unis,344,"China, Hong Kong SAR","Chine, RAS Hong Kong",528,Netherlands,Pays-Bas,56,Belgium,Belgique,780,Trinidad and Tobago,Trinité-et-Tobago,G,The general trade system. See the technical notes for an explanation of the trade systems.,Le système du commerce général. Voir les Notes techniques pour une explication des Systèmes de commerce.,TF,Arrivals of non-resident tourists at national borders.,Arrivées de touristes non résidents aux frontières nationales.
,,,Region,741,Y,,Latin America and the Caribbean not elsewhere specified,Latin America and the Caribbean n.e.s,Amérique latine et Caraïbes n.s.a,,,,,,,N,1.5,N,,,,,,,,,,,,,,,,,,,,,,,,
,,,Region,742,N,,Eastern and South-eastern Asia and Oceania,East Asia and Oceania,Asie orientale et Océanie,,,,,,,Y,-1,N,,,,,,,,,,,,,,,,,,,,,,,,
,,,Group,743,N,,Southern Asia (exc. Iran (Islamic Republic of)),[use code 34 and footnote],[use code 34 and footnote],,,,,,,Y,1,N,,,,,,,,,,,,,,,,,,,,,,,,
154,Northern Europe,Europe septentrionale,Area,744,Y,SJM,Svalbard and Jan Mayen Islands,Svalbard and Jan Mayen Is.,Îles Svalbard-et-Jan Mayen,,,,NOK,Norwegian Krone (NOK),couronne norvégienne (NOK),Y,2,Y,,,,,,,,,,,,,,,,,,,,,,,,
,,,Group,745,N,,Europe and Central Asia,Europe and Central Asia,Europe et Asie centrale,,,,,,,Y,1,N,,,,,,,,,,,,,,,,,,,,,,,,
,,,Group,746,N,,Northern Africa (exc. Sudan),[use code 15 and footnote],[use code 15 and footnote],,,,,,,Y,1,N,,,,,,,,,,,,,,,,,,,,,,,,
,,,Region,747,N,,Northern Africa and Western Asia,Northern Africa and Western Asia,Afrique septentrionale et Asie occidentale,,,,,,,Y,-1,N,,,,,,,,,,,,,,,,,,,,,,,,
18,Southern Africa,Afrique australe,Area,748,Y,SWZ,Eswatini,Eswatini,Eswatini,22588,Mbabane,Mbabane,SZL,Lilangeni (SZL),lilangeni (SZL),Y,2,Y,710,South Africa,Afrique du Sud,710,South Africa,Afrique du Sud,404,Kenya,Kenya,156,China,Chine,566,Nigeria,Nigéria,356,India,Inde,G,The general trade system. See the technical notes for an explanation of the trade systems.,Le système du commerce général. Voir les Notes techniques pour une explication des Systèmes de commerce.,TF,Arrivals of non-resident tourists at national borders.,Arrivées de touristes non résidents aux frontières nationales.
,,,Group,749,Y,,South Asian Association for Regional Cooperation (SAARC),,,,,,,,,N,2,N,,,,,,,,,,,,,,,,,,,,,,,,
,,,Group,750,Y,,South Pacific Commission (SPC),South Pacific Commission,Commission du Pacifique-S,,,,,,,N,2,N,,,,,,,,,,,,,,,,,,,,,,,,
,,,Group,751,Y,,South Pacific Bureau for Economic Cooperation (SPEC),South Pacific Bureau for,Bureau de la coopération,,,,,,,N,2,N,,,,,,,,,,,,,,,,,,,,,,,,
154,Northern Europe,Europe septentrionale,Area,752,Y,SWE,Sweden,Sweden,Suède,22597,Stockholm,Stockholm,SEK,Swedish Krona (SEK),couronne suédoise (SEK),Y,2,Y,276,Germany,Allemagne,276,Germany,Allemagne,578,Norway,Norvège,528,Netherlands,Pays-Bas,246,Finland,Finlande,578,Norway,Norvège,G,The general trade system. See the technical notes for an explanation of the trade systems.,Le système du commerce général. Voir les Notes techniques pour une explication des Systèmes de commerce.,TF,Arrivals of non-resident tourists at national borders.,Arrivées de touristes non résidents aux frontières nationales.
,,,Region,753,N,,Eastern and South-Eastern Asia,Eastern and South-Eastern Asia,Asie orientale et du Sud-Est,,,,,,,Y,-1,N,,,,,,,,,,,,,,,,,,,,,,,,
155,Western Europe,Europe occidentale,Area,756,Y,CHE,Switzerland,Switzerland,Suisse,22601,Bern,Berne,CHF,Swiss Franc (CHF),franc suisse (CHF),Y,2,Y,276,Germany,Allemagne,276,Germany,Allemagne,840,United States,États-Unis,826,United Kingdom,Royaume-Uni,156,China,Chine,380,Italy,Italie,S,The special trade system. See the technical notes for an explanation of the trade systems.,Le système du commerce spécial. Voir les Notes techniques pour une explication des Systèmes de commerce.,THS,Arrivals of non-resident tourists in hotels and similar establishments.,Arrivées de touristes non résidents dans les hôtels et établissements similaires.
155,Western Europe,Europe occidentale,Area,757,Y,,Switzerland-Liechtenstein,[use code 756 and footnote],[use code 756 and footnote],,,,,,,N,-1,Y,,,,,,,,,,,,,,,,,,,,,,,,
145,Western Asia,Asie occidentale,Area,760,Y,SYR,Syrian Arab Republic,Syrian Arab Republic,République arabe syrienne,22610,Damascus,Damas,SYP,Syrian Pound (SYP),livre syrienne (SYP),Y,2,Y,422,Lebanon,Liban,792,Turkey,Turquie,818,Egypt,Égypte,156,China,Chine,682,Saudi Arabia,Arabie saoudite,818,Egypt,Égypte,S,The special trade system. See the technical notes for an explanation of the trade systems.,Le système du commerce spécial. Voir les Notes techniques pour une explication des Systèmes de commerce.,TCE,Arrivals of non-resident tourists in all types of tourism accommodation establishments.,Arrivées de touristes non résidents dans tous les types d'établissements d'hébergement touristique.
143,Central Asia,Asie centrale,Area,762,Y,TJK,Tajikistan,Tajikistan,Tadjikistan,22615,Dushanbe,Douchanbé,TJS,Somoni (TJS),somoni (TJS),Y,2,Y,398,Kazakhstan,Kazakhstan,156,China,Chine,756,Switzerland,Suisse,643,Russian Federation,Fédération de Russie,792,Turkey,Turquie,398,Kazakhstan,Kazakhstan,G,The general trade system. See the technical notes for an explanation of the trade systems.,Le système du commerce général. Voir les Notes techniques pour une explication des Systèmes de commerce.,VF,Arrivals of non-resident visitors at national borders.,Arrivées de visiteurs non résidents aux frontières nationales.
35,South-eastern Asia,Asie du Sud-Est,Area,764,Y,THA,Thailand,Thailand,Thaïlande,22617,Bangkok,Bangkok,THB,Baht (THB),baht (THB),Y,2,Y,840,United States,États-Unis,156,China,Chine,156,China,Chine,392,Japan,Japon,392,Japan,Japon,840,United States,États-Unis,S,The special trade system. See the technical notes for an explanation of the trade systems.,Le système du commerce spécial. Voir les Notes techniques pour une explication des Systèmes de commerce.,TF,Arrivals of non-resident tourists at national borders.,Arrivées de touristes non résidents aux frontières nationales.
11,Western Africa,Afrique occidentale,Area,768,Y,TGO,Togo,Togo,Togo,22628,Lomé,Lomé,XOF,"CFA Franc, BCEAO (XOF)","franc CFA, BCEAO (XOF)",Y,2,Y,854,Burkina Faso,Burkina Faso,156,China,Chine,204,Benin,Bénin,250,France,France,288,Ghana,Ghana,392,Japan,Japon,S,The special trade system. See the technical notes for an explanation of the trade systems.,Le système du commerce spécial. Voir les Notes techniques pour une explication des Systèmes de commerce.,THS,Arrivals of non-resident tourists in hotels and similar establishments.,Arrivées de touristes non résidents dans les hôtels et établissements similaires.
61,Polynesia,Polynésie,Area,772,Y,TKL,Tokelau,Tokelau,Tokélaou,22629,Tokelau,Tokélaou,NZD,New Zealand Dollar (NZD),dollar néo-zélandais (NZD),Y,2,Y,250,France,France,566,Nigeria,Nigéria,702,Singapore,Singapour,276,Germany,Allemagne,840,United States,États-Unis,882,Samoa,Samoa,G,The general trade system. See the technical notes for an explanation of the trade systems.,Le système du commerce général. Voir les Notes techniques pour une explication des Systèmes de commerce.,,,
61,Polynesia,Polynésie,Area,776,Y,TON,Tonga,Tonga,Tonga,22630,Nuku'alofa,Nuku'alofa,TOP,Pa'anga (TOP),pa'anga (TOP),Y,2,Y,840,United States,États-Unis,554,New Zealand,Nouvelle-Zélande,410,Rep. of Korea,République de Corée,242,Fiji,Fidji,392,Japan,Japon,156,China,Chine,G,The general trade system. See the technical notes for an explanation of the trade systems.,Le système du commerce général. Voir les Notes techniques pour une explication des Systèmes de commerce.,TF,Arrivals of non-resident tourists at national borders.,Arrivées de touristes non résidents aux frontières nationales.
,,,Group,778,Y,,Transition countries,Transition countries,Pays en transition,,,,,,,N,1,Y,,,,,,,,,,,,,,,,,,,,,,,,
29,Caribbean,Caraïbes,Area,780,Y,TTO,Trinidad and Tobago,Trinidad and Tobago,Trinité-et-Tobago,22631,Port of Spain,Port of Spain,TTD,TT Dollar (TTD),dollar de la T-et-T (TTD),Y,2,Y,840,United States,États-Unis,840,United States,États-Unis,328,Guyana,Guyana,643,Russian Federation,Fédération de Russie,152,Chile,Chili,156,China,Chine,S,The special trade system. See the technical notes for an explanation of the trade systems.,Le système du commerce spécial. Voir les Notes techniques pour une explication des Systèmes de commerce.,TF,Arrivals of non-resident tourists at national borders.,Arrivées de touristes non résidents aux frontières nationales.
,,,Area,783,Y,,Egypt (Suez Canal),Suez Canal,Canal de Suez,,,,GBP,Pound Sterling (GBP),livre sterling (GBP),N,3,N,,,,,,,,,,,,,,,,,,,,,,,,
145,Western Asia,Asie occidentale,Area,784,Y,ARE,United Arab Emirates,United Arab Emirates,Émirats arabes unis,22632,Abu Dhabi,Abou Dhabi,AED,UAE Dirham (AED),dirham des É.A.U. (AED),Y,2,Y,899,Areas nes,Zones nsa,899,Areas nes,Zones nsa,490,Asia nes,Asie nsa,156,China,Chine,356,India,Inde,840,United States,États-Unis,G,The general trade system. See the technical notes for an explanation of the trade systems.,Le système du commerce général. Voir les Notes techniques pour une explication des Systèmes de commerce.,THS,Arrivals of non-resident tourists in hotels and similar establishments.,Arrivées de touristes non résidents dans les hôtels et établissements similaires.
,,,Area,785,Y,,United Arab Emirates (Abu Dhabi),Abu Dhabi,,,,,AED,UAE Dirham (AED),dirham des É.A.U. (AED),N,3,N,,,,,,,,,,,,,,,,,,,,,,,,
,,,Area,786,Y,,United Arab Emirates (Dubai),Dubai,Doubaï,,,,AED,UAE Dirham (AED),dirham des É.A.U. (AED),N,3,N,,,,,,,,,,,,,,,,,,,,,,,,
,,,Area,787,Y,,United Arab Emirates (Sharjah),Sharjah,Chardjah,,,,AED,UAE Dirham (AED),dirham des É.A.U. (AED),N,3,N,,,,,,,,,,,,,,,,,,,,,,,,
15,Northern Africa,Afrique septentrionale,Area,788,Y,TUN,Tunisia,Tunisia,Tunisie,22646,Tunis,Tunis,TND,Tunisian Dinar (TND),dinar tunisien (TND),Y,2,Y,250,France,France,380,Italy,Italie,380,Italy,Italie,250,France,France,276,Germany,Allemagne,156,China,Chine,G,The general trade system. See the technical notes for an explanation of the trade systems.,Le système du commerce général. Voir les Notes techniques pour une explication des Systèmes de commerce.,TF,Arrivals of non-resident tourists at national borders.,Arrivées de touristes non résidents aux frontières nationales.
,,,Area,789,Y,,United Arab Emirates (Ajman),Ajman,Adjmân,,,,AED,UAE Dirham (AED),dirham des É.A.U. (AED),N,3,N,,,,,,,,,,,,,,,,,,,,,,,,
,,,Area,790,Y,,United Arab Emirates (Fujairah),Fujairah,Foudjaïrah,,,,AED,UAE Dirham (AED),dirham des É.A.U. (AED),N,3,N,,,,,,,,,,,,,,,,,,,,,,,,
,,,Area,791,Y,,United Arab Emirates (Umm al Qaiwain),Umm al Qaiwain,Oumm al-Quïwaïn,,,,AED,UAE Dirham (AED),dirham des É.A.U. (AED),N,3,N,,,,,,,,,,,,,,,,,,,,,,,,
145,Western Asia,Asie occidentale,Area,792,Y,TUR,Turkey,Turkey,Turquie,22656,Ankara,Ankara,TRY,Turkish Lira (TRY),livre turque (TRY),Y,2,Y,276,Germany,Allemagne,156,China,Chine,826,United Kingdom,Royaume-Uni,276,Germany,Allemagne,784,United Arab Emirates,Émirats arabes unis,643,Russian Federation,Fédération de Russie,S,The special trade system. See the technical notes for an explanation of the trade systems.,Le système du commerce spécial. Voir les Notes techniques pour une explication des Systèmes de commerce.,TF,Arrivals of non-resident tourists at national borders.,Arrivées de touristes non résidents aux frontières nationales.
,,,Area,793,Y,,United Arab Emirates (Ras al Khaimah),Ras al Khaimah,Ras al-Khaïmah,,,,AED,UAE Dirham (AED),dirham des É.A.U. (AED),N,3,N,,,,,,,,,,,,,,,,,,,,,,,,
143,Central Asia,Asie centrale,Area,795,Y,TKM,Turkmenistan,Turkmenistan,Turkménistan,22739,Ashgabat,Achgabat,TMT,Turkmen. Manat (TMT),manat turkmène (TMT),Y,2,Y,156,China,Chine,792,Turkey,Turquie,4,Afghanistan,Afghanistan,643,Russian Federation,Fédération de Russie,792,Turkey,Turquie,276,Germany,Allemagne,G,The general trade system. See the technical notes for an explanation of the trade systems.,Le système du commerce général. Voir les Notes techniques pour une explication des Systèmes de commerce.,TF,Arrivals of non-resident tourists at national borders.,Arrivées de touristes non résidents aux frontières nationales.
29,Caribbean,Caraïbes,Area,796,Y,TCA,Turks and Caicos Islands,Turks and Caicos Islands,Îles Turques-et-Caïques,22742,Cockburn Town,Cockburn Town,USD,US Dollar (USD),dollar des É.-U. (USD),Y,2,Y,840,United States,États-Unis,840,United States,États-Unis,140,Central African Rep.,Rép. centrafricaine,826,United Kingdom,Royaume-Uni,724,Spain,Espagne,214,Dominican Rep.,Rép. dominicaine,G,The general trade system. See the technical notes for an explanation of the trade systems.,Le système du commerce général. Voir les Notes techniques pour une explication des Systèmes de commerce.,TF,Arrivals of non-resident tourists at national borders.,Arrivées de touristes non résidents aux frontières nationales.
61,Polynesia,Polynésie,Area,798,Y,TUV,Tuvalu,Tuvalu,Tuvalu,22743,Funafuti,Funafuti,AUD,Australian Dollar (AUD),dollar australien (AUD),Y,2,Y,764,Thailand,Thaïlande,702,Singapore,Singapour,608,Philippines,Philippines,242,Fiji,Fidji,218,Ecuador,Équateur,156,China,Chine,G,The general trade system. See the technical notes for an explanation of the trade systems.,Le système du commerce général. Voir les Notes techniques pour une explication des Systèmes de commerce.,TF,Arrivals of non-resident tourists at national borders.,Arrivées de touristes non résidents aux frontières nationales.
14,Eastern Africa,Afrique orientale,Area,800,Y,UGA,Uganda,Uganda,Ouganda,22744,Kampala,Kampala,UGX,Uganda Shilling (UGX),shilling ougandais (UGX),Y,2,Y,404,Kenya,Kenya,156,China,Chine,784,United Arab Emirates,Émirats arabes unis,356,India,Inde,728,South Sudan,Soudan du sud,784,United Arab Emirates,Émirats arabes unis,G,The general trade system. See the technical notes for an explanation of the trade systems.,Le système du commerce général. Voir les Notes techniques pour une explication des Systèmes de commerce.,TF,Arrivals of non-resident tourists at national borders.,Arrivées de touristes non résidents aux frontières nationales.
151,Eastern Europe,Europe orientale,Area,804,Y,UKR,Ukraine,Ukraine,Ukraine,22765,Kyiv,Kiev,UAH,Hryvnia (UAH),hryvnia (UAH),Y,2,Y,643,Russian Federation,Fédération de Russie,643,Russian Federation,Fédération de Russie,616,Poland,Pologne,156,China,Chine,792,Turkey,Turquie,276,Germany,Allemagne,G,The general trade system. See the technical notes for an explanation of the trade systems.,Le système du commerce général. Voir les Notes techniques pour une explication des Systèmes de commerce.,TF,Arrivals of non-resident tourists at national borders.,Arrivées de touristes non résidents aux frontières nationales.
,,,Agency,806,Y,,"United Nations Educational, Scientific and Cultural Organization (UNESCO)",United Nations Educationa,Organisation des Nations,,,,,,,N,1,N,,,,,,,,,,,,,,,,,,,,,,,,
39,Southern Europe,Europe méridionale,Area,807,Y,MKD,North Macedonia,North Macedonia,Macédoine du Nord,22802,Skopje,Skopje,MKD,Denar (MKD),denar (MKD),Y,2,Y,276,Germany,Allemagne,276,Germany,Allemagne,688,Serbia,Serbie,826,United Kingdom,Royaume-Uni,100,Bulgaria,Bulgarie,300,Greece,Grèce,S,The special trade system. See the technical notes for an explanation of the trade systems.,Le système du commerce spécial. Voir les Notes techniques pour une explication des Systèmes de commerce.,TCE,Arrivals of non-resident tourists in all types of tourism accommodation establishments.,Arrivées de touristes non résidents dans tous les types d'établissements d'hébergement touristique.
,,,Agency,808,Y,,United Nations Children's Fund (UNICEF),United Nations Children's,Fonds des Nations Unies p,,,,,,,N,1,N,,,,,,,,,,,,,,,,,,,,,,,,
,,,Agency,809,Y,,United Nations Industrial Development Organization (UNIDO),United Nations Industrial,Organisation des Nations,,,,,,,N,1,N,,,,,,,,,,,,,,,,,,,,,,,,
1,World,Monde,Area,810,Y,SUN,Union of Soviet Socialist Republics [former],USSR [former],URSS [anc.],,,,SUR,Soviet Ruble (SUR),rouble soviétique (SUR),N,2,Y,,,,,,,,,,,,,,,,,,,,,,,,
,,,Area,811,Y,,"Union of Soviet Socialist Republics, others",Asia,Asie,,,,,,,N,3,N,,,,,,,,,,,,,,,,,,,,,,,,
,,,Agency,813,Y,,United Nations Development Programme (UNDP),United Nations Developmen,Programme des Nations Uni,,,,,,,N,1,N,,,,,,,,,,,,,,,,,,,,,,,,
,,,Agency,814,Y,,United Nations Conference on Trade and Development (UNCTAD),United Nations Conference,Conférence des Nations Un,,,,,,,N,1,N,,,,,,,,,,,,,,,,,,,,,,,,
,,,Agency,815,Y,,United Nations Environment Programme (UNEP),United Nations Environmen,Programme des Nations Uni,,,,,,,N,1,N,,,,,,,,,,,,,,,,,,,,,,,,
,,,Agency,816,Y,,United Nations Centre for Human Settlements (UNCHS) (HABITAT),United Nations Centre for,Centre des Nations Unies,,,,,,,N,1,N,,,,,,,,,,,,,,,,,,,,,,,,
15,Northern Africa,Afrique septentrionale,Area,818,Y,EGY,Egypt,Egypt,Égypte,22812,Cairo,Le Caire,EGP,Egyptian Pound (EGP),livre égyptienne (EGP),Y,2,Y,784,United Arab Emirates,Émirats arabes unis,156,China,Chine,380,Italy,Italie,276,Germany,Allemagne,792,Turkey,Turquie,380,Italy,Italie,G,The general trade system. See the technical notes for an explanation of the trade systems.,Le système du commerce général. Voir les Notes techniques pour une explication des Systèmes de commerce.,TF,Arrivals of non-resident tourists at national borders.,Arrivées de touristes non résidents aux frontières nationales.
,,,Agency,819,Y,,United Nations High Commissioner for Refugees (UNHCR),Office of the United Nati,Haut Commissariat des Nat,,,,,,,N,1,N,,,,,,,,,,,,,,,,,,,,,,,,
,,,Agency,820,Y,,United Nations Relief and Works Agency for Palestine Refugees in the Near East (UNRWA),UNRWA,...,,,,,,,N,1,N,,,,,,,,,,,,,,,,,,,,,,,,
,,,Agency,821,Y,,United Nations Disaster Relief Organization (UNDRO),Office of the United Nati,Bureau du Coordonnateur d,,,,,,,N,1,N,,,,,,,,,,,,,,,,,,,,,,,,
,,,Agency,823,Y,,United Nations Population Fund (UNFPA),United Nations Fund for P,Fonds des Nations Unies p,,,,,,,N,1,N,,,,,,,,,,,,,,,,,,,,,,,,
,,,Area,824,Y,,United Kingdom of Great Britain and Northern Ireland (England),England,Angleterre,,,,GBP,Pound Sterling (GBP),livre sterling (GBP),N,3,N,,,,,,,,,,,,,,,,,,,,,,,,
,,,Area,825,Y,,United Kingdom of Great Britain and Northern Ireland (Wales),Wales,Galles,,,,GBP,Pound Sterling (GBP),livre sterling (GBP),N,3,N,,,,,,,,,,,,,,,,,,,,,,,,
154,Northern Europe,Europe septentrionale,Area,826,Y,GBR,United Kingdom of Great Britain and Northern Ireland,United Kingdom,Royaume-Uni,22860,London,Londres,GBP,Pound Sterling (GBP),livre sterling (GBP),Y,2,Y,840,United States,États-Unis,276,Germany,Allemagne,276,Germany,Allemagne,156,China,Chine,528,Netherlands,Pays-Bas,840,United States,États-Unis,G,The general trade system. See the technical notes for an explanation of the trade systems.,Le système du commerce général. Voir les Notes techniques pour une explication des Systèmes de commerce.,TF,Arrivals of non-resident tourists at national borders.,Arrivées de touristes non résidents aux frontières nationales.
,,,Area,827,Y,,United Kingdom of Great Britain and Northern Ireland (England and Wales),England and Wales,Angleterre et Galles,,,,GBP,Pound Sterling (GBP),livre sterling (GBP),N,3,N,,,,,,,,,,,,,,,,,,,,,,,,
,,,Area,828,Y,,United Kingdom of Great Britain and Northern Ireland (Northern Ireland),Northern Ireland,Irlande du Nord,,,,GBP,Pound Sterling (GBP),livre sterling (GBP),N,3,N,,,,,,,,,,,,,,,,,,,,,,,,
,,,Area,829,Y,,United Kingdom of Great Britain and Northern Ireland (Scotland),Scotland,Ecosse,,,,GBP,Pound Sterling (GBP),livre sterling (GBP),N,3,N,,,,,,,,,,,,,,,,,,,,,,,,
154,Northern Europe,Europe septentrionale,Area,830,Y,,Channel Islands,Channel Islands,Îles Anglo-Normandes,22891,Saint Helier,Saint-Hélier,GBP,Pound Sterling (GBP),livre sterling (GBP),Y,1,Y,,,,,,,,,,,,,,,,,,,,,,,,
154,Northern Europe,Europe septentrionale,Area,831,Y,GGY,Guernsey,Guernsey,Guernesey,,,,GBP,Pound Sterling (GBP),livre sterling (GBP),Y,2,Y,,,,,,,,,,,,,,,,,,,,,,,,
154,Northern Europe,Europe septentrionale,Area,832,Y,JEY,Jersey,Jersey,Jersey,,,,GBP,Pound Sterling (GBP),livre sterling (GBP),Y,2,Y,,,,,,,,,,,,,,,,,,,,,,,,
154,Northern Europe,Europe septentrionale,Area,833,Y,IMN,Isle of Man,Isle of Man,Île de Man,22892,Douglas,Douglas,GBP,Pound Sterling (GBP),livre sterling (GBP),Y,2,Y,,,,,,,,,,,,,,,,,,,,,,,,
14,Eastern Africa,Afrique orientale,Area,834,Y,TZA,United Republic of Tanzania,United Rep. of Tanzania,Rép.-Unie de Tanzanie,22895,Dodoma,Dodoma,TZS,Tanzanian Shilling (TZS),shilling tanzanien (TZS),Y,2,Y,356,India,Inde,156,China,Chine,710,South Africa,Afrique du Sud,356,India,Inde,704,Viet Nam,Viet Nam,784,United Arab Emirates,Émirats arabes unis,G,The general trade system. See the technical notes for an explanation of the trade systems.,Le système du commerce général. Voir les Notes techniques pour une explication des Systèmes de commerce.,TF,Arrivals of non-resident tourists at national borders.,Arrivées de touristes non résidents aux frontières nationales.
14,Eastern Africa,Afrique orientale,Area,835,Y,,United Republic of Tanzania (mainland),[use code 834 with footnote],[use code 834 with footnote],,,,,,,N,3,N,,,,,,,,,,,,,,,,,,,,,,,,
14,Eastern Africa,Afrique orientale,Area,836,N,,United Republic of Tanzania (Zanzibar),Zanzibar,Zanzibar,,,,TZS,Tanzanian Shilling (TZS),shilling tanzanien (TZS),Y,3,N,,,,,,,,,,,,,,,,,,,,,,,,
,,,Other,837,Y,,"Bunkers, ship stores","Bunkers, ship stores",Combustible de soute et provisions de bord,,,,,,,Y,1,Y,,,,,,,,,,,,,,,,,,,,,,,,
,,,Other,838,Y,,Free zones,Free Zones,Zones franches,,,,,,,Y,1,Y,,,,,,,,,,,,,,,,,,,,,,,,
,,,Other,839,Y,,Undisclosed (Special categories),Undisclosed (Special categories),Pays non divulgués,,,,,,,N,1,N,,,,,,,,,,,,,,,,,,,,,,,,
21,Northern America,Amérique septentrionale,Area,840,Y,USA,United States of America,United States of America,États-Unis d’Amérique,23174,"Washington, D.C.","Washington, D.C.",USD,US Dollar (USD),dollar des É.-U. (USD),Y,2,Y,124,Canada,Canada,156,China,Chine,484,Mexico,Mexique,484,Mexico,Mexique,156,China,Chine,124,Canada,Canada,G,The general trade system. See the technical notes for an explanation of the trade systems.,Le système du commerce général. Voir les Notes techniques pour une explication des Systèmes de commerce.,TF,Arrivals of non-resident tourists at national borders.,Arrivées de touristes non résidents aux frontières nationales.
21,Northern America,Amérique septentrionale,Area,841,Y,,United States of America-Puerto Rico,[use code 840 and footnote],[use code 840 and footnote],,,,,,,N,-1,Y,,,,,,,,,,,,,,,,,,,,,,,,
21,Northern America,Amérique septentrionale,Area,842,Y,,United States of America-Puerto Rico-United States Virgin Islands,[use code 840 and footnote],[use code 840 and footnote],,,,,,,N,-1,Y,,,,,,,,,,,,,,,,,,,,,,,,
,,,Agency,843,Y,,United Nations Institute for Training and Research (UNITAR),United Nations Institute,Institut des Nations Unie,,,,,,,N,1,N,,,,,,,,,,,,,,,,,,,,,,,,
,,,Agency,844,Y,,United Nations University (UNU),United Nations University,Université des Nations Un,,,,,,,N,1,N,,,,,,,,,,,,,,,,,,,,,,,,
,,,Area,847,Y,,United States miscellaneous Pacific Islands [former] (Kingman Reef),Kingman Reef,Kingman Reef,,,,USD,US dollar (USD),dollar des É.-U. (USD),N,3,N,,,,,,,,,,,,,,,,,,,,,,,,
,,,Area,848,Y,,United States miscellaneous Pacific Islands [former] (Palmyra Atoll),Palmyra,Palmyra,,,,USD,US Dollar (USD),dollar des É.-U. (USD),N,3,N,,,,,,,,,,,,,,,,,,,,,,,,
47,Micronesia [former],Micronésie [anc.],Area,849,Y,PUS,United States miscellaneous Pacific Islands [former],United States misc. Pacific Is. [former],É-U diverses îles du Pacifique [anc.],,,,USD,US dollar (USD),dollar des É.-U. (USD),N,2,Y,,,,,,,,,,,,,,,,,,,,,,,,
29,Caribbean,Caraïbes,Area,850,Y,VIR,United States Virgin Islands,United States Virgin Islands,Îles Vierges américaines,23190,Charlotte Amalie,Charlotte Amalie,USD,US Dollar (USD),dollar des É.-U. (USD),Y,2,Y,,,,,,,,,,,,,,,,,,,,,,TF,Arrivals of non-resident tourists at national borders.,Arrivées de touristes non résidents aux frontières nationales.
,,,Area,851,Y,,United States Virgin Islands (Saint Croix),Saint Croix,Sainte-Croix,,,,USD,US Dollar (USD),dollar des É.-U. (USD),N,3,N,,,,,,,,,,,,,,,,,,,,,,,,
,,,Area,852,Y,,United States Virgin Islands (Saint John),Saint John,Saint-Jean,,,,USD,US Dollar (USD),dollar des É.-U. (USD),N,3,N,,,,,,,,,,,,,,,,,,,,,,,,
,,,Area,853,Y,,United States Virgin Islands (Saint Thomas),Saint Thomas,Saint-Thomas,,,,USD,US Dollar (USD),dollar des É.-U. (USD),N,3,N,,,,,,,,,,,,,,,,,,,,,,,,
11,Western Africa,Afrique occidentale,Area,854,Y,BFA,Burkina Faso,Burkina Faso,Burkina Faso,23192,Ouagadougou,Ouagadougou,XOF,"CFA Franc, BCEAO (XOF)","franc CFA, BCEAO (XOF)",Y,2,Y,756,Switzerland,Suisse,156,China,Chine,356,India,Inde,384,Côte d'Ivoire,Côte d'Ivoire,702,Singapore,Singapour,250,France,France,G,The general trade system. See the technical notes for an explanation of the trade systems.,Le système du commerce général. Voir les Notes techniques pour une explication des Systèmes de commerce.,THS,Arrivals of non-resident tourists in hotels and similar establishments.,Arrivées de touristes non résidents dans les hôtels et établissements similaires.
,,,Area,855,Y,,"United States Virgin Islands, others",,,,,,USD,US dollar (USD),dollar des É.-U. (USD),N,3,N,,,,,,,,,,,,,,,,,,,,,,,,
,,,Agency,857,Y,,Universal Postal Union (UPU),Universal Postal Union (U,Union postale universelle,,,,,,,N,1,N,,,,,,,,,,,,,,,,,,,,,,,,
5,South America,Amérique du Sud,Area,858,Y,URY,Uruguay,Uruguay,Uruguay,23193,Montevideo,Montevideo,UYU,Peso Uruguayo (UYU),peso uruguayen (UYU),Y,2,Y,156,China,Chine,156,China,Chine,76,Brazil,Brésil,76,Brazil,Brésil,838,Free Zones,Zones franches,32,Argentina,Argentine,G,The general trade system. See the technical notes for an explanation of the trade systems.,Le système du commerce général. Voir les Notes techniques pour une explication des Systèmes de commerce.,TF,Arrivals of non-resident tourists at national borders.,Arrivées de touristes non résidents aux frontières nationales.
143,Central Asia,Asie centrale,Area,860,Y,UZB,Uzbekistan,Uzbekistan,Ouzbékistan,23209,Tashkent,Tachkent,UZS,Uzbekistan Sum (UZS),sum ouzbek (UZS),Y,2,Y,756,Switzerland,Suisse,643,Russian Federation,Fédération de Russie,156,China,Chine,156,China,Chine,643,Russian Federation,Fédération de Russie,398,Kazakhstan,Kazakhstan,G,The general trade system. See the technical notes for an explanation of the trade systems.,Le système du commerce général. Voir les Notes techniques pour une explication des Systèmes de commerce.,TF,Arrivals of non-resident tourists at national borders.,Arrivées de touristes non résidents aux frontières nationales.
5,South America,Amérique du Sud,Area,862,Y,VEN,Venezuela (Bolivarian Republic of),Venezuela (Boliv. Rep. of),Venezuela (Rép. boliv. du),23217,Caracas,Caracas,VEF,Bolívar (VEF),bolivar (VEF),Y,2,Y,840,United States,États-Unis,840,United States,États-Unis,156,China,Chine,156,China,Chine,356,India,Inde,484,Mexico,Mexique,G,The general trade system. See the technical notes for an explanation of the trade systems.,Le système du commerce général. Voir les Notes techniques pour une explication des Systèmes de commerce.,TF,Arrivals of non-resident tourists at national borders.,Arrivées de touristes non résidents aux frontières nationales.
35,South-eastern Asia,Asie du Sud-Est,Area,866,Y,VDR,"Viet Nam, Democratic Republic of [former]","Viet Nam, Dem. Rep. of [former]",Viet-Nam du Nord [anc.],,,,VND,Dong (VND),dong (VND),N,2,Y,,,,,,,,,,,,,,,,,,,,,,,,
35,South-eastern Asia,Asie du Sud-Est,Area,868,Y,XVNM,"South Viet-Nam, Republic of [former]","South Viet-Nam, Rep. of [former]",Rép. du Viet-Nam [anc.],,,,VNC,Old Dong (VNC),dong ancienne (VNC),N,2,Y,,,,,,,,,,,,,,,,,,,,,,,,
,,,Agency,869,N,,World Intellectual Property Organization (WIPO),WIPO,OMPI,,,,,,,N,1,N,,,,,,,,,,,,,,,,,,,,,,,,
,,,Agency,870,N,,African Intellectual Property Organization (OAPI),OAPI,OAPI,,,,,,,N,1,N,,,,,,,,,,,,,,,,,,,,,,,,
,,,Agency,871,N,,African Regional Intellectual Property Organization (ARIPO),ARIPO,ARIPO,,,,,,,N,1,N,,,,,,,,,,,,,,,,,,,,,,,,
47,Micronesia [former],Micronésie [anc.],Area,872,Y,WAK,Wake Island [former],Wake Island [former],Île de Wake [anc.],,,,USD,US dollar (USD),dollar des É.-U. (USD),N,2,Y,,,,,,,,,,,,,,,,,,,,,,,,
,,,Agency,873,Y,,World Food Conference (WFC),World Food Council (WFC),Conseil mondial de l'alim,,,,,,,N,1,N,,,,,,,,,,,,,,,,,,,,,,,,
,,,Agency,874,Y,,World Food Programme (WFP),World Food Programme (WFP,Programme alimentaire mon,,,,,,,N,1,N,,,,,,,,,,,,,,,,,,,,,,,,
,,,Region,875,Y,,Western Africa not elsewhere specified,Western Africa n.e.s,Afrique occidentale n.s.a,,,,,,,N,3,N,,,,,,,,,,,,,,,,,,,,,,,,
61,Polynesia,Polynésie,Area,876,Y,WLF,Wallis and Futuna Islands,Wallis and Futuna Islands,Îles Wallis-et-Futuna,23235,Matu-Utu,Matu-Utu,XPF,CFP Franc (XPF),franc CFP (XPF),Y,2,Y,702,Singapore,Singapour,250,France,France,250,France,France,242,Fiji,Fidji,826,United Kingdom,Royaume-Uni,899,Areas nes,Zones nsa,S,The special trade system. See the technical notes for an explanation of the trade systems.,Le système du commerce spécial. Voir les Notes techniques pour une explication des Systèmes de commerce.,,,
,,,Area,877,Y,,British West Indies [former],West Indies,Antilles,,,,,,,N,-1,N,,,,,,,,,,,,,,,,,,,,,,,,
,,,Group,878,Y,,West Indies Associated States,West Indies Associated St,Etats Associés des Indes,,,,,,,N,2,N,,,,,,,,,,,,,,,,,,,,,,,,
,,,Region,879,Y,,Western Asia not elsewhere specified,Western Asia n.e.s,Asie occidentale n.s.a,,,,,,,Y,3,Y,,,,,,,,,,,,,,,,,,,,,,,,
,,,Agency,880,Y,,World Health Organization (WHO),World Health Organization,Organisation mondiale de,,,,,,,N,1,N,,,,,,,,,,,,,,,,,,,,,,,,
,,,Region,881,Y,,Western Europe not elsewhere specified,Western Europe n.e.s,Europe occidentale n.s.a,,,,,,,N,3,N,,,,,,,,,,,,,,,,,,,,,,,,
61,Polynesia,Polynésie,Area,882,Y,WSM,Samoa,Samoa,Samoa,23236,Apia,Apia,WST,Tala (WST),tala (WST),Y,2,Y,16,American Samoa,Samoa américaines,554,New Zealand,Nouvelle-Zélande,36,Australia,Australie,702,Singapore,Singapour,554,New Zealand,Nouvelle-Zélande,840,United States,États-Unis,S,The special trade system. See the technical notes for an explanation of the trade systems.,Le système du commerce spécial. Voir les Notes techniques pour une explication des Systèmes de commerce.,TF,Arrivals of non-resident tourists at national borders.,Arrivées de touristes non résidents aux frontières nationales.
,,,Area,883,Y,,British Windward Islands [former],Windward Islands,Iles Windward,,,,,,,N,-1,N,,,,,,,,,,,,,,,,,,,,,,,,
,,,Group,884,Y,,Yaounde Treaty States,Yaounde Treaty States,Etats du Traité de Yaound,,,,,,,N,2,N,,,,,,,,,,,,,,,,,,,,,,,,
,,,Agency,885,N,,World Meteorological Organization (WMO),World Meteorological Orga,Organisation météorologiq,,,,,,,N,1,N,,,,,,,,,,,,,,,,,,,,,,,,
37,Western Asia [former],Asie occidentale [anc.],Area,886,Y,XYEM,Yemen [former],Yemen [former],Yémen [anc.],,,,YER,Yemeni Rial (YER),rial yéménite (YER),N,2,Y,,,,,,,,,,,,,,,,,,,,,,,,
145,Western Asia,Asie occidentale,Area,887,Y,YEM,Yemen,Yemen,Yémen,23239,Sana'a,Sanaa,YER,Yemeni Rial (YER),rial yéménite (YER),Y,2,Y,156,China,Chine,156,China,Chine,512,Oman,Oman,682,Saudi Arabia,Arabie saoudite,784,United Arab Emirates,Émirats arabes unis,512,Oman,Oman,S,The special trade system. See the technical notes for an explanation of the trade systems.,Le système du commerce spécial. Voir les Notes techniques pour une explication des Systèmes de commerce.,TF,Arrivals of non-resident tourists at national borders.,Arrivées de touristes non résidents aux frontières nationales.
,,,Agency,888,Y,,World Bank (WB),World Bank,Banque mondiale,,,,,,,N,1,N,,,,,,,,,,,,,,,,,,,,,,,,
,,,Agency,889,N,,World Trade Organization (WTO),WTO,WTO,,,,,,,N,1,N,,,,,,,,,,,,,,,,,,,,,,,,
39,Southern Europe,Europe méridionale,Area,890,Y,XYUG,Yugoslavia [former],Yugoslavia [former],Yougoslavie [anc.],,,,YUN,Yugoslavian Dinar (YUN),dinar yougoslave (YUN),N,2,Y,,,,,,,,,,,,,,,,,,,,,,,,
39,Southern Europe,Europe méridionale,Area,891,Y,YUG,Serbia and Montenegro [former],Serbia and Monten. [former],Serbie-et-Monténégro [anc.],,,,CSD,Serbian Dinar (CSD),dinar de Serbie (CSD),N,2,Y,,,,,,,,,,,,,,,,,,,S,The special trade system. See the technical notes for an explanation of the trade systems.,Le système du commerce spécial. Voir les Notes techniques pour une explication des Systèmes de commerce.,,,
,,,Group,892,Y,,Economic Community of West African States (ECOWAS),ECOWAS§,CEDEAO§,,,,,,,Y,2,Y,,,,,,,,,,,,,,,,,,,,,,,,
14,Eastern Africa,Afrique orientale,Area,894,Y,ZMB,Zambia,Zambia,Zambie,23277,Lusaka,Lusaka,ZMW,Zambian Kwacha (ZMW),kwacha zambien (ZMW),Y,2,Y,756,Switzerland,Suisse,710,South Africa,Afrique du Sud,156,China,Chine,180,Dem.Rep. of the Congo,Rép. Dém. du Congo,180,Dem.Rep. of the Congo,Rép. Dém. du Congo,156,China,Chine,S,The special trade system. See the technical notes for an explanation of the trade systems.,Le système du commerce spécial. Voir les Notes techniques pour une explication des Systèmes de commerce.,TF,Arrivals of non-resident tourists at national borders.,Arrivées de touristes non résidents aux frontières nationales.
,,,Other,896,Y,,Areas not elsewhere specified,Areas n.e.s,Zones n.s.a,,,,,,,N,1,Y,,,,,,,,,,,,,,,,,,,,,,,,
,,,Other,898,Y,,Areas not specified,Areas not specified,Zones non spécifiées,,,,,,,N,1,Y,,,,,,,,,,,,,,,,,,,,,,,,
,,,Other,899,Y,,Areas not elsewhere specified and unknown,Areas n.e.s and unknown,Zones n.s.a et inconnues,,,,,,,N,1,Y,,,,,,,,,,,,,,,,,,,,,,,,
,,,,900,N,,USER DEFINED,,,,,,,,,,,,,,,,,,,,,,,,,,,,,,,,,,,
